{"type":"Feature","properties":{"name":"Brandywine Creek State Park Course","routeType":"Submitted GPX course record","distanceKilometers":5.06,"distanceMiles":3.14,"note":"Route geometry derived from a submitted GPX track. Historical course verification is ongoing."},"geometry":{"type":"LineString","coordinates":[[-75.577304,39.80499],[-75.577303,39.80499],[-75.577302,39.804991],[-75.577299,39.804993],[-75.577296,39.804995],[-75.577293,39.804998],[-75.577289,39.805001],[-75.577284,39.805004],[-75.57728,39.805008],[-75.577276,39.805011],[-75.577272,39.805015],[-75.57727,39.805018],[-75.577269,39.805021],[-75.577269,39.805025],[-75.577269,39.80503],[-75.577269,39.805037],[-75.577268,39.805048],[-75.577267,39.80506],[-75.577263,39.805069],[-75.577258,39.805074],[-75.577251,39.80508],[-75.577244,39.805089],[-75.577235,39.805098],[-75.577226,39.805106],[-75.577214,39.805112],[-75.5772,39.805118],[-75.577186,39.805124],[-75.57717,39.80513],[-75.577155,39.805136],[-75.57714,39.805142],[-75.577127,39.805148],[-75.577113,39.805154],[-75.577099,39.80516],[-75.577086,39.805167],[-75.577073,39.805173],[-75.57706,39.80518],[-75.577047,39.805187],[-75.577034,39.805194],[-75.577021,39.805202],[-75.577008,39.805209],[-75.576996,39.805216],[-75.576983,39.805223],[-75.576971,39.80523],[-75.57696,39.805237],[-75.576948,39.805245],[-75.576936,39.805252],[-75.576925,39.805259],[-75.576913,39.805266],[-75.576902,39.805273],[-75.576891,39.80528],[-75.576879,39.805288],[-75.576866,39.805296],[-75.576853,39.805305],[-75.57684,39.805313],[-75.576827,39.805321],[-75.576815,39.805329],[-75.576802,39.805337],[-75.576789,39.805345],[-75.576776,39.805353],[-75.576763,39.805361],[-75.57675,39.805369],[-75.576737,39.805377],[-75.576724,39.805386],[-75.57671,39.805394],[-75.576696,39.805402],[-75.576683,39.805411],[-75.576668,39.80542],[-75.576653,39.80543],[-75.576638,39.80544],[-75.576624,39.80545],[-75.57661,39.80546],[-75.576597,39.805469],[-75.576584,39.805478],[-75.576572,39.805488],[-75.576559,39.805497],[-75.576547,39.805505],[-75.576536,39.805514],[-75.576523,39.805523],[-75.576511,39.805533],[-75.576499,39.805543],[-75.576487,39.805553],[-75.576476,39.805562],[-75.576467,39.80557],[-75.576461,39.805578],[-75.576454,39.805585],[-75.576448,39.80559],[-75.576441,39.805596],[-75.576433,39.805602],[-75.576423,39.805611],[-75.576412,39.80562],[-75.576401,39.80563],[-75.576389,39.80564],[-75.576378,39.805651],[-75.576366,39.805662],[-75.576355,39.805672],[-75.576343,39.805683],[-75.576331,39.805694],[-75.576322,39.805705],[-75.576314,39.805714],[-75.576306,39.805722],[-75.576298,39.805731],[-75.57629,39.80574],[-75.576282,39.80575],[-75.576275,39.805759],[-75.576268,39.805768],[-75.576261,39.805778],[-75.576255,39.805788],[-75.576249,39.805798],[-75.576244,39.805807],[-75.576239,39.805817],[-75.576234,39.805828],[-75.576227,39.805839],[-75.576218,39.80585],[-75.576205,39.805855],[-75.576185,39.805855],[-75.576163,39.805852],[-75.576144,39.805853],[-75.576125,39.805858],[-75.576106,39.805866],[-75.576088,39.805876],[-75.576068,39.805886],[-75.57605,39.805896],[-75.576033,39.805906],[-75.576017,39.805916],[-75.576002,39.805928],[-75.575985,39.80594],[-75.575969,39.80595],[-75.575954,39.805961],[-75.575938,39.805974],[-75.575923,39.805988],[-75.575909,39.805999],[-75.575896,39.806007],[-75.575885,39.806009],[-75.575874,39.806005999999996],[-75.575861,39.806002],[-75.575848,39.806003],[-75.575834,39.806007],[-75.575823,39.806015],[-75.575814,39.806027],[-75.575805,39.806039],[-75.575797,39.806052],[-75.575788,39.806065],[-75.57578,39.806077],[-75.57577,39.806089],[-75.57576,39.806101],[-75.575749,39.806112],[-75.57574,39.806125],[-75.57573,39.80614],[-75.575721,39.806155],[-75.575713,39.806169],[-75.575702,39.806182],[-75.575689,39.806192],[-75.575676,39.806201],[-75.575662,39.806209],[-75.57565,39.806216],[-75.575639,39.806222],[-75.575627,39.806229],[-75.575615,39.806234],[-75.575603,39.806239],[-75.575592,39.806243],[-75.57558,39.806246],[-75.575568,39.806249],[-75.575557,39.806251],[-75.575547,39.806254],[-75.575539,39.80626],[-75.575532,39.806269],[-75.575526,39.806274],[-75.575519,39.806275],[-75.57551,39.806276],[-75.575496,39.806279],[-75.575482,39.806282],[-75.575472,39.806287],[-75.575466,39.806295],[-75.57546,39.806307],[-75.575455,39.806321],[-75.575451,39.806336],[-75.575448,39.806351],[-75.575446,39.806369],[-75.575442,39.806387],[-75.575438,39.806403],[-75.575434,39.80642],[-75.575429,39.806436],[-75.575423,39.80645],[-75.575419,39.806464],[-75.575414,39.806476],[-75.57541,39.806488],[-75.575405,39.806501],[-75.575401,39.806513],[-75.575397,39.806525],[-75.575394,39.806536],[-75.57539,39.806547],[-75.575387,39.806559],[-75.575383,39.80657],[-75.57538,39.806581],[-75.575376,39.806592],[-75.575373,39.806603],[-75.57537,39.806613],[-75.575366,39.806624],[-75.575363,39.806634],[-75.575358,39.806644],[-75.575354,39.806655],[-75.575349,39.806666],[-75.575344,39.806676],[-75.575338,39.806689],[-75.575332,39.806701],[-75.575327,39.80671],[-75.575322,39.806718],[-75.575315,39.806728],[-75.575307,39.806739],[-75.5753,39.80675],[-75.575293,39.80676],[-75.575286,39.806768],[-75.57528,39.806776],[-75.575272,39.806786],[-75.575262,39.806797],[-75.575253,39.806808],[-75.575242,39.806819],[-75.575233,39.80683],[-75.575224,39.806839],[-75.575215,39.806849],[-75.575206,39.806859],[-75.575198,39.806869],[-75.575188,39.806879],[-75.575179,39.806889],[-75.57517,39.806898],[-75.575162,39.806908],[-75.575154,39.806916],[-75.575147,39.806925],[-75.575138,39.806934],[-75.575128,39.806945],[-75.575119,39.806955],[-75.57511,39.806965],[-75.575102,39.806974],[-75.575093,39.806984],[-75.575084,39.806994],[-75.575075,39.807004],[-75.575067,39.807013],[-75.57506,39.807021],[-75.575052,39.80703],[-75.575043,39.807039],[-75.575035,39.807048],[-75.575028,39.807056],[-75.57502,39.807065],[-75.57501,39.807075],[-75.575,39.807086],[-75.574991,39.807097],[-75.574981,39.807108],[-75.574972,39.807117],[-75.574964,39.807126],[-75.574956,39.807135],[-75.574948,39.807144],[-75.57494,39.807153],[-75.574931,39.807162],[-75.574924,39.807171],[-75.574915,39.80718],[-75.574906,39.807191],[-75.574895,39.807202],[-75.574885,39.807214],[-75.574874,39.807225],[-75.574864,39.807237],[-75.574853,39.807249],[-75.574842,39.807262],[-75.57483,39.807274],[-75.574819,39.807287],[-75.574808,39.807298],[-75.574798,39.80731],[-75.574788,39.807321],[-75.574778,39.807332],[-75.574767,39.807344],[-75.574757,39.807355],[-75.574747,39.807366],[-75.574737,39.807376],[-75.574727,39.807387],[-75.574717,39.807399],[-75.574707,39.807412],[-75.574697,39.807424],[-75.574688,39.807436],[-75.574679,39.807447],[-75.57467,39.807458],[-75.574661,39.807469],[-75.574652,39.807481],[-75.574644,39.807491],[-75.574637,39.8075],[-75.574629,39.807511],[-75.57462,39.807524],[-75.574611,39.807536],[-75.574603,39.807548],[-75.574595,39.807561],[-75.574588,39.807573],[-75.574581,39.807586],[-75.574574,39.807598],[-75.574568,39.807608],[-75.574563,39.807618],[-75.574557,39.807627],[-75.574552,39.807638],[-75.574546,39.807648],[-75.57454,39.807659],[-75.574535,39.807668],[-75.574529,39.807678],[-75.574523,39.807689],[-75.574517,39.8077],[-75.574511,39.807711],[-75.574505,39.807722],[-75.574499,39.807733],[-75.574494,39.807743],[-75.574488,39.807754],[-75.574482,39.807765],[-75.574475,39.807776],[-75.574468,39.807788],[-75.57446,39.807801],[-75.574451,39.807814],[-75.574442,39.807827],[-75.57443,39.80784],[-75.574417,39.807853],[-75.574401,39.807864],[-75.57438,39.807873],[-75.574355,39.807878],[-75.574328,39.80788],[-75.574299,39.807878],[-75.574271,39.807873],[-75.574244,39.807864],[-75.574217,39.80785],[-75.574191,39.807833],[-75.574167,39.807814],[-75.574145,39.807795],[-75.574127,39.807777],[-75.574112,39.807759],[-75.574098,39.807742],[-75.574086,39.807726],[-75.574075,39.80771],[-75.574066,39.807694],[-75.574058,39.807679],[-75.57405,39.807664],[-75.574043,39.80765],[-75.574037,39.807636],[-75.574031,39.807623],[-75.574026,39.80761],[-75.574021,39.807597],[-75.574016,39.807583],[-75.574011,39.807568],[-75.574007,39.807554],[-75.574002,39.807541],[-75.573998,39.807527],[-75.573994,39.807515],[-75.57399,39.807502],[-75.573986,39.807488],[-75.573983,39.807474],[-75.573981,39.807461],[-75.573978,39.807447],[-75.573976,39.807435],[-75.573974,39.807424],[-75.573973,39.807413],[-75.573972,39.8074],[-75.573971,39.807385],[-75.573971,39.807371],[-75.573971,39.807357],[-75.573971,39.807343],[-75.573971,39.807329],[-75.573971,39.807316],[-75.573973,39.807303],[-75.573975,39.80729],[-75.573978,39.807276],[-75.573984,39.807265],[-75.573993,39.807255],[-75.574004,39.807246],[-75.574016,39.807236],[-75.574027,39.807228],[-75.574038,39.807219],[-75.57405,39.807211],[-75.574061,39.807202],[-75.574073,39.807193],[-75.574084,39.807184],[-75.574096,39.807176],[-75.574108,39.807167],[-75.574119,39.807158],[-75.574131,39.80715],[-75.574142,39.807141],[-75.574153,39.807133],[-75.574163,39.807125],[-75.574175,39.807116],[-75.574187,39.807107],[-75.5742,39.807098],[-75.574212,39.807089],[-75.574224,39.807079],[-75.574237,39.80707],[-75.574249,39.80706],[-75.574261,39.807052],[-75.574272,39.807043],[-75.574284,39.807034],[-75.574297,39.807025],[-75.57431,39.807014],[-75.574324,39.807004],[-75.574337,39.806994],[-75.57435,39.806984],[-75.574363,39.806974],[-75.574376,39.806965],[-75.574388,39.806956],[-75.5744,39.806947],[-75.574412,39.806937],[-75.574424,39.806928],[-75.574437,39.806918],[-75.574451,39.806908],[-75.574466,39.806896],[-75.57448,39.806886],[-75.574494,39.806876],[-75.574507,39.806865],[-75.574522,39.806854],[-75.574537,39.806843],[-75.574552,39.806831],[-75.574568,39.806819],[-75.574582,39.806809],[-75.574596,39.806798],[-75.574611,39.806786],[-75.574626,39.806775],[-75.574641,39.806764],[-75.574654,39.806754],[-75.574667,39.806744],[-75.57468,39.806734],[-75.574693,39.806724],[-75.574706,39.806715],[-75.57472,39.806704],[-75.574735,39.806694],[-75.574748,39.806684],[-75.574761,39.806675],[-75.574774,39.806665],[-75.574787,39.806656],[-75.5748,39.806647],[-75.574813,39.806638],[-75.574825,39.806629],[-75.574837,39.806621],[-75.57485,39.806613],[-75.574863,39.806604],[-75.574876,39.806595],[-75.574889,39.806586],[-75.574902,39.806576],[-75.574915,39.806567],[-75.574927,39.806558],[-75.57494,39.806549],[-75.574953,39.806538],[-75.574967,39.806527],[-75.574981,39.806517],[-75.574995,39.806506],[-75.575009,39.806495],[-75.575022,39.806484],[-75.575035,39.806475],[-75.575047,39.806466],[-75.575058,39.806458],[-75.57507,39.80645],[-75.575084,39.80644],[-75.575098,39.80643],[-75.575111,39.80642],[-75.575125,39.80641],[-75.575138,39.806399999999996],[-75.575152,39.80639],[-75.575164,39.806381],[-75.575176,39.806372],[-75.575187,39.806364],[-75.575198,39.806356],[-75.57521,39.806347],[-75.575222,39.806338],[-75.575233,39.806329],[-75.575245,39.80632],[-75.575256,39.806312],[-75.575266,39.806304],[-75.575276,39.806297],[-75.575285,39.80629],[-75.575295,39.806282],[-75.575306,39.806274],[-75.575318,39.806265],[-75.575329,39.806256],[-75.57534,39.806248],[-75.57535,39.806239],[-75.575361,39.80623],[-75.575372,39.806221],[-75.575384,39.806212],[-75.575397,39.806202],[-75.575409,39.806192],[-75.575422,39.806183],[-75.575434,39.806174],[-75.575446,39.806166],[-75.575458,39.806158],[-75.575468,39.806149],[-75.575476,39.806139],[-75.575481,39.806129],[-75.575487,39.806119],[-75.575494,39.806109],[-75.575498,39.806097],[-75.575498,39.806085],[-75.575497,39.806073],[-75.575496,39.806059],[-75.575496,39.806045],[-75.575494,39.80603],[-75.57549,39.806014],[-75.575486,39.805998],[-75.57548,39.805982],[-75.575476,39.805966],[-75.575473,39.80595],[-75.575469,39.805934],[-75.575465,39.805918],[-75.575462,39.805903],[-75.57546,39.805889],[-75.575458,39.805876],[-75.575457,39.805863],[-75.575455,39.80585],[-75.575454,39.805838],[-75.575452,39.805827],[-75.575451,39.805816],[-75.575449,39.805805],[-75.575446,39.805793],[-75.575443,39.805783],[-75.575437,39.805777],[-75.575427,39.805777],[-75.575412,39.805782],[-75.575396,39.805789],[-75.575378,39.805798],[-75.57536,39.805806],[-75.575339,39.805814],[-75.575316,39.805822],[-75.575292,39.805829],[-75.57527,39.805838],[-75.575249,39.805847],[-75.575229,39.805857],[-75.57521,39.805866],[-75.575192,39.805875],[-75.575175,39.805884],[-75.57516,39.805892],[-75.575145,39.805899],[-75.575132,39.805907],[-75.575119,39.805914],[-75.575106,39.805921],[-75.575092,39.805929],[-75.575078,39.805938],[-75.575064,39.805946],[-75.575049,39.805955],[-75.575035,39.805964],[-75.57502,39.805973],[-75.575006,39.805982],[-75.574992,39.805991],[-75.574979,39.805999],[-75.574966,39.806007],[-75.574953,39.806015],[-75.57494,39.806023],[-75.574927,39.806032],[-75.574915,39.806039],[-75.574903,39.806047],[-75.574891,39.806055],[-75.574878,39.806062],[-75.574866,39.80607],[-75.574853,39.806078],[-75.57484,39.806087],[-75.574827,39.806095],[-75.574814,39.806103],[-75.574801,39.806112],[-75.574787,39.80612],[-75.574775,39.806128],[-75.574762,39.806136],[-75.574749,39.806144],[-75.574736,39.806152],[-75.574723,39.806161],[-75.57471,39.806169],[-75.574697,39.806177],[-75.574683,39.806186],[-75.57467,39.806195],[-75.574656,39.806202999999996],[-75.574642,39.806212],[-75.574628,39.806221],[-75.574614,39.80623],[-75.574601,39.806238],[-75.574587,39.806247],[-75.574574,39.806255],[-75.57456,39.806264],[-75.574546,39.806273],[-75.574532,39.806282],[-75.574519,39.80629],[-75.574506,39.806298],[-75.574493,39.806306],[-75.574479,39.806315],[-75.574466,39.806324],[-75.574452,39.806332],[-75.574439,39.80634],[-75.574426,39.806349],[-75.574413,39.806357],[-75.574399,39.806366],[-75.574385,39.806374],[-75.574372,39.806383],[-75.574358,39.806391],[-75.574346,39.806399],[-75.574334,39.806406],[-75.574322,39.806415],[-75.574309,39.806423],[-75.574295,39.806432],[-75.574282,39.80644],[-75.574269,39.806448],[-75.574257,39.806456],[-75.574245,39.806464],[-75.574234,39.806471],[-75.574224,39.806477],[-75.574214,39.806483],[-75.574204,39.80649],[-75.574194,39.806496],[-75.574183,39.806503],[-75.574171,39.80651],[-75.574158,39.806518],[-75.574144,39.806527],[-75.574131,39.806536],[-75.574119,39.806543],[-75.574106,39.806551],[-75.574094,39.806559],[-75.574081,39.806568],[-75.574067,39.806576],[-75.574054,39.806585],[-75.574042,39.806593],[-75.574028,39.806602],[-75.574014,39.806612],[-75.573999,39.806622],[-75.573984,39.806632],[-75.57397,39.806642],[-75.573955,39.806651],[-75.573941,39.806661],[-75.573928,39.80667],[-75.573915,39.806678],[-75.573903,39.806687],[-75.57389,39.806695],[-75.573877,39.806704],[-75.573865,39.806712],[-75.573854,39.80672],[-75.573843,39.806728],[-75.57383,39.806737],[-75.573817,39.806746],[-75.573804,39.806754],[-75.573792,39.806762],[-75.573781,39.80677],[-75.573773,39.806774],[-75.573769,39.806776],[-75.573766,39.806774],[-75.573764,39.806768],[-75.573762,39.806757],[-75.573759,39.806743],[-75.573754,39.806729],[-75.573749,39.806714],[-75.573743,39.806699],[-75.573736,39.806685],[-75.573729,39.806671],[-75.573722,39.806657],[-75.573714,39.806643],[-75.573706,39.806628],[-75.573698,39.806614],[-75.57369,39.806599],[-75.573682,39.806585],[-75.573675,39.806571],[-75.573669,39.806558],[-75.573664,39.806545],[-75.573659,39.806532],[-75.573654,39.806518],[-75.573649,39.806504],[-75.573646,39.806489],[-75.573642,39.806474],[-75.57364,39.80646],[-75.573638,39.806446],[-75.573637,39.806433],[-75.573637,39.806421],[-75.573636,39.806408],[-75.573636,39.806395],[-75.573636,39.806382],[-75.573636,39.806367],[-75.573636,39.806353],[-75.573636,39.806338],[-75.573637,39.806324],[-75.573638,39.80631],[-75.57364,39.806296],[-75.573642,39.806282],[-75.573645,39.806269],[-75.573648,39.806255],[-75.573652,39.806243],[-75.573657,39.80623],[-75.573662,39.806217],[-75.573668,39.806202999999996],[-75.573674,39.806189],[-75.573681,39.806176],[-75.573689,39.806163],[-75.573696,39.80615],[-75.573704,39.806138],[-75.573711,39.806126],[-75.573719,39.806114],[-75.573727,39.806102],[-75.573734,39.80609],[-75.573742,39.806078],[-75.573749,39.806067],[-75.573757,39.806055],[-75.573765,39.806043],[-75.573772,39.806032],[-75.573779,39.80602],[-75.573786,39.806009],[-75.573793,39.805998],[-75.5738,39.805987],[-75.573807,39.805975],[-75.573814,39.805964],[-75.573821,39.805953],[-75.573827,39.805942],[-75.573834,39.80593],[-75.573841,39.805919],[-75.573848,39.805908],[-75.573855,39.805896],[-75.573863,39.805884],[-75.573871,39.805872],[-75.573879,39.80586],[-75.573887,39.805849],[-75.573895,39.805839],[-75.573904,39.805829],[-75.573913,39.805819],[-75.573922,39.805809],[-75.573931,39.805799],[-75.57394,39.805789],[-75.57395,39.805778],[-75.573959,39.805768],[-75.573969,39.805757],[-75.57398,39.805747],[-75.573992,39.805737],[-75.574004,39.805727],[-75.574017,39.805717],[-75.57403,39.805706],[-75.574042,39.805697],[-75.574054,39.805687],[-75.574065,39.805678],[-75.574077,39.80567],[-75.574087,39.805662],[-75.574097,39.805654],[-75.574108,39.805646],[-75.574121,39.805636],[-75.574134,39.805626],[-75.574147,39.805615],[-75.57416,39.805605],[-75.574173,39.805594],[-75.574186,39.805584],[-75.5742,39.805572],[-75.574213,39.805561],[-75.574226,39.80555],[-75.574238,39.80554],[-75.57425,39.805531],[-75.574261,39.805521],[-75.574272,39.805512],[-75.574284,39.805503],[-75.574296,39.805493],[-75.574308,39.805484],[-75.574321,39.805473],[-75.574334,39.805463],[-75.574348,39.805452],[-75.574361,39.805442],[-75.574374,39.805431],[-75.574386,39.80542],[-75.574399,39.80541],[-75.574412,39.805399],[-75.574425,39.805389],[-75.574438,39.805379],[-75.574449,39.805369],[-75.574461,39.80536],[-75.574473,39.805351],[-75.574485,39.805341],[-75.574498,39.805332],[-75.574511,39.805322],[-75.574524,39.805312],[-75.574536,39.805303],[-75.574547,39.805294],[-75.574558,39.805286],[-75.574569,39.805278],[-75.574579,39.805271],[-75.57459,39.805262],[-75.574603,39.805251],[-75.574616,39.805241],[-75.574628,39.80523],[-75.57464,39.80522],[-75.574652,39.805211],[-75.574663,39.805202],[-75.574674,39.805192],[-75.574686,39.805183],[-75.574698,39.805173],[-75.57471,39.805163],[-75.574723,39.805152],[-75.574736,39.805142],[-75.574748,39.805132],[-75.57476,39.805122],[-75.574772,39.805113],[-75.574783,39.805104],[-75.574795,39.805094],[-75.574806,39.805085],[-75.574817,39.805076],[-75.574828,39.805067],[-75.57484,39.805057],[-75.574852,39.805048],[-75.574865,39.805038],[-75.574876,39.805029],[-75.574888,39.80502],[-75.574899,39.805012],[-75.574909,39.805003],[-75.57492,39.804995],[-75.574929,39.804986],[-75.574938,39.804979],[-75.574947,39.804972],[-75.574956,39.804965],[-75.574966,39.804957],[-75.574976,39.804948],[-75.574987,39.804939],[-75.574997,39.80493],[-75.575009,39.804921],[-75.57502,39.804912],[-75.575032,39.804903],[-75.575044,39.804894],[-75.575055,39.804885],[-75.575067,39.804876],[-75.57508,39.804866],[-75.575093,39.804856],[-75.575106,39.804846],[-75.575119,39.804836],[-75.575131,39.804826],[-75.575143,39.804816],[-75.575156,39.804806],[-75.575169,39.804796],[-75.575183,39.804786],[-75.575197,39.804775],[-75.57521,39.804765],[-75.575223,39.804756],[-75.575236,39.804747],[-75.575248,39.804737],[-75.575261,39.804727],[-75.575273,39.804718],[-75.575285,39.804709],[-75.575296,39.8047],[-75.575308,39.804691],[-75.57532,39.804681],[-75.575331,39.804673],[-75.575342,39.804665],[-75.575353,39.804656],[-75.575364,39.804648],[-75.575376,39.80464],[-75.575388,39.804632],[-75.575399,39.804624],[-75.57541,39.804617],[-75.575422,39.804609],[-75.575433,39.804601],[-75.575443,39.804594],[-75.575452,39.804589],[-75.575462,39.804584],[-75.575472,39.80458],[-75.575485,39.804576],[-75.575499,39.804571],[-75.575513,39.804565],[-75.575527,39.804557],[-75.575541,39.804549],[-75.575555,39.804542],[-75.575567,39.804535],[-75.575579,39.804529],[-75.57559,39.804522],[-75.5756,39.804516],[-75.575608,39.804511],[-75.575615,39.804507],[-75.575621,39.804503],[-75.575626,39.8045],[-75.575627,39.804499],[-75.575627,39.8045],[-75.575625,39.804501],[-75.575623,39.804503],[-75.575621,39.804505],[-75.575619,39.804506],[-75.575618,39.804507],[-75.575619,39.804507],[-75.575619,39.804506],[-75.575621,39.804505],[-75.575623,39.804504],[-75.575627,39.8045],[-75.575635,39.804495],[-75.575646,39.804487],[-75.575659,39.804477],[-75.575674,39.804466],[-75.575688,39.804456],[-75.575703,39.804445],[-75.575718,39.804433],[-75.575734,39.804422],[-75.575748,39.804412],[-75.575761,39.804402],[-75.575775,39.804391],[-75.575789,39.80438],[-75.575803,39.80437],[-75.575817,39.804359],[-75.575831,39.804349],[-75.575845,39.804338],[-75.575858,39.804328],[-75.575869,39.804319],[-75.57588,39.80431],[-75.57589,39.804302],[-75.575898,39.804295],[-75.575906,39.804288],[-75.575913,39.804282],[-75.575921,39.804275],[-75.575928,39.804269],[-75.575936,39.804262],[-75.575944,39.804256],[-75.575952,39.80425],[-75.57596,39.804243],[-75.575968,39.804237],[-75.575975,39.804231],[-75.575981,39.804227],[-75.575985,39.804224],[-75.575986,39.804223],[-75.575987,39.804223],[-75.575987,39.804223],[-75.575987,39.804223],[-75.575987,39.804222],[-75.575989,39.804221],[-75.575992,39.804218],[-75.575993,39.804217],[-75.575993,39.804217],[-75.575992,39.804218],[-75.57599,39.804219],[-75.575989,39.80422],[-75.575988,39.804221],[-75.575987,39.804222],[-75.575985,39.804223],[-75.575983,39.804225],[-75.57598,39.804227],[-75.575977,39.804229],[-75.575976,39.80423],[-75.575979,39.804228],[-75.575983,39.804225],[-75.575984,39.804224],[-75.575985,39.804223],[-75.575987,39.804222],[-75.575989,39.80422],[-75.575991,39.804218],[-75.575993,39.804217],[-75.575993,39.804217],[-75.575993,39.804217],[-75.575994,39.804216],[-75.575997,39.804214],[-75.576001,39.80421],[-75.576005,39.804206],[-75.576009,39.804203],[-75.576012,39.804199],[-75.576015,39.804196],[-75.576017,39.804193],[-75.576018,39.80419],[-75.57602,39.804187],[-75.576021,39.804183],[-75.576022,39.804178],[-75.576024,39.804173],[-75.576025,39.804165],[-75.576025,39.804156999999996],[-75.576024,39.80415],[-75.576021,39.804144],[-75.57602,39.804139],[-75.57602,39.804137],[-75.576021,39.804136],[-75.576024,39.804136],[-75.576027,39.804137],[-75.576029,39.804139],[-75.576032,39.804142],[-75.576033,39.804148],[-75.576033,39.804155],[-75.57603,39.804165],[-75.576025,39.804177],[-75.576017,39.804189],[-75.576009,39.8042],[-75.576001,39.804209],[-75.575993,39.804219],[-75.575984,39.804228],[-75.575975,39.804236],[-75.575966,39.804245],[-75.575957,39.804253],[-75.575947,39.804261],[-75.575936,39.80427],[-75.575925,39.804279],[-75.575914,39.804287],[-75.575903,39.804296],[-75.575891,39.804305],[-75.575879,39.804314],[-75.575868,39.804322],[-75.575856,39.804331],[-75.575844,39.80434],[-75.575832,39.804349],[-75.57582,39.804358],[-75.575809,39.804366],[-75.575796,39.804376],[-75.575783,39.804385],[-75.575771,39.804394],[-75.575759,39.804403],[-75.575748,39.804411],[-75.575736,39.80442],[-75.575725,39.804428],[-75.575713,39.804436],[-75.575702,39.804445],[-75.575689,39.804453],[-75.575676,39.804462],[-75.575664,39.804471],[-75.575651,39.80448],[-75.575638,39.804488],[-75.575626,39.804496],[-75.575613,39.804504],[-75.575601,39.804512],[-75.575589,39.80452],[-75.575578,39.804527],[-75.575566,39.804535],[-75.575555,39.804542],[-75.575545,39.804549],[-75.575536,39.804555],[-75.575526,39.80456],[-75.575517,39.804564],[-75.575506,39.804568],[-75.575496,39.80457],[-75.575489,39.804564],[-75.575481,39.804552],[-75.575473,39.804537],[-75.575466,39.804522],[-75.575461,39.804504],[-75.575456,39.804485],[-75.575448,39.804464],[-75.57544,39.804443],[-75.575433,39.804425],[-75.575429,39.80441],[-75.575425,39.804394],[-75.575422,39.804379],[-75.575419,39.804364],[-75.575415,39.80435],[-75.575413,39.804337],[-75.575409,39.804324],[-75.575404,39.804309],[-75.575397,39.804294],[-75.575391,39.804282],[-75.575387,39.804273],[-75.575385,39.804266],[-75.575384,39.804259],[-75.575384,39.804252],[-75.575384,39.804245],[-75.575384,39.80424],[-75.575384,39.804237],[-75.575384,39.804234],[-75.575384,39.804233],[-75.575383,39.804232],[-75.575382,39.80423],[-75.57538,39.804227],[-75.575379,39.80422],[-75.575379,39.804211],[-75.575381,39.8042],[-75.575385,39.804188],[-75.57539,39.804175],[-75.575395,39.804161],[-75.575399,39.804145],[-75.5754,39.80413],[-75.575398,39.804118],[-75.575395,39.804107],[-75.575393,39.804097],[-75.575392,39.804091],[-75.575392,39.804089],[-75.575392,39.804089],[-75.575392,39.80409],[-75.575391,39.804091],[-75.575391,39.804093],[-75.575391,39.804094],[-75.575391,39.804095],[-75.575391,39.804096],[-75.575391,39.804096],[-75.575391,39.804097],[-75.57539,39.804097],[-75.575389,39.804098],[-75.575388,39.804099],[-75.575387,39.8041],[-75.575386,39.8041],[-75.575385,39.8041],[-75.575384,39.8041],[-75.575383,39.8041],[-75.575382,39.8041],[-75.575383,39.8041],[-75.575383,39.8041],[-75.575383,39.804099],[-75.575383,39.804098],[-75.575383,39.804098],[-75.575385,39.804099],[-75.575388,39.8041],[-75.575391,39.804101],[-75.575393,39.804102],[-75.575397,39.804103],[-75.5754,39.804102],[-75.575402,39.804102],[-75.575405,39.804101],[-75.575407,39.8041],[-75.575408,39.804099],[-75.575409,39.804099],[-75.575408,39.804099],[-75.575407,39.8041],[-75.575407,39.804102],[-75.57541,39.804104],[-75.575414,39.804106],[-75.575417,39.804107],[-75.57542,39.804107],[-75.575423,39.804107],[-75.575425,39.804106],[-75.575426,39.804104],[-75.575427,39.804101],[-75.575427,39.804098],[-75.575425,39.804092],[-75.575423,39.804085],[-75.575421,39.804076],[-75.57542,39.804065],[-75.575418,39.804054],[-75.575416,39.804043],[-75.575414,39.804033],[-75.575412,39.804026],[-75.575411,39.80402],[-75.57541,39.804017],[-75.575409,39.804017],[-75.57541,39.804018],[-75.575411,39.80402],[-75.575414,39.804024],[-75.575419,39.80403],[-75.575425,39.80404],[-75.575431,39.80405],[-75.575435,39.804062],[-75.575437,39.804074],[-75.575437,39.804087],[-75.575435,39.804101],[-75.575435,39.804115],[-75.575435,39.804128],[-75.575436,39.804142],[-75.575437,39.804156],[-75.575437,39.80417],[-75.575436,39.804183],[-75.575435,39.804196],[-75.575433,39.804209],[-75.575431,39.804222],[-75.575429,39.804235],[-75.575428,39.804247],[-75.575427,39.804259],[-75.575428,39.804273],[-75.575429,39.804286],[-75.575431,39.804298],[-75.575432,39.80431],[-75.57543,39.804323],[-75.575429,39.804335],[-75.575427,39.804345],[-75.575426,39.804355],[-75.575425,39.804365],[-75.575424,39.804374],[-75.575424,39.804384],[-75.575423,39.804394],[-75.575423,39.804406],[-75.575423,39.804419],[-75.575423,39.804433],[-75.575424,39.804446],[-75.575426,39.80446],[-75.575428,39.804473],[-75.57543,39.804486],[-75.575432,39.804498],[-75.575436,39.804509],[-75.575441,39.804521],[-75.575444,39.804534],[-75.575447,39.804548],[-75.575449,39.804563],[-75.57545,39.804577],[-75.57545,39.804592],[-75.575447,39.804607],[-75.575442,39.804621],[-75.575438,39.804634],[-75.575432,39.804647],[-75.575425,39.804659],[-75.575416,39.804671],[-75.575406,39.804682],[-75.575396,39.804692],[-75.575385,39.804699],[-75.575374,39.804704],[-75.575364,39.804707],[-75.575358,39.804708],[-75.575354,39.804709],[-75.575351,39.804709],[-75.575349,39.804708],[-75.575348,39.804707],[-75.575346,39.804707],[-75.575343,39.804707],[-75.575341,39.804708],[-75.575339,39.804708],[-75.575337,39.804708],[-75.575336,39.804707],[-75.575333,39.804707],[-75.57533,39.804705],[-75.575326,39.804704],[-75.575321,39.804702],[-75.575313,39.804699],[-75.575302,39.804695],[-75.57529,39.804689],[-75.575277,39.804683],[-75.575263,39.804678],[-75.57525,39.804673],[-75.575237,39.804668],[-75.575223,39.804664],[-75.57521,39.80466],[-75.575197,39.804656],[-75.575185,39.804651],[-75.575174,39.804646],[-75.575163,39.804642],[-75.575153,39.804638],[-75.575142,39.804633],[-75.575128,39.804629],[-75.575114,39.804624],[-75.5751,39.804619],[-75.575084,39.804614],[-75.575068,39.804608],[-75.575051,39.804602],[-75.575035,39.804596],[-75.575022,39.804591],[-75.575009,39.804586],[-75.574998,39.804581],[-75.574987,39.804576],[-75.574976,39.80457],[-75.574964,39.804566],[-75.574951,39.804561],[-75.574938,39.804557],[-75.574927,39.804554],[-75.574916,39.80455],[-75.574903,39.804546],[-75.574889,39.804542],[-75.574876,39.804539],[-75.574863,39.804535],[-75.574849,39.804531],[-75.574835,39.804527],[-75.574821,39.804522],[-75.574807,39.804516],[-75.574795,39.804512],[-75.574786,39.804511],[-75.574779,39.804511],[-75.574774,39.804512],[-75.574772,39.804513],[-75.57477,39.804514],[-75.574769,39.804515],[-75.574767,39.804516],[-75.574764,39.804517],[-75.574762,39.804517],[-75.57476,39.804516],[-75.574759,39.804515],[-75.574759,39.804513],[-75.57476,39.804511],[-75.574764,39.804509],[-75.57477,39.804507],[-75.574778,39.804506],[-75.574788,39.804505],[-75.5748,39.804505],[-75.574813,39.804505],[-75.574826,39.804506],[-75.574841,39.804507],[-75.574856,39.804509],[-75.57487,39.804511],[-75.574884,39.804515],[-75.574898,39.804519],[-75.574911,39.804525],[-75.574925,39.80453],[-75.57494,39.804536],[-75.574954,39.80454],[-75.574968,39.804546],[-75.574981,39.804551],[-75.574993,39.804556],[-75.575005,39.80456],[-75.575017,39.804564],[-75.575029,39.804569],[-75.575042,39.804575],[-75.575052,39.804581],[-75.575063,39.804586],[-75.575076,39.804589],[-75.57509,39.804593],[-75.575103,39.804597],[-75.575117,39.804601],[-75.575133,39.804606],[-75.575149,39.804612],[-75.575165,39.804617],[-75.575179,39.804623],[-75.575192,39.804628],[-75.575203,39.804633],[-75.575213,39.804637],[-75.575222,39.804641],[-75.575232,39.804646],[-75.575243,39.80465],[-75.575254,39.804654],[-75.575265,39.804658],[-75.57528,39.804663],[-75.575295,39.804668],[-75.575307,39.804672],[-75.575317,39.804676],[-75.575328,39.80468],[-75.575338,39.804683],[-75.575347,39.804686],[-75.575356,39.804688],[-75.575365,39.804688],[-75.575376,39.804688],[-75.57539,39.804685],[-75.575403,39.804676],[-75.575413,39.804665],[-75.575425,39.804654],[-75.575439,39.804644],[-75.575454,39.804634],[-75.575469,39.804623],[-75.575485,39.804612],[-75.5755,39.804601],[-75.575512,39.804591],[-75.575524,39.804582],[-75.575536,39.804572],[-75.575548,39.804563],[-75.57556,39.804553],[-75.575572,39.804544],[-75.575583,39.804535],[-75.575595,39.804526],[-75.575607,39.804517],[-75.575617,39.804509],[-75.575627,39.804501],[-75.575637,39.804494],[-75.575647,39.804486],[-75.575657,39.804479],[-75.575667,39.804471],[-75.575677,39.804464],[-75.575688,39.804456],[-75.575699,39.804447],[-75.575711,39.804439],[-75.575722,39.80443],[-75.575732,39.804423],[-75.575742,39.804416],[-75.575752,39.804408],[-75.575763,39.8044],[-75.575774,39.804392],[-75.575786,39.804383],[-75.575797,39.804375],[-75.575808,39.804367],[-75.575818,39.80436],[-75.575829,39.804352],[-75.575839,39.804344],[-75.575849,39.804336],[-75.575859,39.804329],[-75.575868,39.804322],[-75.575877,39.804315],[-75.575885,39.804309],[-75.575894,39.804302],[-75.575903,39.804294],[-75.575912,39.804287],[-75.575921,39.804279],[-75.575929,39.804272],[-75.575938,39.804265],[-75.575946,39.804257],[-75.575954,39.80425],[-75.57596,39.804244],[-75.575965,39.804239],[-75.575971,39.804232],[-75.575978,39.804223],[-75.575987,39.804213],[-75.575996,39.8042],[-75.576005,39.804186],[-75.576012,39.80417],[-75.576018,39.804153],[-75.57602,39.804135],[-75.576017,39.804116],[-75.576011,39.804097],[-75.576003,39.804081],[-75.575994,39.804068],[-75.575984,39.804056],[-75.575972,39.804044],[-75.575961,39.804034],[-75.575949,39.804023],[-75.575937,39.804013],[-75.575926,39.804003],[-75.575914,39.803994],[-75.575904,39.803985],[-75.575894,39.803978],[-75.575885,39.803971],[-75.575876,39.803964],[-75.575867,39.803956],[-75.575856,39.803948],[-75.575845,39.803939],[-75.575834,39.803931],[-75.575823,39.803922],[-75.575812,39.803913],[-75.575801,39.803905],[-75.575791,39.803897],[-75.575782,39.80389],[-75.575773,39.803882],[-75.575764,39.803875],[-75.575756,39.803867],[-75.575747,39.803859],[-75.575739,39.803851],[-75.57573,39.803842],[-75.575721,39.803833],[-75.575713,39.803824],[-75.575705,39.803814],[-75.575697,39.803805],[-75.57569,39.803795],[-75.575683,39.803786],[-75.575677,39.803777],[-75.575671,39.803768],[-75.575665,39.803759],[-75.575659,39.803751],[-75.575654,39.803742],[-75.575649,39.803733],[-75.575644,39.803722],[-75.575637,39.803709],[-75.575631,39.803696],[-75.575624,39.803684],[-75.575618,39.803672],[-75.575613,39.803662],[-75.575607,39.803651],[-75.575601,39.803639],[-75.575595,39.803627],[-75.575589,39.803615],[-75.575582,39.803603],[-75.575576,39.803591],[-75.57557,39.803579],[-75.575564,39.803567],[-75.575558,39.803555],[-75.575554,39.803544],[-75.575551,39.803534],[-75.575547,39.803523],[-75.575544,39.80351],[-75.57554,39.803496],[-75.575535,39.803481],[-75.575531,39.803465],[-75.575527,39.80345],[-75.575523,39.803434],[-75.57552,39.80342],[-75.575518,39.803404],[-75.575516,39.803388],[-75.575515,39.803372],[-75.575513,39.803356],[-75.575512,39.803341],[-75.57551,39.803326],[-75.575509,39.80331],[-75.575508,39.803294],[-75.575506,39.80328],[-75.575505,39.803268],[-75.575504,39.803257],[-75.575503,39.803246],[-75.575502,39.803234],[-75.575501,39.803221],[-75.5755,39.803207],[-75.575499,39.803194],[-75.575497,39.803181],[-75.575496,39.803167],[-75.575495,39.803154],[-75.575494,39.803141],[-75.575493,39.803128],[-75.575492,39.803115],[-75.575491,39.803103],[-75.57549,39.803092],[-75.575489,39.80308],[-75.575488,39.803068],[-75.575487,39.803058],[-75.575487,39.803048],[-75.575486,39.803039],[-75.575485,39.803029],[-75.575484,39.803017],[-75.575483,39.803004],[-75.575481,39.802991],[-75.57548,39.802977],[-75.575479,39.802964],[-75.575478,39.802951],[-75.575477,39.802938],[-75.575476,39.802924],[-75.575475,39.802911],[-75.575474,39.802897],[-75.575473,39.802883],[-75.575472,39.80287],[-75.575471,39.802857],[-75.57547,39.802844],[-75.575469,39.802831],[-75.575469,39.802818],[-75.575468,39.802806],[-75.575468,39.802794],[-75.575468,39.802783],[-75.575467,39.802771],[-75.575467,39.802759],[-75.575466,39.802747],[-75.575464,39.802735],[-75.575463,39.802723],[-75.575461,39.802711],[-75.575459,39.8027],[-75.575458,39.802689],[-75.575456,39.802679],[-75.575455,39.802667],[-75.575453,39.802656],[-75.575452,39.802645],[-75.575451,39.802633],[-75.57545,39.802622],[-75.575448,39.802611],[-75.575447,39.802601],[-75.575446,39.802591],[-75.575445,39.802582],[-75.575444,39.802572],[-75.575443,39.802561],[-75.575442,39.80255],[-75.575441,39.802539],[-75.57544,39.802527],[-75.575439,39.802516],[-75.575438,39.802503],[-75.575436,39.802492],[-75.575435,39.80248],[-75.575434,39.802468],[-75.575433,39.802456],[-75.575432,39.802444],[-75.575431,39.802431],[-75.575429,39.802419],[-75.575428,39.802407],[-75.575427,39.802395],[-75.575426,39.802383],[-75.575425,39.802371],[-75.575424,39.802359],[-75.575423,39.802346],[-75.575422,39.802334],[-75.575422,39.802322],[-75.575422,39.802311],[-75.575423,39.8023],[-75.575424,39.802289],[-75.575425,39.802277],[-75.575427,39.802265],[-75.575429,39.802252],[-75.575432,39.80224],[-75.575436,39.802228],[-75.57544,39.802214],[-75.575444,39.802201],[-75.575449,39.802189],[-75.575453,39.802178],[-75.575459,39.802168],[-75.575467,39.802158],[-75.575479,39.802149],[-75.575492,39.802143],[-75.575506,39.802138],[-75.575519,39.802136],[-75.575533,39.802133],[-75.575549,39.802131],[-75.575566,39.802128],[-75.575581,39.802126],[-75.575597,39.802123],[-75.575613,39.80212],[-75.575631,39.802116],[-75.575648,39.802113],[-75.575665,39.80211],[-75.575682,39.802106],[-75.575699,39.802103],[-75.575716,39.802099],[-75.575734,39.802096],[-75.575752,39.802092],[-75.575771,39.802088],[-75.575791,39.802084],[-75.575806,39.80208],[-75.575821,39.802077],[-75.575836,39.802074],[-75.575851,39.802071],[-75.575868,39.802067],[-75.575886,39.802064],[-75.575901,39.802061],[-75.575914,39.802058],[-75.575928,39.802056],[-75.575942,39.802053],[-75.575957,39.80205],[-75.575973,39.802047],[-75.57599,39.802044],[-75.576008,39.80204],[-75.576025,39.802037],[-75.57604,39.802034],[-75.576054,39.802031],[-75.576068,39.802028],[-75.576084,39.802025],[-75.576099,39.802022],[-75.576111,39.802019],[-75.576124,39.802016],[-75.576138,39.802013],[-75.576151,39.802009],[-75.576163,39.802005],[-75.576174,39.802],[-75.576184,39.801996],[-75.576193,39.801991],[-75.576203,39.801985],[-75.576213,39.801979],[-75.576221,39.801974],[-75.576228,39.801969],[-75.576236,39.801962],[-75.576245,39.801955],[-75.576254,39.801947],[-75.576262,39.801939],[-75.576271,39.80193],[-75.57628,39.801921],[-75.576289,39.801911],[-75.576296,39.801901],[-75.576303,39.801891],[-75.576309,39.801879],[-75.576313,39.801868],[-75.576317,39.801855],[-75.57632,39.801843],[-75.576321,39.801831],[-75.576322,39.801819],[-75.576322,39.801807],[-75.576322,39.801795],[-75.576323,39.801783],[-75.576323,39.801771],[-75.576323,39.801759],[-75.576324,39.801747],[-75.576324,39.801734],[-75.576324,39.80172],[-75.576325,39.801706],[-75.576325,39.801694],[-75.576326,39.801683],[-75.576326,39.801671],[-75.576326,39.801658],[-75.576327,39.801646],[-75.576327,39.801634],[-75.576328,39.801622],[-75.576328,39.80161],[-75.576329,39.801598],[-75.576329,39.801587],[-75.576329,39.801575],[-75.57633,39.801563],[-75.57633,39.801551],[-75.576331,39.801538],[-75.576331,39.801524],[-75.576332,39.801511],[-75.576332,39.801498],[-75.576333,39.801485],[-75.576333,39.801472],[-75.576334,39.801459],[-75.576334,39.801446],[-75.576334,39.801433],[-75.576335,39.801419],[-75.576335,39.801406],[-75.576336,39.801393],[-75.576336,39.80138],[-75.576337,39.801367],[-75.576337,39.801353],[-75.576337,39.80134],[-75.576336,39.801326],[-75.576334,39.801312],[-75.576332,39.801297],[-75.57633,39.801284],[-75.576327,39.80127],[-75.576323,39.801256],[-75.576318,39.801242],[-75.576313,39.801229],[-75.576307,39.801216],[-75.576301,39.801203],[-75.576293,39.801191],[-75.576286,39.801178],[-75.576278,39.801165],[-75.57627,39.801151],[-75.576263,39.801139],[-75.576255,39.801125999999996],[-75.576247,39.801114],[-75.57624,39.801102],[-75.576232,39.80109],[-75.576224,39.801077],[-75.576217,39.801065],[-75.57621,39.801053],[-75.576202,39.801041],[-75.576195,39.801029],[-75.576187,39.801017],[-75.57618,39.801005],[-75.576173,39.800993],[-75.576165,39.800981],[-75.576157,39.800969],[-75.576149,39.800958],[-75.576141,39.800947],[-75.576134,39.800935],[-75.576126,39.800923],[-75.57612,39.800912],[-75.576114,39.8009],[-75.576109,39.800888],[-75.576104,39.800876],[-75.5761,39.800864],[-75.576097,39.800852],[-75.576095,39.80084],[-75.576092,39.800829],[-75.576091,39.800817],[-75.57609,39.800805],[-75.576091,39.800792],[-75.576093,39.800779],[-75.576097,39.800767],[-75.576102,39.800755],[-75.576107,39.800744],[-75.576113,39.800733],[-75.576119,39.800722],[-75.576124,39.800713],[-75.57613,39.800703],[-75.576136,39.800691],[-75.576143,39.800679],[-75.57615,39.800667],[-75.576156,39.800656],[-75.576162,39.800644],[-75.576168,39.800634],[-75.576174,39.800624],[-75.576181,39.800612],[-75.576189,39.800602],[-75.576195,39.800593],[-75.576199,39.800586],[-75.576204,39.800579],[-75.576209,39.800572],[-75.576215,39.800564],[-75.576222,39.800554],[-75.576231,39.800543],[-75.57624,39.80053],[-75.576248,39.800518],[-75.576257,39.800506],[-75.576266,39.800494],[-75.576275,39.800481],[-75.576284,39.800469],[-75.576291,39.800458],[-75.576299,39.800448],[-75.576306,39.800438],[-75.576312,39.800429],[-75.576318,39.800421],[-75.576324,39.800413],[-75.576332,39.800402],[-75.57634,39.800391],[-75.576347,39.800381],[-75.576353,39.800372],[-75.576358,39.800365],[-75.576362,39.800359],[-75.576365,39.800354],[-75.576366,39.800352],[-75.576366,39.800351],[-75.576366,39.80035],[-75.576365,39.80035],[-75.576364,39.80035],[-75.576364,39.80035],[-75.576364,39.800351],[-75.576364,39.800352],[-75.576364,39.800351],[-75.576363,39.800351],[-75.576362,39.80035],[-75.576362,39.800349],[-75.576362,39.80035],[-75.576363,39.800351],[-75.576365,39.800352],[-75.576367,39.800354],[-75.576368,39.800355],[-75.576369,39.800356],[-75.576369,39.800356],[-75.576368,39.800356],[-75.576368,39.800355],[-75.576367,39.800354],[-75.576367,39.800354],[-75.576367,39.800355],[-75.57637,39.800357],[-75.576372,39.800359],[-75.576372,39.800359],[-75.576371,39.800357],[-75.576369,39.800356],[-75.576367,39.800355],[-75.576368,39.800355],[-75.576369,39.800356],[-75.576369,39.800356],[-75.576369,39.800356],[-75.576369,39.800356],[-75.576368,39.800356],[-75.576368,39.800355],[-75.576368,39.800355],[-75.576368,39.800355],[-75.576368,39.800355],[-75.576368,39.800356],[-75.576369,39.800356],[-75.576369,39.800356],[-75.576369,39.800356],[-75.576369,39.800356],[-75.576368,39.800356],[-75.576368,39.800355],[-75.576368,39.800355],[-75.576367,39.800354],[-75.576367,39.800354],[-75.576366,39.800354],[-75.576367,39.800354],[-75.576368,39.800355],[-75.576369,39.800356],[-75.576369,39.800356],[-75.576369,39.800356],[-75.576368,39.800355],[-75.576367,39.800354],[-75.576367,39.800354],[-75.576367,39.800354],[-75.57637,39.800357],[-75.576376,39.800362],[-75.576379,39.800365],[-75.576379,39.800365],[-75.57638,39.800365],[-75.576381,39.800366],[-75.576382,39.800365],[-75.576382,39.800365],[-75.576383,39.800364],[-75.576385,39.800363],[-75.576387,39.800361],[-75.57639,39.800359],[-75.576394,39.800357],[-75.5764,39.800354],[-75.576406,39.800351],[-75.576412,39.800348],[-75.576416,39.800345],[-75.576419,39.800344],[-75.576422,39.800342],[-75.576424,39.800341],[-75.576424,39.800341],[-75.576425,39.800341],[-75.576425,39.80034],[-75.576425,39.80034],[-75.576426,39.800341],[-75.576426,39.800341],[-75.576427,39.800342],[-75.576427,39.800342],[-75.576428,39.800344],[-75.576426,39.800345],[-75.576425,39.800347],[-75.576423,39.800348],[-75.576421,39.800349],[-75.576419,39.800349],[-75.576418,39.800349],[-75.576417,39.80035],[-75.576418,39.800352],[-75.57642,39.800355],[-75.576424,39.800362],[-75.576428,39.80037],[-75.576434,39.800379],[-75.576441,39.80039],[-75.576448,39.800402],[-75.576455,39.800414],[-75.576461,39.800425],[-75.576464,39.800431],[-75.576469,39.800437],[-75.576477,39.800447],[-75.576486,39.800457],[-75.576495,39.800467],[-75.576506,39.800478],[-75.576515,39.800489],[-75.576524,39.8005],[-75.576533,39.80051],[-75.576541,39.80052],[-75.576549,39.80053],[-75.576558,39.80054],[-75.576566,39.80055],[-75.576575,39.800561],[-75.576584,39.800572],[-75.576593,39.800582],[-75.576601,39.800592],[-75.576609,39.800602],[-75.576617,39.80061],[-75.576624,39.800619],[-75.576632,39.800628],[-75.576639,39.800638],[-75.576647,39.800649],[-75.576654,39.800659],[-75.576661,39.800669],[-75.576668,39.800679],[-75.576673,39.800689],[-75.57668,39.800698],[-75.576687,39.800709],[-75.576694,39.80072],[-75.576701,39.800731],[-75.576708,39.800742],[-75.576715,39.800753],[-75.576722,39.800764],[-75.576729,39.800775],[-75.576737,39.800787],[-75.576745,39.800799],[-75.576752,39.80081],[-75.576759,39.80082],[-75.576766,39.80083],[-75.576773,39.80084],[-75.57678,39.800851],[-75.576787,39.800861],[-75.576793,39.800871],[-75.5768,39.800881],[-75.576806,39.80089],[-75.576811,39.800899],[-75.576816,39.800907],[-75.576821,39.800914],[-75.576825,39.800919],[-75.576827,39.800922],[-75.576828,39.800922],[-75.576831,39.800923],[-75.576836,39.800928],[-75.576843,39.800933],[-75.57685,39.800935],[-75.57686,39.80093],[-75.576873,39.80092],[-75.576887,39.80091],[-75.576901,39.800899],[-75.576915,39.800888],[-75.57693,39.800877],[-75.576945,39.800868],[-75.576957,39.800861],[-75.576967,39.800855],[-75.576975,39.800851],[-75.576981,39.800847],[-75.576984,39.800845],[-75.576985,39.800844],[-75.576985,39.800843],[-75.576984,39.800842],[-75.576983,39.800842],[-75.576982,39.800843],[-75.576981,39.800844],[-75.57698,39.800846],[-75.576978,39.800848],[-75.576977,39.80085],[-75.576975,39.800853],[-75.576975,39.800857],[-75.576975,39.800861],[-75.576975,39.800866],[-75.576977,39.800871],[-75.576978,39.800876],[-75.57698,39.800882],[-75.576982,39.800888],[-75.576983,39.800895],[-75.576983,39.800901],[-75.576984,39.800907],[-75.576984,39.800912],[-75.576984,39.800917],[-75.576985,39.800922],[-75.576986,39.800926],[-75.576986,39.80093],[-75.576986,39.800936],[-75.576984,39.800944],[-75.576981,39.800955],[-75.576976,39.800968],[-75.576971,39.800981],[-75.576968,39.800993],[-75.576966,39.801005],[-75.576964,39.801017],[-75.576962,39.801029],[-75.57696,39.801039],[-75.576958,39.801048],[-75.576955,39.801059],[-75.576954,39.801069],[-75.576954,39.80108],[-75.576957,39.801092],[-75.576961,39.801103],[-75.576967,39.801114],[-75.576973,39.801125],[-75.576979,39.801135],[-75.576986,39.801145],[-75.576993,39.801155],[-75.577,39.801165],[-75.577006,39.801174],[-75.577013,39.801184],[-75.57702,39.801193],[-75.577028,39.801202],[-75.577035,39.801211],[-75.577042,39.80122],[-75.577048,39.801228],[-75.577054,39.801235],[-75.577061,39.801244],[-75.577068,39.801253],[-75.577077,39.801263],[-75.577086,39.801273],[-75.577095,39.801283],[-75.577104,39.801293],[-75.577113,39.801302],[-75.577122,39.801311],[-75.577131,39.801319],[-75.577138,39.801327],[-75.577145,39.801334],[-75.577153,39.801342],[-75.57716,39.80135],[-75.577168,39.801357],[-75.577175,39.801365],[-75.577182,39.801372],[-75.577189,39.801379],[-75.577196,39.801386],[-75.577204,39.801394],[-75.577212,39.801402],[-75.577219,39.80141],[-75.577228,39.801418],[-75.577236,39.801427],[-75.577244,39.801435],[-75.577252,39.801443],[-75.57726,39.801451],[-75.577268,39.801459],[-75.577277,39.801468],[-75.577286,39.801477],[-75.577295,39.801486],[-75.577304,39.801495],[-75.577312,39.801504],[-75.577321,39.801512],[-75.577329,39.801521],[-75.577338,39.801529],[-75.577346,39.801537],[-75.577354,39.801545],[-75.577362,39.801553],[-75.57737,39.801562],[-75.577378,39.80157],[-75.577387,39.801579],[-75.577396,39.801588],[-75.577405,39.801596],[-75.577414,39.801605],[-75.577423,39.801613],[-75.577433,39.801621],[-75.577443,39.801629],[-75.577453,39.801636],[-75.577466,39.801643],[-75.577479,39.801649],[-75.577493,39.801654],[-75.577508,39.801658],[-75.577524,39.801661],[-75.57754,39.801664],[-75.577557,39.801666],[-75.577571,39.801668],[-75.577585,39.80167],[-75.577598,39.801672],[-75.577613,39.801674],[-75.577629,39.801676],[-75.577645,39.801677],[-75.577661,39.801679],[-75.577678,39.801681],[-75.577695,39.801683],[-75.577711,39.801685],[-75.577726,39.801687],[-75.577743,39.801689],[-75.577759,39.801691],[-75.577775,39.801693],[-75.577791,39.801695],[-75.577807,39.801696],[-75.577823,39.801697],[-75.577839,39.801697],[-75.577854,39.801697],[-75.577869,39.801697],[-75.577884,39.801698],[-75.577898,39.801698],[-75.577911,39.801699],[-75.577923,39.801699],[-75.577934,39.8017],[-75.577947,39.801701],[-75.577962,39.801701],[-75.577978,39.801701],[-75.577994,39.801701],[-75.578011,39.801699],[-75.578027,39.801698],[-75.578043,39.801696],[-75.57806,39.801694],[-75.578076,39.801692],[-75.578092,39.80169],[-75.578108,39.801688],[-75.578124,39.801686],[-75.57814,39.801685],[-75.578156,39.801683],[-75.578172,39.801681],[-75.578189,39.801679],[-75.578205,39.801677],[-75.578221,39.801675],[-75.578237,39.801673],[-75.578252,39.801671],[-75.578266,39.801669],[-75.57828,39.801667],[-75.578293,39.801665],[-75.578307,39.801662],[-75.578322,39.80166],[-75.578337,39.801659],[-75.578351,39.801657],[-75.578364,39.801656],[-75.578376,39.801654],[-75.578389,39.801653],[-75.578403,39.801652],[-75.578417,39.80165],[-75.578429,39.801649],[-75.578441,39.801648],[-75.578454,39.801647],[-75.57847,39.801645],[-75.578485,39.801643],[-75.578501,39.801642],[-75.578516,39.80164],[-75.578532,39.801638],[-75.578548,39.801636],[-75.578565,39.801634],[-75.57858,39.801631],[-75.578596,39.801629],[-75.578612,39.801627],[-75.578629,39.801625],[-75.578645,39.801622],[-75.578661,39.80162],[-75.578678,39.801618],[-75.578694,39.801616],[-75.578711,39.801615],[-75.578728,39.801613],[-75.578743,39.801611],[-75.578759,39.801609],[-75.578775,39.801607],[-75.578791,39.801605],[-75.578807,39.801603],[-75.578823,39.8016],[-75.578839,39.801597],[-75.578856,39.801595],[-75.578873,39.801592],[-75.578889,39.80159],[-75.578906,39.801588],[-75.578922,39.801585],[-75.578938,39.801583],[-75.578954,39.801581],[-75.578971,39.801579],[-75.578987,39.801577],[-75.579003,39.801575],[-75.57902,39.801574],[-75.579037,39.801572],[-75.579053,39.80157],[-75.579069,39.801569],[-75.579085,39.801567],[-75.5791,39.801566],[-75.579117,39.801564],[-75.579133,39.801562],[-75.57915,39.801561],[-75.579167,39.801559],[-75.579183,39.801557],[-75.5792,39.801555],[-75.579216,39.801553],[-75.579233,39.801552],[-75.57925,39.80155],[-75.579266,39.801548],[-75.579282,39.801547],[-75.579297,39.801545],[-75.579312,39.801543],[-75.579327,39.801541],[-75.579343,39.801539],[-75.579359,39.801537],[-75.579375,39.801535],[-75.579391,39.801533],[-75.579406,39.801531],[-75.57942,39.801528],[-75.579434,39.801526],[-75.579448,39.801523],[-75.579463,39.801521],[-75.579479,39.801519],[-75.579495,39.801516],[-75.57951,39.801514],[-75.579526,39.801512],[-75.579542,39.80151],[-75.579558,39.801508],[-75.579573,39.801506],[-75.579588,39.801504],[-75.579604,39.801502],[-75.579618,39.8015],[-75.579632,39.801499],[-75.579647,39.801497],[-75.579663,39.801496],[-75.579678,39.801495],[-75.579695,39.801494],[-75.579713,39.801493],[-75.579729,39.801491],[-75.579744,39.80149],[-75.579759,39.801488],[-75.579775,39.801486],[-75.57979,39.801485],[-75.579805,39.801483],[-75.57982,39.80148],[-75.579835,39.801478],[-75.579848,39.801476],[-75.579861,39.801474],[-75.579876,39.801471],[-75.579891,39.801469],[-75.579907,39.801466],[-75.579922,39.801464],[-75.579938,39.801461],[-75.579954,39.801459],[-75.57997,39.801457],[-75.579985,39.801455],[-75.580001,39.801452],[-75.580017,39.80145],[-75.580033,39.801448],[-75.580049,39.801446],[-75.580065,39.801444],[-75.580081,39.801442],[-75.580098,39.80144],[-75.580114,39.801438],[-75.580131,39.801436],[-75.580148,39.801434],[-75.580166,39.801431],[-75.580184,39.801429],[-75.580202,39.801427],[-75.58022,39.801425],[-75.580237,39.801423],[-75.580255,39.80142],[-75.580272,39.801418],[-75.58029,39.801416],[-75.580307,39.801414],[-75.580324,39.801412],[-75.580341,39.80141],[-75.580358,39.801407],[-75.580376,39.801405],[-75.580393,39.801403],[-75.58041,39.801401],[-75.580428,39.801399],[-75.580445,39.801397],[-75.580462,39.801395],[-75.580479,39.801392],[-75.580497,39.80139],[-75.580514,39.801388],[-75.580532,39.801386],[-75.580549,39.801384],[-75.580567,39.801381],[-75.580584,39.801379],[-75.580601,39.801377],[-75.58062,39.801375],[-75.580638,39.801373],[-75.580656,39.80137],[-75.580674,39.801368],[-75.580692,39.801366],[-75.58071,39.801364],[-75.580728,39.801361],[-75.580746,39.801359],[-75.580763,39.801357],[-75.58078,39.801355],[-75.580798,39.801353],[-75.580816,39.80135],[-75.580834,39.801348],[-75.580851,39.801346],[-75.580868,39.801344],[-75.580886,39.801342],[-75.580903,39.80134],[-75.580921,39.801339],[-75.580938,39.801337],[-75.580955,39.801335],[-75.580972,39.801333],[-75.580989,39.801332],[-75.581006,39.801331],[-75.581022,39.801329],[-75.581037,39.801328],[-75.581051,39.801327],[-75.581066,39.801326],[-75.581081,39.801325],[-75.581097,39.801323],[-75.581112,39.801322],[-75.581126,39.80132],[-75.581141,39.801318],[-75.581157,39.801317],[-75.581173,39.801315],[-75.581187,39.801314],[-75.581201,39.801313],[-75.581216,39.801312],[-75.581233,39.80131],[-75.581249,39.80131],[-75.581265,39.80131],[-75.581281,39.801311],[-75.581298,39.801314],[-75.581315,39.801317],[-75.581333,39.801319],[-75.581351,39.801322],[-75.581369,39.801324],[-75.581387,39.801325],[-75.581404,39.801324],[-75.581421,39.801322],[-75.581437,39.80132],[-75.581454,39.801317],[-75.58147,39.801314],[-75.581488,39.801313],[-75.581505,39.801313],[-75.581524,39.801313],[-75.581542,39.801312],[-75.581562,39.80131],[-75.581581,39.801308],[-75.581599,39.801306],[-75.581618,39.801305],[-75.581636,39.801303],[-75.581654,39.8013],[-75.581673,39.801297],[-75.581692,39.801295],[-75.581711,39.801293],[-75.581729,39.801291],[-75.581746999999993,39.801289],[-75.581764,39.801288],[-75.581781,39.801286],[-75.581798,39.801285],[-75.581815,39.801285],[-75.581833,39.801284],[-75.58185,39.801283],[-75.581867,39.801282],[-75.581883,39.801282],[-75.5819,39.801281],[-75.581916,39.80128],[-75.581933,39.801278],[-75.581949,39.801277],[-75.581965,39.801277],[-75.581981,39.801277],[-75.581997,39.801276],[-75.582014,39.801276],[-75.582029,39.801276],[-75.582043,39.801277],[-75.582057,39.801279],[-75.582072,39.801282],[-75.582086,39.801288],[-75.582098,39.801295],[-75.582107,39.801304],[-75.582116,39.801314],[-75.582124,39.801325],[-75.582132,39.801337],[-75.582138,39.801349],[-75.582143,39.80136],[-75.582147,39.80137],[-75.582152,39.801381],[-75.582157,39.801393],[-75.582162,39.801405],[-75.582166,39.801417],[-75.58217,39.801429],[-75.582176,39.80144],[-75.582182,39.801451],[-75.582189,39.801462],[-75.582195,39.801473],[-75.5822,39.801484],[-75.582204,39.801495],[-75.582208,39.801506],[-75.582212,39.801517],[-75.582216,39.801527],[-75.58222,39.801539],[-75.582224,39.801551],[-75.582228,39.801563],[-75.582232,39.801575],[-75.582236,39.801587],[-75.582238,39.8016],[-75.582241,39.801612],[-75.582243,39.801624],[-75.582245,39.801636],[-75.582247,39.801647],[-75.582249,39.801658],[-75.58225,39.801669],[-75.582251,39.801679],[-75.582253,39.801689],[-75.582253,39.8017],[-75.582253,39.80171],[-75.582253,39.801718],[-75.582253,39.801723],[-75.582252,39.801724],[-75.582251,39.801723],[-75.58225,39.801722],[-75.582249,39.801721],[-75.582249,39.801721],[-75.582248,39.80172],[-75.582248,39.801719],[-75.582248,39.801718],[-75.582247,39.801718],[-75.582247,39.801718],[-75.582248,39.801719],[-75.582248,39.80172],[-75.582249,39.801722],[-75.582249,39.801723],[-75.58225,39.801725],[-75.582251,39.801728],[-75.582253,39.801732],[-75.582255,39.801737],[-75.582257,39.801744],[-75.582261,39.801753],[-75.582265,39.801763],[-75.582268,39.801775],[-75.58227,39.801787],[-75.582272,39.801799],[-75.582273,39.80181],[-75.582273,39.801822],[-75.58227,39.801833],[-75.582266,39.801845],[-75.582262,39.801858],[-75.582259,39.801869],[-75.582258,39.80188],[-75.582257,39.801892],[-75.582256,39.801903],[-75.582254,39.801915],[-75.582252,39.801927],[-75.582249,39.801938],[-75.582246,39.801949],[-75.582243,39.80196],[-75.582241,39.801969],[-75.582239,39.801975],[-75.582236,39.801979],[-75.582234,39.80198],[-75.582232,39.80198],[-75.582231,39.801979],[-75.58223,39.801978],[-75.582229,39.801977],[-75.582228,39.801977],[-75.582228,39.801976],[-75.582227,39.801975],[-75.582227,39.801974],[-75.582227,39.801974],[-75.582227,39.801974],[-75.582227,39.801974],[-75.582227,39.801973],[-75.582227,39.801972],[-75.582227,39.801972],[-75.582227,39.801971],[-75.582227,39.801971],[-75.582227,39.80197],[-75.582227,39.80197],[-75.582226,39.801969],[-75.582225,39.801969],[-75.582225,39.801968],[-75.582225,39.801968],[-75.582225,39.801967],[-75.582227,39.801966],[-75.582228,39.801964],[-75.58223,39.801963],[-75.582233,39.801961],[-75.582235,39.80196],[-75.582238,39.801959],[-75.58224,39.801959],[-75.582243,39.801958],[-75.582245,39.801959],[-75.582247,39.801959],[-75.582249,39.80196],[-75.582251,39.801961],[-75.582252,39.801963],[-75.582253,39.801964],[-75.582253,39.801964],[-75.582252,39.801964],[-75.582251,39.801962],[-75.582248,39.801959],[-75.582244,39.801954],[-75.582239,39.801948],[-75.582234,39.801941],[-75.582228,39.801933],[-75.582222,39.801926],[-75.582218,39.801919],[-75.582216,39.801913],[-75.582214,39.801908],[-75.582214,39.801904],[-75.582214,39.801901],[-75.582215,39.801899],[-75.582217,39.801896],[-75.582219,39.801893],[-75.582221,39.80189],[-75.582224,39.801887],[-75.582226,39.801884],[-75.582228,39.801882],[-75.58223,39.801879],[-75.582232,39.801878],[-75.582233,39.801876],[-75.582235,39.801875],[-75.582236,39.801874],[-75.582238,39.801873],[-75.58224,39.801873],[-75.582241,39.801875],[-75.582242,39.801878],[-75.582243,39.801884],[-75.582243,39.801893],[-75.582243,39.801905],[-75.582243,39.801918],[-75.582242,39.801931],[-75.58224,39.801944],[-75.582239,39.801958],[-75.582241,39.801972],[-75.582244,39.801985],[-75.582247,39.801999],[-75.582251,39.802012],[-75.582256,39.802025],[-75.58226,39.802037],[-75.582266,39.80205],[-75.582271,39.802062],[-75.582276,39.802075],[-75.582281,39.802087],[-75.582286,39.8021],[-75.582292,39.802114],[-75.582298,39.802127],[-75.582304,39.802138],[-75.582311,39.802149],[-75.582318,39.80216],[-75.582325,39.80217],[-75.582333,39.80218],[-75.58234,39.80219],[-75.582348,39.802199],[-75.582356,39.80221],[-75.582364,39.80222],[-75.582372,39.80223],[-75.582381,39.802239],[-75.582391,39.802248],[-75.582402,39.802257],[-75.582412,39.802265],[-75.582424,39.802272],[-75.582435,39.802278],[-75.582447,39.802283],[-75.582458,39.802288],[-75.582467,39.802292],[-75.582476,39.802296],[-75.582485,39.8023],[-75.582494,39.802303],[-75.582503,39.802303],[-75.58251,39.802302],[-75.582514,39.8023],[-75.582515,39.802298],[-75.582515,39.802296],[-75.582514,39.802295],[-75.582512,39.802293],[-75.582511,39.802292],[-75.582509,39.802292],[-75.582507,39.802292],[-75.582505,39.802293],[-75.582503,39.802294],[-75.582501,39.802296],[-75.582499,39.802299],[-75.582497,39.802302],[-75.582495,39.802307],[-75.582495,39.802314],[-75.582495,39.802324],[-75.582497,39.802336],[-75.582501,39.802349],[-75.582505,39.802362],[-75.582512,39.802375],[-75.58252,39.802387],[-75.582529,39.802398],[-75.582538,39.802409],[-75.582548,39.802421],[-75.582558,39.802432],[-75.582568,39.802443],[-75.582579,39.802454],[-75.582589,39.802464],[-75.5826,39.802475],[-75.58261,39.802485],[-75.582621,39.802496],[-75.582632,39.802507],[-75.582642,39.802517],[-75.582653,39.802527],[-75.582664,39.802538],[-75.582675,39.802549],[-75.582686,39.802559],[-75.582697,39.80257],[-75.582708,39.802581],[-75.582718,39.802591],[-75.582728,39.802602],[-75.582738,39.802613],[-75.582748,39.802623],[-75.582758,39.802633],[-75.582768,39.802644],[-75.582778,39.802654],[-75.582788,39.802664],[-75.582799,39.802675],[-75.58281,39.802685],[-75.582821,39.802695],[-75.582832,39.802705],[-75.582843,39.802714],[-75.582853,39.802723],[-75.582863,39.802731],[-75.582873,39.80274],[-75.582883,39.802749],[-75.582894,39.802758],[-75.582904,39.802768],[-75.582915,39.802777],[-75.582925,39.802787],[-75.582934,39.802796],[-75.582944,39.802805],[-75.582954,39.802815],[-75.582965,39.802824],[-75.582977,39.802834],[-75.582989,39.802844],[-75.583,39.802854],[-75.583011,39.802864],[-75.583021,39.802873],[-75.583031,39.802883],[-75.58304,39.802892],[-75.583049,39.802902],[-75.583057,39.802912],[-75.583066,39.802923],[-75.583077,39.802932],[-75.583089,39.80294],[-75.583101,39.802948],[-75.583112,39.802956],[-75.583124,39.802962],[-75.583136,39.802969],[-75.583148,39.802974],[-75.58316,39.802979],[-75.583172,39.802984],[-75.583186,39.802988],[-75.5832,39.80299],[-75.583215,39.802992],[-75.58323,39.802996],[-75.583246,39.803001],[-75.583261,39.803008],[-75.583277,39.803016],[-75.583292,39.803024],[-75.583307,39.803032],[-75.583321,39.80304],[-75.583336,39.803048],[-75.58335,39.803057],[-75.583364,39.803065],[-75.583379,39.803073],[-75.583393,39.803081],[-75.583406,39.80309],[-75.583419,39.803098],[-75.583432,39.803105],[-75.583444,39.803113],[-75.583455,39.803122],[-75.583465,39.803132],[-75.583476,39.803141],[-75.583487,39.803148],[-75.583499,39.803155],[-75.583509,39.80316],[-75.583519,39.803166],[-75.58353,39.803172],[-75.583542,39.803179],[-75.583554,39.803185],[-75.583566,39.803192],[-75.583577,39.803198],[-75.583587,39.803204],[-75.583598,39.80321],[-75.583609,39.803216],[-75.583619,39.803222],[-75.583629,39.803228],[-75.583637,39.803233],[-75.583644,39.803237],[-75.583651,39.803241],[-75.583659,39.803245],[-75.583669,39.80325],[-75.583681,39.803257],[-75.583693,39.803264],[-75.583705,39.803271],[-75.583718,39.803279],[-75.583732,39.803286],[-75.583745,39.803294],[-75.583759,39.803302],[-75.583771,39.803309],[-75.583781,39.803315],[-75.58379,39.803321],[-75.5838,39.803327],[-75.583811,39.803334],[-75.583823,39.80334],[-75.583835,39.803347],[-75.583847,39.803353],[-75.583859,39.803359],[-75.58387,39.803365],[-75.58388,39.80337],[-75.583889,39.803375],[-75.583898,39.80338],[-75.583907,39.803385],[-75.583918,39.80339],[-75.583929,39.803395],[-75.583939,39.8034],[-75.58395,39.803406],[-75.58396,39.803411],[-75.58397,39.803416],[-75.583981,39.803422],[-75.583992,39.803428],[-75.584005,39.803434],[-75.584017,39.803441],[-75.584029,39.803447],[-75.58404,39.803453],[-75.58405,39.803459],[-75.58406,39.803465],[-75.58407,39.803471],[-75.584079,39.803476],[-75.584087,39.803482],[-75.584097,39.803488],[-75.584109,39.803495],[-75.584122,39.803502],[-75.584136,39.80351],[-75.584149,39.803518],[-75.584159,39.803524],[-75.58417,39.80353],[-75.584182,39.803537],[-75.584194,39.803545],[-75.584205,39.803551],[-75.584216,39.803558],[-75.584227,39.803565],[-75.584239,39.803572],[-75.584251,39.80358],[-75.584263,39.803588],[-75.584273,39.803597],[-75.584284,39.803606],[-75.584293,39.803615],[-75.584301,39.803624],[-75.584309,39.803632],[-75.584315,39.80364],[-75.584321,39.803649],[-75.584327,39.803659],[-75.584332,39.803668],[-75.584336,39.803675],[-75.584339,39.80368],[-75.584341,39.803684],[-75.584342,39.803687],[-75.584343,39.803689],[-75.584344,39.803691],[-75.584346,39.803695],[-75.584349,39.803701],[-75.584352,39.803708],[-75.584355,39.803715],[-75.584357,39.803721],[-75.58436,39.803728],[-75.584362,39.803737],[-75.584365,39.80375],[-75.584369,39.803762],[-75.584372,39.803775],[-75.584375,39.803788],[-75.584379,39.803802],[-75.584382,39.803816],[-75.584386,39.803829],[-75.584391,39.803843],[-75.584395,39.803856],[-75.584401,39.803869],[-75.584407,39.803882],[-75.584414,39.803895],[-75.584421,39.803908],[-75.584429,39.803921],[-75.584436,39.803933],[-75.584443,39.803944],[-75.58445,39.803955],[-75.584458,39.803966],[-75.584466,39.803978],[-75.584474,39.803989],[-75.584482,39.804001],[-75.584491,39.804013],[-75.584499,39.804024],[-75.584506,39.804035],[-75.584513,39.804045],[-75.584521,39.804056],[-75.584529,39.804067],[-75.584537,39.804078],[-75.584544,39.804089],[-75.584552,39.804099],[-75.584557,39.804107],[-75.58456,39.804111],[-75.58456,39.804112],[-75.58456,39.804112],[-75.584561,39.804112],[-75.584561,39.804112],[-75.584561,39.804113],[-75.58456,39.804111],[-75.584559,39.80411],[-75.584564,39.804117],[-75.584574,39.80413],[-75.584585,39.804146],[-75.584596,39.804162],[-75.584607,39.804177],[-75.584618,39.804192],[-75.584629,39.804207],[-75.584639,39.80422],[-75.584649,39.804233],[-75.58466,39.804246],[-75.584671,39.80426],[-75.584682,39.804274],[-75.584694,39.804288],[-75.584707,39.804302],[-75.58472,39.804317],[-75.584734,39.80433],[-75.584748,39.804344],[-75.584763,39.804359],[-75.584777,39.804372],[-75.584791,39.804385],[-75.584806,39.804398],[-75.58482,39.804411],[-75.584836,39.804425],[-75.584851,39.804439],[-75.584865,39.804451],[-75.584878,39.804463],[-75.584892,39.804475],[-75.584905,39.804486],[-75.584919,39.804498],[-75.584931,39.80451],[-75.584945,39.804521],[-75.584959,39.804535],[-75.584974,39.804547],[-75.584986,39.804559],[-75.585,39.80457],[-75.585013,39.804582],[-75.585026,39.804594],[-75.585041,39.804607],[-75.585053,39.804618],[-75.585066,39.80463],[-75.585079,39.804642],[-75.585093,39.804653],[-75.585106,39.804666],[-75.585118,39.804677],[-75.585131,39.804688],[-75.585144,39.8047],[-75.585156,39.804711],[-75.585168,39.804723],[-75.585179,39.804734],[-75.585191,39.804746],[-75.585203,39.804759],[-75.585213,39.804771],[-75.585223,39.804783],[-75.585233,39.804794],[-75.585242,39.804806],[-75.585251,39.804818],[-75.585261,39.80483],[-75.58527,39.804842],[-75.585279,39.804855],[-75.585288,39.804867],[-75.585296,39.804879],[-75.585304,39.804892],[-75.585313,39.804904],[-75.585321,39.804916],[-75.58533,39.80493],[-75.585339,39.804945],[-75.585348,39.804958],[-75.585356,39.804971],[-75.585364,39.804984],[-75.585372,39.804997],[-75.58538,39.80501],[-75.585389,39.805024],[-75.585397,39.805038],[-75.585405,39.805052],[-75.585412,39.805066],[-75.585418,39.80508],[-75.585422,39.805094],[-75.585426,39.805108],[-75.585428,39.805121],[-75.58543,39.805135],[-75.58543,39.80515],[-75.58543,39.805164],[-75.585428,39.805178],[-75.585425,39.805192],[-75.585422,39.805206],[-75.585418,39.80522],[-75.585413,39.805233],[-75.585407,39.805246],[-75.5854,39.805258],[-75.585392,39.805269],[-75.585383,39.80528],[-75.585373,39.805291],[-75.585363,39.805301],[-75.585353,39.805312],[-75.585342,39.805323],[-75.585332,39.805333],[-75.585321,39.805344],[-75.58531,39.805354],[-75.585299,39.805364],[-75.585289,39.805373],[-75.585278,39.805383],[-75.585267,39.805393],[-75.585256,39.805403],[-75.585246,39.805411],[-75.585237,39.805419],[-75.585229,39.805426],[-75.585221,39.805432],[-75.585214,39.805438],[-75.585205,39.805446],[-75.585194,39.805456],[-75.585183,39.805466],[-75.585172,39.805476],[-75.585162,39.805486],[-75.585152,39.805496],[-75.585142,39.805507],[-75.585131,39.805517],[-75.585121,39.805527],[-75.585111,39.805536],[-75.5851,39.805547],[-75.585089,39.805557],[-75.585079,39.805566],[-75.585069,39.805576],[-75.58506,39.805584],[-75.58505,39.805594],[-75.58504,39.805603],[-75.58503,39.805613],[-75.58502,39.805622],[-75.58501,39.805631],[-75.585,39.80564],[-75.58499,39.805649],[-75.584979,39.805659],[-75.58497,39.805668],[-75.58496,39.805676],[-75.58495,39.805685],[-75.584939,39.805695],[-75.584928,39.805704],[-75.584918,39.805713],[-75.584907,39.805722],[-75.584897,39.805731],[-75.584886,39.805741],[-75.584875,39.80575],[-75.584864,39.805759],[-75.584853,39.805769],[-75.584842,39.805779],[-75.584831,39.805788],[-75.58482,39.805798],[-75.58481,39.805807],[-75.584799,39.805816],[-75.584788,39.805825],[-75.584777,39.805835],[-75.584766,39.805844],[-75.584756,39.805852],[-75.584747,39.80586],[-75.584737,39.805869],[-75.584727,39.805878],[-75.584717,39.805887],[-75.584707,39.805897],[-75.584696,39.805907],[-75.584686,39.805916],[-75.584675,39.805926],[-75.584665,39.805935],[-75.584654,39.805944],[-75.584644,39.805953],[-75.584634,39.805962],[-75.584624,39.805972],[-75.584613,39.805982],[-75.584602,39.805991],[-75.584592,39.806001],[-75.58458,39.806011],[-75.584569,39.806021],[-75.584557,39.806031],[-75.584546,39.806041],[-75.584537,39.806049],[-75.584528,39.806057],[-75.584518,39.806065],[-75.584508,39.806074],[-75.584497,39.806083],[-75.584487,39.806092],[-75.584476,39.806101],[-75.584466,39.80611],[-75.584456,39.806118],[-75.584446,39.806127],[-75.584437,39.806134],[-75.584429,39.80614],[-75.584422,39.806145],[-75.584413,39.806152],[-75.584402,39.806162],[-75.584391,39.806171],[-75.58438,39.806181],[-75.58437,39.806191],[-75.58436,39.8062],[-75.584349,39.80621],[-75.584337,39.806221],[-75.584325,39.806232],[-75.584313,39.806243],[-75.584301,39.806254],[-75.58429,39.806264],[-75.584278,39.806274],[-75.584266,39.806285],[-75.584254,39.806295],[-75.584243,39.806305],[-75.584232,39.806315],[-75.584221,39.806324],[-75.584209,39.806335],[-75.584197,39.806345],[-75.584186,39.806355],[-75.584175,39.806365],[-75.584163,39.806374],[-75.584152,39.806385],[-75.58414,39.806395],[-75.584129,39.806405],[-75.584117,39.806414],[-75.584107,39.806424],[-75.584096,39.806433],[-75.584085,39.806443],[-75.584073,39.806453],[-75.584062,39.806462],[-75.584051,39.806472],[-75.58404,39.806481],[-75.58403,39.806491],[-75.584019,39.8065],[-75.584009,39.806509],[-75.583999,39.806518],[-75.583989,39.806527],[-75.583979,39.806535],[-75.583969,39.806544],[-75.583959,39.806554],[-75.583949,39.806563],[-75.583938,39.806572],[-75.583928,39.806581],[-75.583917,39.80659],[-75.583907,39.806599],[-75.583897,39.806608],[-75.583887,39.806617],[-75.583877,39.806626],[-75.583867,39.806635],[-75.583856,39.806645],[-75.583846,39.806654],[-75.583836,39.806663],[-75.583826,39.806672],[-75.583816,39.80668],[-75.583808,39.806688],[-75.583798,39.806696],[-75.583788,39.806705],[-75.583778,39.806714],[-75.583767,39.806723],[-75.583757,39.806732],[-75.583747,39.806741],[-75.583737,39.80675],[-75.583728,39.806758],[-75.583718,39.806767],[-75.583707,39.806776],[-75.583697,39.806786],[-75.583686,39.806795],[-75.583676,39.806804],[-75.583666,39.806813],[-75.583656,39.806822],[-75.583646,39.806831],[-75.583636,39.80684],[-75.583626,39.806849],[-75.583617,39.806857],[-75.583607,39.806866],[-75.583596,39.806875],[-75.583587,39.806884],[-75.583577,39.806892],[-75.583568,39.806901],[-75.583558,39.806909],[-75.583548,39.806918],[-75.583538,39.806927],[-75.583527,39.806937],[-75.583517,39.806946],[-75.583507,39.806954],[-75.583497,39.806963],[-75.583487,39.806972],[-75.583477,39.806981],[-75.583468,39.806989],[-75.583457,39.806999],[-75.583446,39.807008],[-75.583436,39.807018],[-75.583425,39.807027],[-75.583414,39.807037],[-75.583405,39.807045],[-75.583396,39.807053],[-75.583386,39.807062],[-75.583375,39.807072],[-75.583364,39.807082],[-75.583352,39.807092],[-75.58334,39.807102],[-75.583329,39.807112],[-75.583318,39.807122],[-75.583307,39.807132],[-75.583296,39.807142],[-75.583285,39.807151],[-75.583275,39.807161],[-75.583264,39.80717],[-75.583253,39.80718],[-75.583242,39.807189],[-75.583232,39.807198],[-75.583222,39.807207],[-75.583212,39.807216],[-75.583201,39.807226],[-75.58319,39.807236],[-75.583178,39.807246],[-75.583168,39.807255],[-75.583157,39.807265],[-75.583147,39.807274],[-75.583136,39.807283],[-75.583126,39.807292],[-75.583116,39.807301],[-75.583107,39.807309],[-75.583097,39.807318],[-75.583086,39.807327],[-75.583076,39.807336],[-75.583066,39.807345],[-75.583055,39.807355],[-75.583045,39.807364],[-75.583035,39.807372],[-75.583025,39.807381],[-75.583015,39.80739],[-75.583005,39.807398],[-75.582996,39.807406],[-75.582988,39.807414],[-75.58298,39.80742],[-75.582973,39.807427],[-75.582964,39.807435],[-75.582954,39.807443],[-75.582943,39.807453],[-75.582932,39.807463],[-75.582921,39.807473],[-75.582911,39.807481],[-75.582902,39.807489],[-75.582893,39.807497],[-75.582884,39.807505],[-75.582874,39.807513],[-75.582864,39.807523],[-75.582853,39.807532],[-75.582842,39.807541],[-75.582832,39.80755],[-75.582821,39.807559],[-75.582811,39.807569],[-75.5828,39.807578],[-75.58279,39.807587],[-75.582779,39.807596],[-75.58277,39.807604],[-75.582761,39.807612],[-75.582752,39.80762],[-75.582743,39.807628],[-75.582734,39.807636],[-75.582724,39.807644],[-75.582713,39.807654],[-75.582702,39.807664],[-75.582691,39.807673],[-75.58268,39.807683],[-75.582669,39.807693],[-75.582657,39.807703],[-75.582646,39.807713],[-75.582635,39.807723],[-75.582623,39.807733],[-75.582612,39.807742],[-75.582602,39.807751],[-75.582592,39.80776],[-75.582582,39.807768],[-75.582571,39.807778],[-75.58256,39.807788],[-75.582549,39.807798],[-75.582538,39.807807],[-75.582527,39.807817],[-75.582515,39.807827],[-75.582504,39.807837],[-75.582493,39.807847],[-75.582482,39.807856],[-75.58247,39.807866],[-75.582459,39.807876],[-75.582449,39.807885],[-75.582438,39.807895],[-75.582427,39.807905],[-75.582415,39.807915],[-75.582404,39.807924],[-75.582393,39.807934],[-75.582382,39.807944],[-75.582371,39.807953],[-75.58236,39.807963],[-75.58235,39.807972],[-75.582339,39.807981],[-75.582328,39.807991],[-75.582317,39.808],[-75.582306,39.808011],[-75.582294,39.808021],[-75.582283,39.80803],[-75.582273,39.808039],[-75.582262,39.808048],[-75.582252,39.808058],[-75.582241,39.808067],[-75.58223,39.808076],[-75.58222,39.808085],[-75.582209,39.808095],[-75.582198,39.808104],[-75.582187,39.808113],[-75.582177,39.808122],[-75.582168,39.80813],[-75.582159,39.808139],[-75.582149,39.808147],[-75.582138,39.808156],[-75.582127,39.808166],[-75.582115,39.808177],[-75.582102,39.808188],[-75.582092,39.808197],[-75.582082,39.808205],[-75.582072,39.808214],[-75.582061,39.808223],[-75.582051,39.808232],[-75.582041,39.808241],[-75.582031,39.80825],[-75.582021,39.808259],[-75.582011,39.808267],[-75.582001,39.808276],[-75.581991,39.808285],[-75.581981,39.808293],[-75.581971,39.808302],[-75.581962,39.80831],[-75.581952,39.808319],[-75.581941,39.808328],[-75.581931,39.808337],[-75.58192,39.808346],[-75.58191,39.808356],[-75.581899,39.808365],[-75.581889,39.808374],[-75.581877,39.808384],[-75.581866,39.808393],[-75.581855,39.808403],[-75.581844,39.808413],[-75.581833,39.808422],[-75.581823,39.808431],[-75.581812,39.808441],[-75.581801,39.808451],[-75.58179,39.80846],[-75.581779,39.80847],[-75.581768,39.808479],[-75.581756,39.80849],[-75.581745,39.808499],[-75.581735,39.808508],[-75.581724,39.808517],[-75.581714,39.808526],[-75.581703,39.808536],[-75.581692,39.808545],[-75.581681,39.808555],[-75.58167,39.808565],[-75.581658,39.808575],[-75.581647,39.808585],[-75.581636,39.808594],[-75.581626,39.808603],[-75.581617,39.808611],[-75.581607,39.808619],[-75.581596,39.808628],[-75.581586,39.808638],[-75.581575,39.808647],[-75.581565,39.808656],[-75.581554,39.808665],[-75.581543,39.808674],[-75.581533,39.808684],[-75.581522,39.808693],[-75.581512,39.808702],[-75.581502,39.808711],[-75.581492,39.80872],[-75.581481,39.808729],[-75.58147,39.808738],[-75.581459,39.808748],[-75.581448,39.808757],[-75.581438,39.808766],[-75.581427,39.808775],[-75.581417,39.808785],[-75.581405,39.808795],[-75.581394,39.808804],[-75.581383,39.808814],[-75.581372,39.808824],[-75.581361,39.808833],[-75.58135,39.808842],[-75.581339,39.808852],[-75.581329,39.808861],[-75.581318,39.808871],[-75.581307,39.808881],[-75.581296,39.80889],[-75.581284,39.8089],[-75.581274,39.80891],[-75.581263,39.808919],[-75.581253,39.808928],[-75.581242,39.808937],[-75.581231,39.808946],[-75.581219,39.808954],[-75.581206,39.808961],[-75.581192,39.808968],[-75.581179,39.808974],[-75.581166,39.808979],[-75.581152,39.808984],[-75.581138,39.808989],[-75.581123,39.808993],[-75.581107,39.808996],[-75.581092,39.808999],[-75.581077,39.809002],[-75.581062,39.809005],[-75.581047,39.809008],[-75.581032,39.80901],[-75.581017,39.809013],[-75.581,39.809016],[-75.580983,39.809019],[-75.580967,39.809023],[-75.580951,39.809027],[-75.580936,39.809031],[-75.58092,39.809036],[-75.580905,39.80904],[-75.580889,39.809044],[-75.580874,39.809048],[-75.580858,39.809052],[-75.580842,39.809056],[-75.580826,39.809061],[-75.58081,39.809066],[-75.580794,39.809072],[-75.580777,39.809078],[-75.580761999999993,39.809084],[-75.580748,39.809089],[-75.580734,39.809095],[-75.58072,39.809101],[-75.580706,39.809107],[-75.580693,39.809113],[-75.580679,39.809119],[-75.580666,39.809125],[-75.580653,39.809132],[-75.580642,39.809138],[-75.580631,39.809145],[-75.580621,39.809152],[-75.580609,39.809159],[-75.580597,39.809167],[-75.580584,39.809174],[-75.580572,39.809182],[-75.58056,39.809189],[-75.580549,39.809196],[-75.580538,39.809203],[-75.580527,39.80921],[-75.580516,39.809216],[-75.580505,39.809223],[-75.580493,39.80923],[-75.580482,39.809237],[-75.580472,39.809243],[-75.580462,39.809249],[-75.580451,39.809256],[-75.580439,39.809263],[-75.580426,39.80927],[-75.580414,39.809277],[-75.580404,39.809283],[-75.580393,39.809289],[-75.580381,39.809296],[-75.580368,39.809303],[-75.580355,39.80931],[-75.580343,39.809316],[-75.580331,39.809322],[-75.580319,39.809326],[-75.580305,39.809331],[-75.58029,39.809337],[-75.580275,39.809342],[-75.580261,39.809348],[-75.580246,39.809353],[-75.58023,39.809357],[-75.580215,39.809362],[-75.580198,39.809366],[-75.580181,39.809369],[-75.580164,39.809371],[-75.580148,39.809373],[-75.580132,39.809375],[-75.580116,39.809377],[-75.580099,39.809378],[-75.580083,39.80938],[-75.580067,39.809381],[-75.580051,39.809383],[-75.580038,39.809384],[-75.580025,39.809385],[-75.58001,39.809387],[-75.579995,39.809388],[-75.57998,39.80939],[-75.579965,39.809391],[-75.579951,39.809392],[-75.579938,39.809394],[-75.579925,39.809395],[-75.579912,39.809396],[-75.5799,39.809397],[-75.579887,39.809398],[-75.579873,39.8094],[-75.579857,39.809402],[-75.579841,39.809404],[-75.579826,39.809406],[-75.579812,39.809408],[-75.579798,39.80941],[-75.579785,39.809412],[-75.57977,39.809414],[-75.579754,39.809416],[-75.579738,39.809419],[-75.579722,39.809421],[-75.579706,39.809424],[-75.57969,39.809426],[-75.579674,39.809429],[-75.579658,39.809432],[-75.579643,39.809434],[-75.579628,39.809437],[-75.579615,39.809439],[-75.579601,39.809441],[-75.579588,39.809443],[-75.579575,39.809444],[-75.579561,39.809446],[-75.579547,39.809447],[-75.579534,39.809448],[-75.57952,39.809449],[-75.579506,39.809449],[-75.579491,39.80945],[-75.579476,39.809451],[-75.579461,39.809451],[-75.579446,39.809451],[-75.579431,39.80945],[-75.579419,39.809449],[-75.579407,39.809448],[-75.579397,39.809445],[-75.579386,39.809443],[-75.579375,39.80944],[-75.579365,39.809436],[-75.579356,39.809432],[-75.579348,39.809427],[-75.57934,39.809422],[-75.579333,39.809416],[-75.579326,39.809408],[-75.579317,39.809398],[-75.579308,39.809383],[-75.579301,39.80937],[-75.579295,39.809359],[-75.57929,39.809349],[-75.579286,39.809339],[-75.579283,39.809327],[-75.57928,39.809316],[-75.579277,39.809304],[-75.579275,39.809292],[-75.579272,39.80928],[-75.57927,39.809268],[-75.579268,39.809256],[-75.579267,39.809244],[-75.579266,39.809233],[-75.579265,39.809223],[-75.579265,39.809211],[-75.579265,39.809199],[-75.579265,39.809186],[-75.579265,39.809173],[-75.579266,39.80916],[-75.579268,39.809146],[-75.579269,39.809133],[-75.57927,39.80912],[-75.579272,39.809107],[-75.579273,39.809095],[-75.579275,39.809083],[-75.579277,39.80907],[-75.579278,39.809058],[-75.57928,39.809047],[-75.579282,39.809035],[-75.579283,39.809023],[-75.579285,39.809012],[-75.579287,39.809001],[-75.579289,39.808989],[-75.579292,39.808977],[-75.579294,39.808965],[-75.579296,39.808954],[-75.579298,39.808942],[-75.579301,39.80893],[-75.579303,39.808918],[-75.579305,39.808907],[-75.579307,39.808897],[-75.579309,39.808887],[-75.579311,39.808876],[-75.579313,39.808865],[-75.579315,39.808852],[-75.579318,39.808841],[-75.57932,39.808829],[-75.579322,39.808817],[-75.579324,39.808806],[-75.579326,39.808794],[-75.579329,39.808782],[-75.579331,39.808769],[-75.579334,39.808757],[-75.579337,39.808745],[-75.57934,39.808732],[-75.579343,39.808719],[-75.579346,39.808707],[-75.579349,39.808696],[-75.579352,39.808684],[-75.579356,39.808673],[-75.579359,39.808662],[-75.579363,39.808651],[-75.579366,39.80864],[-75.57937,39.808628],[-75.579375,39.808617],[-75.579379,39.808605],[-75.579384,39.808594],[-75.579388,39.808583],[-75.579393,39.808572],[-75.579397,39.808562],[-75.579401,39.808552],[-75.579406,39.808542],[-75.579411,39.808532],[-75.579415,39.808522],[-75.57942,39.808512],[-75.579425,39.808502],[-75.579429,39.808492],[-75.579434,39.808482],[-75.579439,39.808473],[-75.579443,39.808463],[-75.579448,39.808453],[-75.579452,39.808444],[-75.579456,39.808435],[-75.57946,39.808427],[-75.579464,39.808418],[-75.579469,39.80841],[-75.579474,39.808401],[-75.57948,39.808393],[-75.579486,39.808387],[-75.57949,39.808382],[-75.579492,39.808377],[-75.579493,39.808373],[-75.579491,39.808368],[-75.579488,39.808359],[-75.579482,39.808347],[-75.579471,39.808332],[-75.57946,39.808317],[-75.579448,39.808302],[-75.579435,39.808286],[-75.579421,39.80827],[-75.579405,39.808254],[-75.579389,39.80824],[-75.57937,39.808226],[-75.57935,39.808213],[-75.579329,39.8082],[-75.579307,39.808188],[-75.579286,39.808176],[-75.579268,39.808164],[-75.579253,39.808153],[-75.579241,39.808143],[-75.57923,39.808134],[-75.579222,39.808126],[-75.579215,39.808118],[-75.57921,39.80811],[-75.579205,39.808101],[-75.5792,39.808091],[-75.579196,39.808082],[-75.579192,39.808076],[-75.57919,39.808075],[-75.579188,39.808077],[-75.579186,39.808081],[-75.579184,39.808086],[-75.579182,39.808091],[-75.57918,39.808094],[-75.57918,39.808096],[-75.579181,39.808098],[-75.579185,39.808101],[-75.579193,39.808106],[-75.579204,39.808111],[-75.579216,39.808118],[-75.579229,39.808125],[-75.579244,39.808133],[-75.579261,39.808142],[-75.57928,39.808151],[-75.579302,39.80816],[-75.579329,39.808169],[-75.579361,39.808175],[-75.57939,39.808178],[-75.579414,39.808179],[-75.579437,39.808177],[-75.579454,39.808173],[-75.579471,39.808167],[-75.579487,39.808162],[-75.579503,39.808156],[-75.579518,39.808149],[-75.579534,39.808144],[-75.579553,39.808142],[-75.579574,39.808145],[-75.579594,39.808147],[-75.579616,39.80815],[-75.579638,39.808152],[-75.57966,39.808155],[-75.579683,39.808158],[-75.579707,39.808162],[-75.579729,39.808165],[-75.579751,39.808167],[-75.579776,39.808168],[-75.579798,39.808169],[-75.579819,39.808168],[-75.579839,39.808167],[-75.579858,39.808165],[-75.579876,39.808163],[-75.579894,39.80816],[-75.579912,39.808157],[-75.579929,39.808154],[-75.579946,39.80815],[-75.579962,39.808145],[-75.579979,39.808141],[-75.579995,39.808136],[-75.580011,39.808131],[-75.580026,39.808127],[-75.580042,39.808123],[-75.580057,39.80812],[-75.580073,39.808114],[-75.580087,39.808109],[-75.580103,39.808104],[-75.580118,39.808098],[-75.580135,39.808093],[-75.58015,39.808087],[-75.580166,39.808081],[-75.58018,39.808074],[-75.580194,39.808067],[-75.580208,39.808057],[-75.58022,39.808047],[-75.580235,39.808038],[-75.58025,39.808031],[-75.580266,39.808024],[-75.580283,39.808017],[-75.580298,39.80801],[-75.580313,39.808003],[-75.580328,39.807995],[-75.580343,39.807987],[-75.580358,39.807978],[-75.580373,39.80797],[-75.580387,39.807962],[-75.5804,39.807953],[-75.580414,39.807944],[-75.580427,39.807935],[-75.58044,39.807925],[-75.580452,39.807916],[-75.580463,39.807906],[-75.580474,39.807895],[-75.580485,39.807885],[-75.580495,39.807874],[-75.580506,39.807864],[-75.580516,39.807853],[-75.580525,39.807842],[-75.580535,39.807831],[-75.580544,39.80782],[-75.580553,39.807809],[-75.580561,39.807799],[-75.580569,39.80779],[-75.580577,39.807781],[-75.580585,39.807771],[-75.580595,39.80776],[-75.580605,39.807748],[-75.580615,39.807736],[-75.580625,39.807724],[-75.580634,39.807712],[-75.580644,39.807701],[-75.580653,39.80769],[-75.580662,39.807679],[-75.58067,39.807668],[-75.580678,39.807658],[-75.580685,39.80765],[-75.580692,39.807642],[-75.580697,39.807635],[-75.580702,39.807629],[-75.580707,39.807623],[-75.580712,39.807617],[-75.580717,39.807611],[-75.580722,39.807605],[-75.580726,39.8076],[-75.58073,39.807595],[-75.580733,39.807591],[-75.580738,39.807585],[-75.580742,39.80758],[-75.580746,39.807575],[-75.580749,39.807571],[-75.580751,39.807569],[-75.580751,39.807568],[-75.580752,39.807568],[-75.580752,39.807568],[-75.580752,39.807568],[-75.580751,39.807568],[-75.580751,39.807568],[-75.580751,39.807568],[-75.580751,39.807568],[-75.580751,39.807569],[-75.580751,39.807569],[-75.580751,39.807569],[-75.580752,39.807568],[-75.580753,39.807566],[-75.580754,39.807566],[-75.580754,39.807566],[-75.580754,39.807566],[-75.580753,39.807566],[-75.580753,39.807567],[-75.580753,39.807567],[-75.580753,39.807567],[-75.580753,39.807567],[-75.580753,39.807567],[-75.580753,39.807567],[-75.580753,39.807567],[-75.580754,39.807567],[-75.580755,39.807566],[-75.580757,39.807565],[-75.580759,39.807564],[-75.580763,39.80756],[-75.580769,39.807556],[-75.580774,39.80755],[-75.58078,39.807545],[-75.580786,39.807538],[-75.580792,39.807533],[-75.580797,39.807527],[-75.580803,39.80752],[-75.580811,39.807512],[-75.580819,39.807504],[-75.580828,39.807496],[-75.580836,39.807488],[-75.580844,39.807479],[-75.580853,39.807471],[-75.580862,39.807462],[-75.580871,39.807453],[-75.58088,39.807445],[-75.580888,39.807436],[-75.580898,39.807427],[-75.580908,39.807417],[-75.580918,39.807407],[-75.580929,39.807397],[-75.580939,39.807387],[-75.580949,39.807377],[-75.580958,39.807367],[-75.580967,39.807358],[-75.580976,39.80735],[-75.580983,39.807343],[-75.58099,39.807336],[-75.580998,39.807328],[-75.581008,39.807318],[-75.581017,39.807309],[-75.581027,39.807299],[-75.581036,39.80729],[-75.581045,39.807281],[-75.581053,39.807272],[-75.581061,39.807264],[-75.581069,39.807255],[-75.581078,39.807245],[-75.581088,39.807235],[-75.581097,39.807225],[-75.581106,39.807216],[-75.581114,39.807206],[-75.581123,39.807196],[-75.581132,39.807187],[-75.581141,39.807177],[-75.58115,39.807167],[-75.581158,39.807157],[-75.581167,39.807148],[-75.581176,39.807137],[-75.581184,39.807127],[-75.581193,39.807117],[-75.581201,39.807107],[-75.58121,39.807096],[-75.581218,39.807086],[-75.581227,39.807076],[-75.581235,39.807066],[-75.581243,39.807056],[-75.581252,39.807045],[-75.58126,39.807035],[-75.581267,39.807026],[-75.581275,39.807016],[-75.581283,39.807006],[-75.581291,39.806996],[-75.581298,39.806986],[-75.581306,39.806976],[-75.581314,39.806966],[-75.581322,39.806956],[-75.58133,39.806946],[-75.581337,39.806936],[-75.581345,39.806926],[-75.581352999999993,39.806917],[-75.58136,39.806907],[-75.581368,39.806897],[-75.581374,39.806888],[-75.581381,39.806879],[-75.581387,39.80687],[-75.581394,39.80686],[-75.581401,39.80685],[-75.581408,39.806839],[-75.581416,39.806828],[-75.581423,39.806817],[-75.58143,39.806807],[-75.581437,39.806797],[-75.581444,39.806788],[-75.581452,39.806778],[-75.58146,39.806767],[-75.581468,39.806756],[-75.581476,39.806745],[-75.581484,39.806735],[-75.581491,39.806724],[-75.581499,39.806714],[-75.581506,39.806704],[-75.581514,39.806693],[-75.581521,39.806683],[-75.581528,39.806672],[-75.581536,39.806661],[-75.581543,39.80665],[-75.581549999999993,39.806639],[-75.581558,39.806628],[-75.581565,39.806617],[-75.581573,39.806605],[-75.58158,39.806594],[-75.581587,39.806583],[-75.581595,39.806572],[-75.581602,39.806561],[-75.58161,39.806549],[-75.581618,39.806538],[-75.581626,39.806527],[-75.581634,39.806516],[-75.581642,39.806505],[-75.58165,39.806494],[-75.581658,39.806483],[-75.581665,39.806472],[-75.581673,39.806461],[-75.581681,39.80645],[-75.581689,39.806439],[-75.581697,39.806427],[-75.581705,39.806416],[-75.581714,39.806405],[-75.581723,39.806394],[-75.581732,39.806384],[-75.581741,39.806373],[-75.581749,39.806363],[-75.581758,39.806353],[-75.581768,39.806343],[-75.581777,39.806333],[-75.581787,39.806323],[-75.581796,39.806312],[-75.581806,39.806302],[-75.581815,39.806292],[-75.581824,39.806282],[-75.581834,39.806272],[-75.581843,39.806263],[-75.581852,39.806253],[-75.581862,39.806244],[-75.58187,39.806235],[-75.581879,39.806227],[-75.581887,39.806218],[-75.581895,39.806209],[-75.581902,39.806201],[-75.58191,39.806193],[-75.581916,39.806185],[-75.581923,39.806177],[-75.58193,39.80617],[-75.581936,39.806163],[-75.581942,39.806157],[-75.581948,39.806151],[-75.581952,39.806146],[-75.581956,39.806142],[-75.581958,39.806139],[-75.581959,39.806137],[-75.58196,39.806137],[-75.58196,39.806136],[-75.581961,39.806136],[-75.581962,39.806136],[-75.581963,39.806136],[-75.581963,39.806136],[-75.581964,39.806136],[-75.581965,39.806136],[-75.581966,39.806135],[-75.581968,39.806135],[-75.58197,39.806133],[-75.581972,39.806131],[-75.581977,39.806126],[-75.581981,39.806121],[-75.581982,39.806119],[-75.581981,39.806119],[-75.581977,39.806121],[-75.581973,39.806123],[-75.581968,39.806126],[-75.581963,39.806128],[-75.581958,39.806129],[-75.581951,39.806129],[-75.581942,39.806127],[-75.58193,39.806124],[-75.581915,39.806118],[-75.581898,39.80611],[-75.581878,39.8061],[-75.581856,39.806088],[-75.581834,39.806077],[-75.581813,39.806064],[-75.58179,39.806051],[-75.58177,39.806039],[-75.581752,39.806026],[-75.581735,39.806014],[-75.581718,39.806001],[-75.581703,39.80599],[-75.581689,39.805979],[-75.581676,39.805969],[-75.581662,39.805959],[-75.581649,39.80595],[-75.581636,39.805941],[-75.581623,39.805933],[-75.58161,39.805924],[-75.581598,39.805916],[-75.581587,39.805909],[-75.581576,39.805902],[-75.581563,39.805894],[-75.581549999999993,39.805886],[-75.581537,39.805878],[-75.581523,39.805869],[-75.58151,39.805861],[-75.581496,39.805853],[-75.581483,39.805844],[-75.581469,39.805836],[-75.581455,39.805827],[-75.581442,39.805819],[-75.581429,39.80581],[-75.581416,39.805802],[-75.581402,39.805794],[-75.581389,39.805786],[-75.581376,39.805777],[-75.581363,39.805768],[-75.58135,39.805759],[-75.581338,39.805751],[-75.581325,39.805742],[-75.581312,39.805733],[-75.581301,39.805725],[-75.581289,39.805717],[-75.581278,39.805709],[-75.581266,39.805701],[-75.581254,39.805692],[-75.581242,39.805684],[-75.58123,39.805675],[-75.581218,39.805667],[-75.581206,39.805658],[-75.581194,39.805649],[-75.581182,39.80564],[-75.581171,39.805632],[-75.58116,39.805624],[-75.581149,39.805616],[-75.581138,39.805609],[-75.581127,39.805601],[-75.581116,39.805592],[-75.581104,39.805584],[-75.581092,39.805575],[-75.58108,39.805566],[-75.581067,39.805557],[-75.581055,39.805548],[-75.581042,39.805539],[-75.58103,39.80553],[-75.581017,39.805521],[-75.581005,39.805512],[-75.580993,39.805503],[-75.580981,39.805494],[-75.580969,39.805486],[-75.580956,39.805477],[-75.580944,39.805468],[-75.580932,39.805459],[-75.580919,39.80545],[-75.580906,39.805441],[-75.580893,39.805431],[-75.58088,39.805421],[-75.580867,39.805411],[-75.580853,39.805401],[-75.580841,39.805391],[-75.580828,39.805381],[-75.580815,39.805371],[-75.580802,39.805362],[-75.580789,39.805352],[-75.580775,39.805341],[-75.580759,39.805329],[-75.580743,39.805316],[-75.580727,39.805304],[-75.580713,39.805293],[-75.580698,39.805282],[-75.580684,39.805272],[-75.58067,39.805262],[-75.580657,39.805252],[-75.580642,39.805242],[-75.580626,39.80523],[-75.580611,39.805219],[-75.580599,39.80521],[-75.580587,39.805201],[-75.580575,39.805192],[-75.580562,39.805183],[-75.580551,39.805174],[-75.580539,39.805165],[-75.580528,39.805157],[-75.580516,39.805149],[-75.580504,39.80514],[-75.580492,39.805132],[-75.58048,39.805123],[-75.580468,39.805114],[-75.580456,39.805106],[-75.580443,39.805098],[-75.58043,39.805089],[-75.580419,39.805082],[-75.580408,39.805075],[-75.580397,39.805068],[-75.580385,39.80506],[-75.580373,39.805052],[-75.580361,39.805045],[-75.580351,39.805038],[-75.580341,39.805031],[-75.580331,39.805026],[-75.580322,39.80502],[-75.580313,39.805014],[-75.580304,39.805009],[-75.580296,39.805005],[-75.58029,39.805001],[-75.580285,39.805],[-75.58028,39.804999],[-75.580276,39.804999],[-75.580272,39.805],[-75.580268,39.805002],[-75.580266,39.805004],[-75.580265,39.805006],[-75.580264,39.805008],[-75.580264,39.805009],[-75.580264,39.805009],[-75.580264,39.805009],[-75.580264,39.805009],[-75.580264,39.805009],[-75.580264,39.80501],[-75.580263,39.80501],[-75.580263,39.80501],[-75.580262,39.805009],[-75.580262,39.805007],[-75.580259,39.805008],[-75.580252,39.805014],[-75.580243,39.805019],[-75.580231,39.80502],[-75.580217,39.805015],[-75.580203,39.805007],[-75.580186,39.804997],[-75.580168,39.804986],[-75.58015,39.804975],[-75.58013,39.804964],[-75.580109,39.804952],[-75.580088,39.804943],[-75.580068,39.804934],[-75.580049,39.804925],[-75.580032,39.804917],[-75.580017,39.804909],[-75.580002,39.804902],[-75.579987,39.804895],[-75.579972,39.804889],[-75.579957,39.804883],[-75.579942,39.804877],[-75.579929,39.804872],[-75.579918,39.804867],[-75.579907,39.804863],[-75.579896,39.80486],[-75.579885,39.804855],[-75.579875,39.804849],[-75.579866,39.804842],[-75.579855,39.804834],[-75.579843,39.804828],[-75.579831,39.804821],[-75.579819,39.804816],[-75.579806,39.804811],[-75.579793,39.804807],[-75.57978,39.804802],[-75.579766,39.804797],[-75.579753,39.804793],[-75.579742,39.804788],[-75.579732,39.804783],[-75.579721,39.804778],[-75.57971,39.804771],[-75.5797,39.804762],[-75.579691,39.804751],[-75.579682,39.80474],[-75.579675,39.80473],[-75.57967,39.804719],[-75.579666,39.804707],[-75.579662,39.804696],[-75.579656,39.804685],[-75.57965,39.804673],[-75.579641,39.804662],[-75.579633,39.804651],[-75.579624,39.80464],[-75.579616,39.80463],[-75.579608,39.804619],[-75.579601,39.804609],[-75.579595,39.804598],[-75.579589,39.804589],[-75.579584,39.80458],[-75.579579,39.804571],[-75.579574,39.804562],[-75.579569,39.804552],[-75.579564,39.804542],[-75.57956,39.804532],[-75.579555,39.804522],[-75.579551,39.804514],[-75.579548,39.804505],[-75.579544,39.804498],[-75.579541,39.804492],[-75.579538,39.804488],[-75.579536,39.804485],[-75.579534,39.804483],[-75.579533,39.804481],[-75.579531,39.80448],[-75.579531,39.80448],[-75.57953,39.80448],[-75.57953,39.804481],[-75.57953,39.804481],[-75.57953,39.804482],[-75.57953,39.804482],[-75.579529,39.804483],[-75.579527,39.804483],[-75.579522,39.804484],[-75.579516,39.804482],[-75.579507,39.804481],[-75.579495,39.804482],[-75.579482,39.804483],[-75.579468,39.804486],[-75.579452,39.80449],[-75.579435,39.804496],[-75.579416,39.804502],[-75.579396,39.804508],[-75.579377,39.804513],[-75.579358,39.804518],[-75.57934,39.804522],[-75.579322,39.804526],[-75.579305,39.80453],[-75.579288,39.804533],[-75.579271,39.804536],[-75.579255,39.80454],[-75.57924,39.804543],[-75.579225,39.804546],[-75.579211,39.804549],[-75.579196,39.804552],[-75.579181,39.804554],[-75.579166,39.804557],[-75.579151,39.80456],[-75.579137,39.804563],[-75.579122,39.804566],[-75.579109,39.80457],[-75.579096,39.804575],[-75.579083,39.80458],[-75.579069,39.804585],[-75.579055,39.80459],[-75.579042,39.804596],[-75.579028,39.8046],[-75.579014,39.804605],[-75.579001,39.804609],[-75.578988,39.804613],[-75.578975,39.804617],[-75.578961,39.804621],[-75.578948,39.804624],[-75.578934,39.804627],[-75.57892,39.804631],[-75.578906,39.804634],[-75.578893,39.804637],[-75.578879,39.804639],[-75.578865,39.804642],[-75.57885,39.804645],[-75.578836,39.804647],[-75.578821,39.804649],[-75.578808,39.804651],[-75.578794,39.804653],[-75.57878,39.804655],[-75.578767,39.804657],[-75.578753,39.804659],[-75.578741,39.804661],[-75.578728,39.804663],[-75.578715,39.804665],[-75.578702,39.804667],[-75.578689,39.80467],[-75.578676,39.804675],[-75.578665,39.804683],[-75.578656,39.804694],[-75.578648,39.804707],[-75.57864,39.804721],[-75.578631,39.804736],[-75.578621,39.804753],[-75.578611,39.80477],[-75.578602,39.804787],[-75.578592,39.804803],[-75.578583,39.804816],[-75.578574,39.804828],[-75.578566,39.804838],[-75.578559,39.804847],[-75.578552,39.804855],[-75.578544,39.804863],[-75.578537,39.80487],[-75.578529,39.804874],[-75.578523,39.804876],[-75.578516,39.804877],[-75.578511,39.804878],[-75.578505,39.804879],[-75.5785,39.80488],[-75.578496,39.804882],[-75.57849,39.804884],[-75.578485,39.804887],[-75.578478,39.804892],[-75.578472,39.804896],[-75.578465,39.804901],[-75.578458,39.804904],[-75.578453,39.804907],[-75.578449,39.804909],[-75.578447,39.80491],[-75.578445,39.804912],[-75.578442,39.804914],[-75.578438,39.804917],[-75.578436,39.804919],[-75.578436,39.804918],[-75.578437,39.804918],[-75.578438,39.804917],[-75.57844,39.804917],[-75.578441,39.804916],[-75.578442,39.804917],[-75.578443,39.804917],[-75.578443,39.804918],[-75.578443,39.804919],[-75.578442,39.80492],[-75.578441,39.804922],[-75.578442,39.804922],[-75.578443,39.804921],[-75.578444,39.80492],[-75.578445,39.804918],[-75.578446,39.804916],[-75.578446,39.804916],[-75.578445,39.804916],[-75.578444,39.804917],[-75.578443,39.804917],[-75.578443,39.804917],[-75.578443,39.804917],[-75.578442,39.804916],[-75.578441,39.804916],[-75.578439,39.804916],[-75.578437,39.804916],[-75.578437,39.804914],[-75.578437,39.804911],[-75.578439,39.804908],[-75.578441,39.804904],[-75.578444,39.804901],[-75.578447,39.804898],[-75.57845,39.804895],[-75.578452,39.804893],[-75.578453,39.804892],[-75.578454,39.804891],[-75.578455,39.80489],[-75.578455,39.804889],[-75.578456,39.804889],[-75.578456,39.804889],[-75.578456,39.804889]]}}
