{"type":"Feature","properties":{"name":"Delaware State University XC Course","routeType":"Submitted GPX course record","distanceKilometers":4.79,"distanceMiles":2.98,"note":"Route geometry derived from a submitted GPX track. Historical course verification is ongoing."},"geometry":{"type":"LineString","coordinates":[[-75.584657,39.284089],[-75.584672,39.284088],[-75.584681,39.284089],[-75.584694,39.284089],[-75.584704,39.284091],[-75.58472,39.284096],[-75.58473,39.284103],[-75.584743,39.284107],[-75.584758,39.28411],[-75.584775,39.284112],[-75.58479,39.284114],[-75.584806,39.284114],[-75.584821,39.284117],[-75.584837,39.284119],[-75.584853,39.284123],[-75.584869,39.284123],[-75.584887,39.284124],[-75.584903,39.284126],[-75.58492,39.284129],[-75.584935,39.284133],[-75.58495,39.284134],[-75.584967,39.284137],[-75.584985,39.284139],[-75.584999,39.284142],[-75.585013,39.284145],[-75.585025,39.284147],[-75.585041,39.284149],[-75.585054,39.284154],[-75.585066,39.284162],[-75.58508,39.284171],[-75.585096,39.284177],[-75.585113,39.28418],[-75.585128,39.284185],[-75.585145,39.284186],[-75.585164,39.284186],[-75.58518,39.284186],[-75.585197,39.284189],[-75.585212,39.284192],[-75.585228,39.284194],[-75.585245,39.284195],[-75.585261,39.284198],[-75.585276,39.284198],[-75.585292,39.284199],[-75.585308,39.2842],[-75.585324,39.284202],[-75.585339,39.284205],[-75.585353,39.284209],[-75.585368,39.284209],[-75.585384,39.284207],[-75.585399,39.284207],[-75.585413,39.284207],[-75.585426,39.284209],[-75.585438,39.28421],[-75.585452,39.284212],[-75.585466,39.284215],[-75.58548,39.284218],[-75.585495,39.284222],[-75.585506,39.284223],[-75.585518,39.284224],[-75.585531,39.284224],[-75.585545,39.284227],[-75.585556,39.28423],[-75.585568,39.284232],[-75.585584,39.284233],[-75.585598,39.284234],[-75.585613,39.284235],[-75.585624,39.284239],[-75.585633,39.284243],[-75.585639,39.284243],[-75.585647,39.284243],[-75.585659,39.284243],[-75.585668,39.284243],[-75.585678,39.284246],[-75.585692,39.284249],[-75.585705,39.284251],[-75.585717,39.284252],[-75.58573,39.284254],[-75.585742,39.284256],[-75.585755,39.284259],[-75.585769,39.284262],[-75.58578,39.284264],[-75.585793,39.284264],[-75.585806,39.284267],[-75.585819,39.284271],[-75.585831,39.284274],[-75.585842,39.284275],[-75.585856,39.284276],[-75.585866,39.284277],[-75.585875,39.284287],[-75.585883,39.284297],[-75.585881,39.28429],[-75.585886,39.284284],[-75.58589,39.28428],[-75.585895,39.284277],[-75.585899,39.284273],[-75.585903,39.28427],[-75.585908,39.284269],[-75.585911,39.284266],[-75.585914,39.284267],[-75.585915,39.284267],[-75.585916,39.284265],[-75.585918,39.284264],[-75.585926,39.284261],[-75.585932,39.284257],[-75.585939,39.284253],[-75.585943,39.284248],[-75.58595,39.284246],[-75.585954,39.284242],[-75.585957,39.284236],[-75.585963,39.284228],[-75.585971,39.284221],[-75.585978,39.284215],[-75.585987,39.284206],[-75.585995,39.284197],[-75.586015,39.284168],[-75.586027,39.284145],[-75.586042,39.28413],[-75.586059,39.284115],[-75.586073,39.284103],[-75.586083,39.284093],[-75.586092,39.284086],[-75.586097,39.28408],[-75.5861,39.284074],[-75.586107,39.284067],[-75.586111,39.28406],[-75.586112,39.284052],[-75.586112,39.284047],[-75.586113,39.284044],[-75.586115,39.284046],[-75.586118,39.284041],[-75.586116,39.284027],[-75.586109,39.284011],[-75.5861,39.283999],[-75.586089,39.283987],[-75.586079,39.283977],[-75.586066,39.283968],[-75.586049,39.283961],[-75.586034,39.283955],[-75.586022,39.283946],[-75.586017,39.283933],[-75.586011,39.283923],[-75.586004,39.283914],[-75.585999,39.283912],[-75.585987,39.283904],[-75.585977,39.283896],[-75.585964,39.283889],[-75.585949,39.283883],[-75.585941,39.283878],[-75.585932,39.28387],[-75.585916,39.283865],[-75.585906,39.283861],[-75.585894,39.283856],[-75.585881,39.283847],[-75.585874,39.283839],[-75.585863,39.283832],[-75.585857,39.283824],[-75.585852,39.283821],[-75.585839,39.283818],[-75.585826,39.283813],[-75.585814,39.283806],[-75.585802,39.283799],[-75.585793,39.283791],[-75.585783,39.283784],[-75.585774,39.283777],[-75.585769,39.28377],[-75.585759,39.283764],[-75.585744,39.283757],[-75.585734,39.28375],[-75.585723,39.283741],[-75.585717,39.283734],[-75.585709,39.283726],[-75.585694,39.283722],[-75.585682,39.283715],[-75.585671,39.283708],[-75.58566,39.283702],[-75.585649,39.283696],[-75.585638,39.283689],[-75.585632,39.28368],[-75.585626,39.283675],[-75.585617,39.283668],[-75.585604,39.283659],[-75.585593,39.283652],[-75.585579,39.283647],[-75.585566,39.283642],[-75.585557,39.283634],[-75.585547,39.283626],[-75.585535,39.283617],[-75.585524,39.283612],[-75.585512,39.283605],[-75.5855,39.283597],[-75.58549,39.28359],[-75.585483,39.283584],[-75.585466,39.283572],[-75.585453,39.283565],[-75.58544,39.283559],[-75.585428,39.283553],[-75.585415,39.283546],[-75.585404,39.283539],[-75.585393,39.283532],[-75.585382,39.283526],[-75.585369,39.283517],[-75.585356,39.283509],[-75.585345,39.283502],[-75.585335,39.283494],[-75.585326,39.283491],[-75.585315,39.283485],[-75.585305,39.283478],[-75.585293,39.283472],[-75.585279,39.283464],[-75.585264,39.283457],[-75.585252,39.28345],[-75.58524,39.283442],[-75.58523,39.283432],[-75.585221,39.283423],[-75.585208,39.283415],[-75.585196,39.283408],[-75.585184,39.283403],[-75.585173,39.283396],[-75.585162,39.283391],[-75.58515,39.283381],[-75.585138,39.283372],[-75.585125,39.283366],[-75.585111,39.283359],[-75.585099,39.283351],[-75.585087,39.283344],[-75.585081,39.283334],[-75.585068,39.283326],[-75.585056,39.28332],[-75.585044,39.283313],[-75.585034,39.283305],[-75.585021,39.283299],[-75.585009,39.283292],[-75.584994,39.283284],[-75.584982,39.283276],[-75.584968,39.283269],[-75.584958,39.283262],[-75.584945,39.283256],[-75.584933,39.283247],[-75.584921,39.283239],[-75.58491,39.28323],[-75.5849,39.283223],[-75.584886,39.283216],[-75.584878,39.283214],[-75.584869,39.283207],[-75.584858,39.283197],[-75.584847,39.283191],[-75.584833,39.283185],[-75.58482,39.283181],[-75.584809,39.283178],[-75.584802,39.28317],[-75.584791,39.283159],[-75.584779,39.283153],[-75.584764,39.283147],[-75.584753,39.283142],[-75.584742,39.283134],[-75.584731,39.283126],[-75.584718,39.283119],[-75.584708,39.283114],[-75.584697,39.283107],[-75.58469,39.283099],[-75.584686,39.28309],[-75.584678,39.283085],[-75.584666,39.283082],[-75.584656,39.283075],[-75.584646,39.283069],[-75.584637,39.283063],[-75.584626,39.283058],[-75.584615,39.283051],[-75.584604,39.283042],[-75.584592,39.283035],[-75.584578,39.283032],[-75.584566,39.283027],[-75.584556,39.283021],[-75.584545,39.283016],[-75.584536,39.283012],[-75.584526,39.283004],[-75.58452,39.282995],[-75.584511,39.282985],[-75.584501,39.282977],[-75.58449,39.282967],[-75.584479,39.28296],[-75.584467,39.282953],[-75.584454,39.282946],[-75.584444,39.28294],[-75.584433,39.282932],[-75.584422,39.282926],[-75.584408,39.282918],[-75.584393,39.282912],[-75.584381,39.282903],[-75.584374,39.282897],[-75.584362,39.282886],[-75.584349,39.28288],[-75.584336,39.282873],[-75.584324,39.282867],[-75.584315,39.282858],[-75.584306,39.282848],[-75.584295,39.282841],[-75.584284,39.282837],[-75.584272,39.28283],[-75.584258,39.282823],[-75.584246,39.282818],[-75.584235,39.282809],[-75.584224,39.282801],[-75.584212,39.282792],[-75.5842,39.282785],[-75.584189,39.282776],[-75.584178,39.282772],[-75.584169,39.282766],[-75.584158,39.282759],[-75.584149,39.282748],[-75.584137,39.282745],[-75.584124,39.282737],[-75.584113,39.282731],[-75.584101,39.282723],[-75.58409,39.282717],[-75.584077,39.282711],[-75.584065,39.282703],[-75.584053,39.282697],[-75.58404,39.282693],[-75.584027,39.282686],[-75.584015,39.28268],[-75.584004,39.282673],[-75.583995,39.282664],[-75.583989,39.282653],[-75.583979,39.282645],[-75.583969,39.28264],[-75.583956,39.282636],[-75.583939,39.28263],[-75.583931,39.282625],[-75.583922,39.28262],[-75.58391,39.282612],[-75.583897,39.282604],[-75.583888,39.282598],[-75.583875,39.282593],[-75.58386,39.282587],[-75.583847,39.28258],[-75.583837,39.282572],[-75.583834,39.282567],[-75.583824,39.282556],[-75.583816,39.282546],[-75.583804,39.282541],[-75.583788,39.282533],[-75.583778,39.282528],[-75.583767,39.282522],[-75.583755,39.282514],[-75.583746,39.282506],[-75.583735,39.282499],[-75.583723,39.282489],[-75.583713,39.282482],[-75.583703,39.282476],[-75.583687,39.282469],[-75.583673,39.282461],[-75.583663,39.282454],[-75.583652,39.282446],[-75.583638,39.282439],[-75.583627,39.282433],[-75.58362,39.282427],[-75.583609,39.28242],[-75.583595,39.282411],[-75.583583,39.282405],[-75.583573,39.2824],[-75.583558,39.282392],[-75.583545,39.282384],[-75.583535,39.282375],[-75.583527,39.28237],[-75.583514,39.282363],[-75.583502,39.282356],[-75.58349,39.282349],[-75.583478,39.282342],[-75.583467,39.282336],[-75.583455,39.282328],[-75.583444,39.282317],[-75.583433,39.282309],[-75.583424,39.282301],[-75.583412,39.282291],[-75.5834,39.282284],[-75.583388,39.28228],[-75.583379,39.282272],[-75.583367,39.282266],[-75.583354,39.28226],[-75.583342,39.282253],[-75.58333,39.282246],[-75.583319,39.282239],[-75.583308,39.282234],[-75.583296,39.282229],[-75.583286,39.282221],[-75.583276,39.282212],[-75.583266,39.282204],[-75.583259,39.282199],[-75.58325,39.28219],[-75.583239,39.282181],[-75.583227,39.282176],[-75.583213,39.28217],[-75.583202,39.282166],[-75.583189,39.282157],[-75.583178,39.282149],[-75.583169,39.282144],[-75.583157,39.282138],[-75.583144,39.282131],[-75.583133,39.282125],[-75.583125,39.282119],[-75.583114,39.282115],[-75.583101,39.282109],[-75.583094,39.282104],[-75.583081,39.282094],[-75.583069,39.282084],[-75.583059,39.282077],[-75.583049,39.282069],[-75.583037,39.282058],[-75.583025,39.282052],[-75.583007,39.282041],[-75.582992,39.282034],[-75.58298,39.282027],[-75.582971,39.282023],[-75.58296,39.282016],[-75.582948,39.282008],[-75.582936,39.282002],[-75.582924,39.281995],[-75.582912,39.281987],[-75.582892,39.281971],[-75.582885,39.281963],[-75.582872,39.281955],[-75.582853,39.281947],[-75.582841,39.281938],[-75.582828,39.28193],[-75.582817,39.281924],[-75.582808,39.281918],[-75.582799,39.28191],[-75.582785,39.281902],[-75.582775,39.281894],[-75.582763,39.281885],[-75.582754,39.281883],[-75.582736,39.281875],[-75.582722,39.281867],[-75.58271,39.281861],[-75.582697,39.281854],[-75.582687,39.281847],[-75.582675,39.281839],[-75.582665,39.281833],[-75.582654,39.281828],[-75.582642,39.281821],[-75.58263,39.281812],[-75.582618,39.281804],[-75.582605,39.281796],[-75.582593,39.281786],[-75.58258,39.281777],[-75.582565,39.281772],[-75.582554,39.281767],[-75.58254,39.281759],[-75.582528,39.28175],[-75.582514,39.281743],[-75.582504,39.281734],[-75.582492,39.281723],[-75.582479,39.281716],[-75.582471,39.28171],[-75.582461,39.281706],[-75.582448,39.281702],[-75.582436,39.281698],[-75.582422,39.28169],[-75.582408,39.281681],[-75.5824,39.281674],[-75.58239,39.281662],[-75.582378,39.281656],[-75.582363,39.281645],[-75.582353,39.281636],[-75.58234,39.281625],[-75.582327,39.281618],[-75.582315,39.281609],[-75.582304,39.2816],[-75.582293,39.281591],[-75.58228,39.281585],[-75.582265,39.281577],[-75.582251,39.281569],[-75.582238,39.281561],[-75.582224,39.281552],[-75.582212,39.281542],[-75.582199,39.281533],[-75.582185,39.281524],[-75.58217,39.281515],[-75.582157,39.281507],[-75.582148,39.2815],[-75.582147,39.281496],[-75.582136,39.281489],[-75.582123,39.281481],[-75.582107,39.281471],[-75.582092,39.281465],[-75.582077,39.281458],[-75.582064,39.281449],[-75.582052,39.28144],[-75.582037,39.281431],[-75.582023,39.281423],[-75.58201,39.281414],[-75.581996,39.281407],[-75.581981,39.281401],[-75.581967,39.281392],[-75.581954,39.281382],[-75.58194,39.281374],[-75.581928,39.281365],[-75.581914,39.281358],[-75.581899,39.28135],[-75.581885,39.281343],[-75.581874,39.281332],[-75.581863,39.281322],[-75.581851,39.281313],[-75.581835,39.281308],[-75.58182,39.281301],[-75.581807,39.281293],[-75.581793,39.281284],[-75.581781,39.281275],[-75.581768,39.281268],[-75.581755,39.281259],[-75.581744,39.28125],[-75.581728,39.281245],[-75.581715,39.281237],[-75.581703,39.281228],[-75.58169,39.28122],[-75.581676,39.281215],[-75.581665,39.281206],[-75.581652,39.281196],[-75.581637,39.28119],[-75.581625,39.281184],[-75.58161,39.281178],[-75.581596,39.281171],[-75.581585,39.28116],[-75.581571,39.281153],[-75.58156,39.281143],[-75.581548,39.281134],[-75.581536,39.281124],[-75.581524,39.281116],[-75.58151,39.281109],[-75.581498,39.281101],[-75.581485,39.281095],[-75.581474,39.281086],[-75.58146,39.281079],[-75.581448,39.281071],[-75.581437,39.281065],[-75.581425,39.281056],[-75.581411,39.281048],[-75.581401,39.281037],[-75.581389,39.281029],[-75.581375,39.281022],[-75.581365,39.281014],[-75.581343,39.280998],[-75.581332,39.280991],[-75.581322,39.280982],[-75.581307,39.280977],[-75.581297,39.280967],[-75.581281,39.280961],[-75.581266,39.280955],[-75.581256,39.280947],[-75.581246,39.28094],[-75.581235,39.280932],[-75.581223,39.280924],[-75.581212,39.280915],[-75.581201,39.280905],[-75.58119,39.280896],[-75.581177,39.280889],[-75.581164,39.280884],[-75.581152,39.280876],[-75.581141,39.280868],[-75.581129,39.28086],[-75.581117,39.280852],[-75.581105,39.280846],[-75.581094,39.280837],[-75.581079,39.280832],[-75.581065,39.28083],[-75.581053,39.280822],[-75.581039,39.280818],[-75.581027,39.280809],[-75.581016,39.280798],[-75.581007,39.280789],[-75.580995,39.280782],[-75.580983,39.280775],[-75.580971,39.28077],[-75.580962,39.280761],[-75.580953,39.280755],[-75.580943,39.280746],[-75.580927,39.280744],[-75.580916,39.280738],[-75.580906,39.280729],[-75.580895,39.280724],[-75.580887,39.280721],[-75.580876,39.280708],[-75.580868,39.280698],[-75.580853,39.280692],[-75.580841,39.280688],[-75.580826,39.280681],[-75.580815,39.280672],[-75.580804,39.280665],[-75.580789,39.280658],[-75.580777,39.280649],[-75.580766,39.280639],[-75.580753,39.280635],[-75.580741,39.280629],[-75.58073,39.280626],[-75.580716,39.280617],[-75.580703,39.280605],[-75.580692,39.280595],[-75.58068,39.280586],[-75.580663,39.280579],[-75.58065,39.28057],[-75.58064,39.280561],[-75.580628,39.280554],[-75.580617,39.280545],[-75.580605,39.280538],[-75.580593,39.280529],[-75.580581,39.28052],[-75.580567,39.280512],[-75.580554,39.280504],[-75.580541,39.280495],[-75.58053,39.280486],[-75.580518,39.280479],[-75.580503,39.280472],[-75.58049,39.280465],[-75.580477,39.280457],[-75.580464,39.280447],[-75.58045,39.28044],[-75.580437,39.280432],[-75.580426,39.280423],[-75.580418,39.280415],[-75.580407,39.280409],[-75.580395,39.280399],[-75.580389,39.28039],[-75.580377,39.280382],[-75.580365,39.280373],[-75.580351,39.280367],[-75.58034,39.280362],[-75.580325,39.280354],[-75.580313,39.280345],[-75.5803,39.280337],[-75.580291,39.280327],[-75.58028,39.280317],[-75.580267,39.280308],[-75.580255,39.280298],[-75.580244,39.28029],[-75.580235,39.28028],[-75.580228,39.280268],[-75.580223,39.280256],[-75.580227,39.280241],[-75.58023,39.280229],[-75.580231,39.280219],[-75.580235,39.28021],[-75.58024,39.280198],[-75.580244,39.280186],[-75.580251,39.280175],[-75.580255,39.280165],[-75.580256,39.280154],[-75.580263,39.280142],[-75.580264,39.280118],[-75.580266,39.280107],[-75.580268,39.280096],[-75.580271,39.280085],[-75.580274,39.280072],[-75.580279,39.280061],[-75.580283,39.280051],[-75.580288,39.280039],[-75.580295,39.280029999999996],[-75.580305,39.28002],[-75.580316,39.280008],[-75.580329,39.279997],[-75.580338,39.279986],[-75.580345,39.279974],[-75.580357,39.279965],[-75.580369,39.279955],[-75.58038,39.279946],[-75.580392,39.279936],[-75.580404,39.279926],[-75.580418,39.279919],[-75.580431,39.27991],[-75.580446,39.279903],[-75.580457,39.279893],[-75.580469,39.279884],[-75.580481,39.279875],[-75.580492,39.279866],[-75.580501,39.279855],[-75.580512,39.279845],[-75.580523,39.279834],[-75.580535,39.279826],[-75.580545,39.279816],[-75.580556,39.279807],[-75.580565,39.279796],[-75.58058,39.279788],[-75.580594,39.279781],[-75.580607,39.279771],[-75.580618,39.279761],[-75.58063,39.279751],[-75.580642,39.279742],[-75.580655,39.279735],[-75.580668,39.279727],[-75.580682,39.279721],[-75.580693,39.279712],[-75.580703,39.2797],[-75.580714,39.27969],[-75.580727,39.27968],[-75.580741,39.279672],[-75.580754,39.279663],[-75.580767,39.279657],[-75.580778,39.27965],[-75.580789,39.279641],[-75.580799,39.279632],[-75.58081,39.279625],[-75.580822,39.279618],[-75.580832,39.27961],[-75.580843,39.279604],[-75.580856,39.279598],[-75.580869,39.279596],[-75.580879,39.279596],[-75.580893,39.279593],[-75.580903,39.279587],[-75.580912,39.279581],[-75.580927,39.279572],[-75.580939,39.279567],[-75.580958,39.279562],[-75.580974,39.279556],[-75.580989,39.27955],[-75.581005,39.279546],[-75.58102,39.279542],[-75.581035,39.279538],[-75.581052,39.279535],[-75.581067,39.27953],[-75.581082,39.279527],[-75.581098,39.279522],[-75.581117,39.279522],[-75.581134,39.27952],[-75.581152,39.279518],[-75.581168,39.279519],[-75.581183,39.279516],[-75.581198,39.279514],[-75.581214,39.27951],[-75.581228,39.279505],[-75.58124,39.279501],[-75.58125,39.279499],[-75.581264,39.279497],[-75.581282,39.279494],[-75.581295,39.27949],[-75.581307,39.279487],[-75.581318,39.279484],[-75.581335,39.279481],[-75.581348,39.279478],[-75.581361,39.279474],[-75.581374,39.279471],[-75.581389,39.279467],[-75.581407,39.279465],[-75.581421,39.279465],[-75.581439,39.279465],[-75.581454,39.279464],[-75.581464,39.279458],[-75.581478,39.279454],[-75.581494,39.27945],[-75.581503,39.279445],[-75.581516,39.279437],[-75.581535,39.279435],[-75.581546,39.279434],[-75.581559,39.279432],[-75.581571,39.27943],[-75.581588,39.279429],[-75.581605,39.279428],[-75.58162,39.279424],[-75.581634,39.279421],[-75.58165,39.279418],[-75.581665,39.279414],[-75.581683,39.279413],[-75.581698,39.279411],[-75.581715,39.27941],[-75.581731,39.279405],[-75.581743,39.279403],[-75.581758,39.279402],[-75.581772,39.279404],[-75.581787,39.279404],[-75.581797,39.279401],[-75.581808,39.279398],[-75.58182,39.279394],[-75.581833,39.279389],[-75.581849,39.27939],[-75.581867,39.279387],[-75.581882,39.279383],[-75.581898,39.279379],[-75.581914,39.279373],[-75.581925,39.279368],[-75.581936,39.279365],[-75.58195,39.279363],[-75.581965,39.27936],[-75.581996,39.279355],[-75.582011,39.279352],[-75.582027,39.279348],[-75.582041,39.279343],[-75.582057,39.279338],[-75.582071,39.279337],[-75.582086,39.279337],[-75.582098,39.279334],[-75.58211,39.279331],[-75.582122,39.279325],[-75.582136,39.279318],[-75.582146,39.279313],[-75.582156,39.279308],[-75.582173,39.279301],[-75.582189,39.279294],[-75.582201,39.279288],[-75.582214,39.27928],[-75.582226,39.279274],[-75.582242,39.279269],[-75.582255,39.279263],[-75.582268,39.279259],[-75.582281,39.279255],[-75.582291,39.27925],[-75.582306,39.279242],[-75.58232,39.279233],[-75.582336,39.279226],[-75.582347,39.279219],[-75.582357,39.279212],[-75.582366,39.279205],[-75.582382,39.279195],[-75.582394,39.279187],[-75.582405,39.279186],[-75.582415,39.279184],[-75.582435,39.279176],[-75.582448,39.279171],[-75.582458,39.279166],[-75.582466,39.279161],[-75.582472,39.279146],[-75.58248,39.279135],[-75.582493,39.279125],[-75.5825,39.279124],[-75.582517,39.279117],[-75.582529,39.279111],[-75.582544,39.279108],[-75.582564,39.279094],[-75.582577,39.279088],[-75.582595,39.279088],[-75.582609,39.279089],[-75.582623,39.279094],[-75.582642,39.279096],[-75.582653,39.279099],[-75.582669,39.279105],[-75.582683,39.279111],[-75.582695,39.279119],[-75.582703,39.279124],[-75.582716,39.279129],[-75.582729,39.279138],[-75.582742,39.279151],[-75.582754,39.279154],[-75.582766,39.279158],[-75.582775,39.279159],[-75.582782,39.279162],[-75.582795,39.279167],[-75.582806,39.279174],[-75.582815,39.279182],[-75.582826,39.27919],[-75.582837,39.279199],[-75.582848,39.279207],[-75.582858,39.279212],[-75.582869,39.279219],[-75.582882,39.27923],[-75.582895,39.279237],[-75.582907,39.279242],[-75.58292,39.279255],[-75.582929,39.279266],[-75.582941,39.279278],[-75.582956,39.279286],[-75.58297,39.279292],[-75.582982,39.279301],[-75.582997,39.279307],[-75.583011,39.279315],[-75.583027,39.279316],[-75.583042,39.279316],[-75.583056,39.279317],[-75.583072,39.279321],[-75.583086,39.279323],[-75.5831,39.279323],[-75.583113,39.279324],[-75.583124,39.279327],[-75.583139,39.279326],[-75.583155,39.279325],[-75.583169,39.279326],[-75.583182,39.279328],[-75.583191,39.279325],[-75.583204,39.27932],[-75.583217,39.279321],[-75.583229,39.279322],[-75.583245,39.27932],[-75.583268,39.279318],[-75.583282,39.279318],[-75.583295,39.279321],[-75.583307,39.279326],[-75.583318,39.279332],[-75.583334,39.279337],[-75.583348,39.279342],[-75.583361,39.279345],[-75.583377,39.279348],[-75.58339,39.279349],[-75.583407,39.27935],[-75.583421,39.279355],[-75.583433,39.279365],[-75.583443,39.279371],[-75.583458,39.279379],[-75.583473,39.279385],[-75.583486,39.279391],[-75.5835,39.279395],[-75.583514,39.2794],[-75.583527,39.279409],[-75.583541,39.279417],[-75.583555,39.279423],[-75.583568,39.279429],[-75.583582,39.279437],[-75.583594,39.279446],[-75.583605,39.279454],[-75.583618,39.279462],[-75.583632,39.279467],[-75.583646,39.27947],[-75.58366,39.279473],[-75.583672,39.279481],[-75.583686,39.279489],[-75.5837,39.279494],[-75.583727,39.279502],[-75.583741,39.279508],[-75.583752,39.279516],[-75.583764,39.279522],[-75.583772,39.279529],[-75.583783,39.279536],[-75.583793,39.279541],[-75.583805,39.279547],[-75.583814,39.279553],[-75.583827,39.279561],[-75.583838,39.279568],[-75.583848,39.279575],[-75.583855,39.279582],[-75.583864,39.27959],[-75.583876,39.279597],[-75.583889,39.279605],[-75.583905,39.279613],[-75.583914,39.279616],[-75.58392,39.279623],[-75.583935,39.279632],[-75.583943,39.279638],[-75.583959,39.279644],[-75.583973,39.279652],[-75.58399,39.27966],[-75.584003,39.279666],[-75.584015,39.279672],[-75.58403,39.279676],[-75.584046,39.279678],[-75.58406,39.279682],[-75.58407,39.279686],[-75.584082,39.279692],[-75.584086,39.279693],[-75.584085,39.279695],[-75.584084,39.279693],[-75.584089,39.279694],[-75.584106,39.279698],[-75.584126,39.279707],[-75.584137,39.279715],[-75.584146,39.27972],[-75.58415,39.279721],[-75.584157,39.279722],[-75.584164,39.279723],[-75.584173,39.279728],[-75.584184,39.279734],[-75.5842,39.279749],[-75.584213,39.279757],[-75.584225,39.279759],[-75.584241,39.279763],[-75.58426,39.27977],[-75.584274,39.279777],[-75.584288,39.279783],[-75.584304,39.279789],[-75.584316,39.279794],[-75.58433,39.279801],[-75.584345,39.279809],[-75.584356,39.279815],[-75.584368,39.279822],[-75.584385,39.27983],[-75.584399,39.279835],[-75.584411,39.279842],[-75.584424,39.279846],[-75.584436,39.279851],[-75.584454,39.279857],[-75.584466,39.279861],[-75.584481,39.279866],[-75.584499,39.279872],[-75.584515,39.279875],[-75.584531,39.279882],[-75.584544,39.279887],[-75.58456,39.279892],[-75.584575,39.279896],[-75.58459,39.279904],[-75.584607,39.279911],[-75.584621,39.279917],[-75.584636,39.279924],[-75.58465,39.279931],[-75.584662,39.279935],[-75.584675,39.279938],[-75.584694,39.279942],[-75.584708,39.279947],[-75.584723,39.279952],[-75.584735,39.279956],[-75.584752,39.279958],[-75.584765,39.279959],[-75.584783,39.279963],[-75.5848,39.279965],[-75.584814,39.27997],[-75.584826,39.279974],[-75.584859,39.279979],[-75.584873,39.279979],[-75.584889,39.279982],[-75.584909,39.279986],[-75.584927,39.27999],[-75.584947,39.279993],[-75.584967,39.279994],[-75.584983,39.279997],[-75.584998,39.280002],[-75.58501,39.280008],[-75.58502,39.280008],[-75.58503,39.280016],[-75.58504,39.280019],[-75.585053,39.280021],[-75.58507,39.280028],[-75.585082,39.280037],[-75.585093,39.280044],[-75.585105,39.280051],[-75.585119,39.280055],[-75.585132,39.280062],[-75.585147,39.280066],[-75.58516,39.280073],[-75.585172,39.28008],[-75.585184,39.280087],[-75.585198,39.280094],[-75.585211,39.280101],[-75.585223,39.280108],[-75.585236,39.280112],[-75.585249,39.280116],[-75.585265,39.280123],[-75.58528,39.280127],[-75.585292,39.280132],[-75.585306,39.280138],[-75.585321,39.280142],[-75.585334,39.280149],[-75.585347,39.280157],[-75.58536,39.280162],[-75.585376,39.280166],[-75.58539,39.28017],[-75.585403,39.280177],[-75.585415,39.280186],[-75.585428,39.280195],[-75.585439,39.280202],[-75.585456,39.280208],[-75.585467,39.280214],[-75.585481,39.280222],[-75.585497,39.280229],[-75.585512,39.280233],[-75.585527,39.280239],[-75.585541,39.280247],[-75.585553,39.280254],[-75.585567,39.28026],[-75.585583,39.280266],[-75.585598,39.280271],[-75.585614,39.280275],[-75.585627,39.280282],[-75.585641,39.280289],[-75.585653,39.280295],[-75.585667,39.2803],[-75.585681,39.280307],[-75.585695,39.280313],[-75.585709,39.280318],[-75.585724,39.280325],[-75.585737,39.280332],[-75.585751,39.280339],[-75.585765,39.280346],[-75.585777,39.280353],[-75.585786,39.280361],[-75.585794,39.280371],[-75.5858,39.28038],[-75.585804,39.280394],[-75.585806,39.280406],[-75.585805,39.280419],[-75.585805,39.280433],[-75.585804,39.280446],[-75.585799,39.280457],[-75.585792,39.280466],[-75.585789,39.280478],[-75.585782,39.280488],[-75.585776,39.280499],[-75.585771,39.280511],[-75.585767,39.280522],[-75.585762,39.280531],[-75.585752,39.280548],[-75.585745,39.280561],[-75.585734,39.280572],[-75.585726,39.280583],[-75.585719,39.280595],[-75.585712,39.280607],[-75.585707,39.280619],[-75.585703,39.280632],[-75.585697,39.280643],[-75.585692,39.280655],[-75.585685,39.280666],[-75.585676,39.280677],[-75.585668,39.280688],[-75.585659,39.2807],[-75.585653,39.280712],[-75.585645,39.280723],[-75.585636,39.280735],[-75.585627,39.280745],[-75.585619,39.280757],[-75.585615,39.280769],[-75.58561,39.280781],[-75.585606,39.280789],[-75.585603,39.280795],[-75.585603,39.2808],[-75.585604,39.280798],[-75.585603,39.280802],[-75.585603,39.280802],[-75.585604,39.2808],[-75.585604,39.280799],[-75.585601,39.280796],[-75.5856,39.280796],[-75.585599,39.280795],[-75.585597,39.280795],[-75.585595,39.280797],[-75.585596,39.280802],[-75.585595,39.280811],[-75.585593,39.280829],[-75.585588,39.280838],[-75.585579,39.280849],[-75.585565,39.280856],[-75.585553,39.280869],[-75.585544,39.280885],[-75.585538,39.280898],[-75.585534,39.280908],[-75.585532,39.28092],[-75.585524,39.280929],[-75.585513,39.280938],[-75.585507,39.28095],[-75.585502,39.280961],[-75.585489,39.280971],[-75.58548,39.280981],[-75.585469,39.280996],[-75.585465,39.281009],[-75.585457,39.281023],[-75.585449,39.281038],[-75.585444,39.281052],[-75.585439,39.281067],[-75.585431,39.281081],[-75.585421,39.281092],[-75.585411,39.281101],[-75.585405,39.281109],[-75.585401,39.28112],[-75.585396,39.281131],[-75.58539,39.281142],[-75.585384,39.281151],[-75.585381,39.281161],[-75.585377,39.281173],[-75.585371,39.281184],[-75.585367,39.281192],[-75.585361,39.281201],[-75.585355,39.281212],[-75.585346,39.28122],[-75.585332,39.28123],[-75.58532,39.281243],[-75.585314,39.281255],[-75.585308,39.281267],[-75.585302,39.281279],[-75.585292,39.281288],[-75.585282,39.281298],[-75.585279,39.28131],[-75.585273,39.281323],[-75.585271,39.281334],[-75.585263,39.281345],[-75.585256,39.281356],[-75.585247,39.281369],[-75.58524,39.281379],[-75.585235,39.281392],[-75.585229,39.281403],[-75.585224,39.281411],[-75.58522,39.281419],[-75.585216,39.281429],[-75.58521,39.281445],[-75.585205,39.281458],[-75.585197,39.281469],[-75.58519,39.281479],[-75.585189,39.281488],[-75.585185,39.281503],[-75.585177,39.281516],[-75.58517,39.281529],[-75.585166,39.281542],[-75.585163,39.281555],[-75.585161,39.281567],[-75.58516,39.281574],[-75.585161,39.28158],[-75.585162,39.281586],[-75.585154,39.281598],[-75.585148,39.281609],[-75.585146,39.281619],[-75.585143,39.281628],[-75.585137,39.281641],[-75.585133,39.281655],[-75.585131,39.281668],[-75.585128,39.28168],[-75.585122,39.281692],[-75.585117,39.281706],[-75.585113,39.281718],[-75.58511,39.281732],[-75.585108,39.281744],[-75.585105,39.281756],[-75.5851,39.281768],[-75.585098,39.281782],[-75.585097,39.281794],[-75.585096,39.281807],[-75.585097,39.281819],[-75.585098,39.281829],[-75.585098,39.28184],[-75.585093,39.28185],[-75.585087,39.281862],[-75.585083,39.281873],[-75.585079,39.281887],[-75.585079,39.281899],[-75.58508,39.281913],[-75.585081,39.281924],[-75.58508,39.281937],[-75.585077,39.28195],[-75.585075,39.281962],[-75.585079,39.281974],[-75.585084,39.281985],[-75.585081,39.281995],[-75.58508,39.282008],[-75.585079,39.282023],[-75.585076,39.282039],[-75.585076,39.282052],[-75.585075,39.282064],[-75.585077,39.282079],[-75.585078,39.282091],[-75.585079,39.282104],[-75.585081,39.282116],[-75.585081,39.28213],[-75.585083,39.282144],[-75.585086,39.282158],[-75.585086,39.282171],[-75.585085,39.282185],[-75.585088,39.282199],[-75.585092,39.282213],[-75.585097,39.282226],[-75.585098,39.282239],[-75.585101,39.282252],[-75.585105,39.282265],[-75.585107,39.282279],[-75.585107,39.282293],[-75.585108,39.282305],[-75.585113,39.282318],[-75.585119,39.282331],[-75.585123,39.282344],[-75.585127,39.282357],[-75.585129,39.282369],[-75.585127,39.28238],[-75.58513,39.282391],[-75.58514,39.282401],[-75.585149,39.282414],[-75.585155,39.282426],[-75.585156,39.282441],[-75.58516,39.282452],[-75.585167,39.282464],[-75.585171,39.282475],[-75.585175,39.282486],[-75.585179,39.282497],[-75.585187,39.282506],[-75.585191,39.282518],[-75.585194,39.28253],[-75.585197,39.282544],[-75.585202,39.282557],[-75.585209,39.28257],[-75.585218,39.282583],[-75.585225,39.282597],[-75.585231,39.282611],[-75.585237,39.282624],[-75.585245,39.282636],[-75.585253,39.282645],[-75.585265,39.282651],[-75.585271,39.282661],[-75.585275,39.282673],[-75.585277,39.282686],[-75.585283,39.282698],[-75.58529,39.28271],[-75.585306,39.282733],[-75.585311,39.282745],[-75.585319,39.282757],[-75.585327,39.282767],[-75.585338,39.282777],[-75.585348,39.282787],[-75.585357,39.282797],[-75.58536,39.282807],[-75.58536,39.282813],[-75.585366,39.282822],[-75.585378,39.282834],[-75.58539,39.282841],[-75.585401,39.282853],[-75.585408,39.282868],[-75.585418,39.282879],[-75.585425,39.282891],[-75.585436,39.2829],[-75.585446,39.282909],[-75.585449,39.282918],[-75.58544,39.282911],[-75.585438,39.282919],[-75.585451,39.282929],[-75.585466,39.282936],[-75.585479,39.282942],[-75.585489,39.282952],[-75.5855,39.282962],[-75.585508,39.282972],[-75.585517,39.282981],[-75.585527,39.282991],[-75.585537,39.283],[-75.585547,39.28301],[-75.585557,39.283019],[-75.585565,39.283029],[-75.585571,39.283041],[-75.585582,39.283051],[-75.585594,39.28306],[-75.585605,39.283068],[-75.585613,39.283075],[-75.585621,39.283083],[-75.585633,39.283089],[-75.585647,39.283099],[-75.585658,39.283107],[-75.58567,39.283119],[-75.58568,39.28313],[-75.58569,39.283141],[-75.585703,39.283149],[-75.585712,39.283161],[-75.585726,39.283169],[-75.585739,39.283178],[-75.585751,39.283186],[-75.585764,39.283195],[-75.585777,39.283202],[-75.58579,39.28321],[-75.585804,39.283215],[-75.585815,39.283226],[-75.585826,39.283235],[-75.585838,39.283241],[-75.585847,39.283251],[-75.585863,39.283259],[-75.585875,39.283269],[-75.585889,39.283279],[-75.585902,39.283288],[-75.585918,39.283294],[-75.58593,39.283302],[-75.585942,39.28331],[-75.585957,39.283315],[-75.585971,39.283318],[-75.585983,39.283323],[-75.585991,39.283327],[-75.586,39.283333],[-75.586014,39.283341],[-75.586021,39.283347],[-75.586032,39.283357],[-75.586042,39.283358],[-75.586064,39.283367],[-75.586077,39.283376],[-75.586092,39.283383],[-75.58611,39.283387],[-75.586125,39.283393],[-75.586139,39.283401],[-75.586152,39.283409],[-75.586166,39.283416],[-75.586179,39.283421],[-75.586189,39.283426],[-75.586205,39.283434],[-75.586217,39.283436],[-75.586231,39.283442],[-75.586245,39.283446],[-75.586258,39.283452],[-75.586271,39.283459],[-75.586286,39.283463],[-75.586302,39.283466],[-75.586317,39.283472],[-75.586334,39.283477],[-75.58635,39.28348],[-75.586366,39.283484],[-75.586382,39.28349],[-75.586397,39.283495],[-75.586413,39.283496],[-75.586426,39.283494],[-75.586438,39.283491],[-75.586453,39.283494],[-75.586464,39.283499],[-75.586476,39.283506],[-75.58649,39.283512],[-75.586507,39.283516],[-75.586522,39.283519],[-75.586539,39.283526],[-75.586554,39.283533],[-75.586566,39.283537],[-75.586573,39.283532],[-75.586582,39.283532],[-75.586597,39.283535],[-75.586612,39.283537],[-75.586625,39.283541],[-75.586636,39.28354],[-75.586644,39.283541],[-75.586655,39.283544],[-75.586668,39.283549],[-75.586681,39.283554],[-75.586692,39.283557],[-75.586707,39.283558],[-75.58672,39.283559],[-75.586731,39.28356],[-75.586742,39.283565],[-75.586759,39.283567],[-75.586769,39.283571],[-75.586783,39.283571],[-75.586799,39.283574],[-75.586815,39.283575],[-75.586829,39.283576],[-75.586843,39.283579],[-75.586855,39.283582],[-75.58687,39.283582],[-75.586885,39.283581],[-75.586898,39.283578],[-75.586909,39.283578],[-75.586924,39.283577],[-75.586937,39.283576],[-75.586953,39.283577],[-75.586969,39.283581],[-75.586983,39.283585],[-75.587001,39.283587],[-75.587031,39.283589],[-75.587048,39.283591],[-75.587061,39.283588],[-75.587076,39.283585],[-75.587092,39.283586],[-75.587108,39.28359],[-75.587121,39.28359],[-75.587137,39.28359],[-75.587153,39.283589],[-75.587167,39.283589],[-75.587183,39.283589],[-75.587199,39.283588],[-75.587216,39.283589],[-75.587229,39.283587],[-75.587243,39.283587],[-75.587257,39.283587],[-75.58727,39.283586],[-75.587285,39.283585],[-75.587299,39.283583],[-75.587314,39.283583],[-75.587328,39.283581],[-75.587343,39.283581],[-75.587359,39.283583],[-75.587377,39.283586],[-75.587389,39.283585],[-75.587404,39.283579],[-75.587419,39.283577],[-75.587433,39.283577],[-75.587447,39.283577],[-75.587463,39.283577],[-75.58748,39.283576],[-75.58749,39.283573],[-75.587504,39.28357],[-75.587516,39.283567],[-75.587529,39.283564],[-75.587542,39.283563],[-75.587559,39.283562],[-75.587573,39.283561],[-75.587588,39.283558],[-75.5876,39.283557],[-75.587617,39.283555],[-75.587632,39.283549],[-75.587644,39.283549],[-75.58766,39.283548],[-75.587678,39.283546],[-75.587692,39.283544],[-75.587706,39.283541],[-75.587717,39.283537],[-75.58773,39.283532],[-75.587748,39.283527],[-75.587761,39.283528],[-75.587778,39.283527],[-75.587794,39.283525],[-75.587809,39.283521],[-75.587819,39.283517],[-75.587834,39.283516],[-75.587849,39.283511],[-75.587859,39.283505],[-75.587875,39.2835],[-75.587889,39.283497],[-75.587903,39.283493],[-75.587913,39.283488],[-75.587923,39.283487],[-75.587935,39.283481],[-75.587937,39.283481],[-75.587931,39.283485],[-75.587938,39.283484],[-75.58795,39.28348],[-75.587965,39.28348],[-75.587981,39.283477],[-75.587993,39.283473],[-75.588008,39.283469],[-75.588023,39.283466],[-75.588037,39.283463],[-75.588053,39.28346],[-75.588055,39.283462],[-75.588059,39.283461],[-75.588069,39.283458],[-75.588085,39.283451],[-75.588105,39.283445],[-75.588121,39.283443],[-75.588134,39.283447],[-75.588153,39.283441],[-75.588168,39.283436],[-75.588184,39.283433],[-75.588194,39.283431],[-75.588205,39.283424],[-75.588224,39.283418],[-75.588242,39.283416],[-75.588256,39.283416],[-75.588268,39.283414],[-75.588281,39.283407],[-75.588293,39.283401],[-75.58831,39.283397],[-75.588328,39.283395],[-75.588341,39.283393],[-75.588359,39.28339],[-75.588376,39.283389],[-75.588392,39.283386],[-75.588409,39.283384],[-75.588423,39.283379],[-75.588437,39.283374],[-75.588451,39.28337],[-75.58847,39.283366],[-75.588488,39.28336],[-75.588504,39.283357],[-75.588518,39.283349],[-75.588534,39.283342],[-75.588552,39.283337],[-75.588567,39.283331],[-75.588583,39.283328],[-75.588599,39.283325],[-75.588615,39.283324],[-75.588633,39.283324],[-75.58865,39.283322],[-75.588665,39.283318],[-75.588682,39.283315],[-75.588698,39.283313],[-75.588713,39.283308],[-75.588726,39.283303],[-75.588737,39.283301],[-75.588755,39.283298],[-75.588772,39.283296],[-75.588788,39.283294],[-75.588803,39.283292],[-75.58882,39.283292],[-75.588834,39.28329],[-75.588848,39.283289],[-75.588863,39.28329],[-75.588878,39.283292],[-75.588891,39.283292],[-75.588903,39.283292],[-75.588917,39.283292],[-75.58893,39.283289],[-75.588943,39.283289],[-75.588961,39.283287],[-75.588972,39.283287],[-75.588981,39.283288],[-75.58899,39.283292],[-75.589002,39.283301],[-75.589021,39.283312],[-75.589035,39.283318],[-75.589051,39.283322],[-75.589059,39.283333],[-75.58907,39.283341],[-75.589082,39.283351],[-75.589094,39.28336],[-75.589105,39.283367],[-75.589115,39.283378],[-75.589124,39.283386],[-75.589135,39.283396],[-75.589145,39.283406],[-75.589155,39.283416],[-75.589168,39.283423],[-75.589181,39.28343],[-75.58919,39.283439],[-75.589196,39.283449],[-75.589204,39.283458],[-75.589217,39.283467],[-75.58923,39.283475],[-75.589242,39.283486],[-75.589254,39.283494],[-75.589265,39.283504],[-75.589278,39.283513],[-75.589288,39.283523],[-75.589308,39.283542],[-75.589319,39.283552],[-75.589332,39.283559],[-75.589345,39.283566],[-75.589356,39.283577],[-75.589371,39.283583],[-75.589378,39.283592],[-75.58939,39.283602],[-75.5894,39.283611],[-75.58941,39.283622],[-75.58942,39.28363],[-75.589431,39.28364],[-75.589443,39.283648],[-75.589449,39.283653],[-75.58946,39.283664],[-75.589469,39.283679],[-75.589476,39.283689],[-75.589486,39.283698],[-75.5895,39.283705],[-75.589514,39.283712],[-75.589524,39.283721],[-75.589537,39.28373],[-75.589545,39.283742],[-75.589556,39.28375],[-75.589568,39.283758],[-75.589579,39.283764],[-75.589582,39.28376],[-75.589592,39.283771],[-75.589602,39.283784],[-75.589612,39.283798],[-75.589621,39.283811],[-75.589631,39.283821],[-75.58964,39.283832],[-75.58965,39.283843],[-75.589659,39.28385],[-75.589663,39.283861],[-75.589673,39.283871],[-75.589681,39.283885],[-75.589689,39.283897],[-75.589698,39.283909],[-75.589709,39.283918],[-75.589719,39.283929],[-75.589726,39.283941],[-75.589736,39.283951],[-75.589744,39.283949],[-75.589751,39.283954],[-75.589767,39.283981],[-75.589771,39.283996],[-75.589775,39.28401],[-75.589782,39.284022],[-75.589791,39.284033],[-75.589805,39.284043],[-75.589818,39.284052],[-75.589826,39.284062],[-75.589835,39.284073],[-75.589841,39.284086],[-75.58985,39.284098],[-75.589861,39.284108],[-75.589871,39.284117],[-75.58988,39.284126],[-75.589888,39.284137],[-75.589898,39.284147],[-75.589903,39.284159],[-75.589911,39.284169],[-75.589918,39.284176],[-75.589926,39.284187],[-75.589932,39.284198],[-75.58994,39.284207],[-75.589946,39.284218],[-75.589952,39.284231],[-75.589961,39.284241],[-75.58997,39.284252],[-75.58998,39.284262],[-75.589987,39.284273],[-75.59,39.284279],[-75.590011,39.28429],[-75.590017,39.284302],[-75.590025,39.284313],[-75.590031,39.284323],[-75.590038,39.284333],[-75.590047,39.284342],[-75.590056,39.284348],[-75.590066,39.284356],[-75.590075,39.284366],[-75.590081,39.284378],[-75.590084,39.28439],[-75.59009,39.284404],[-75.590099,39.284414],[-75.590109,39.284425],[-75.590118,39.284435],[-75.590123,39.284446],[-75.590127,39.284457],[-75.590135,39.284464],[-75.590142,39.284476],[-75.590148,39.284485],[-75.590156,39.284497],[-75.590164,39.284509],[-75.59017,39.284522],[-75.590172,39.284535],[-75.59018,39.284545],[-75.590191,39.284554],[-75.590205,39.284563],[-75.590213,39.284574],[-75.590224,39.284583],[-75.590232,39.284593],[-75.590238,39.284605],[-75.590243,39.284617],[-75.590251,39.284627],[-75.59026,39.284637],[-75.59027,39.284646],[-75.59028,39.284656],[-75.59029,39.284665],[-75.5903,39.284673],[-75.590304,39.284688],[-75.590312,39.2847],[-75.590324,39.284709],[-75.590333,39.284719],[-75.590339,39.28473],[-75.590347,39.284738],[-75.590353,39.284745],[-75.590356,39.284752],[-75.590362,39.284761],[-75.590369,39.284774],[-75.590373,39.284781],[-75.590375,39.28479],[-75.590373,39.284803],[-75.590374,39.284814],[-75.590376,39.284826],[-75.590376,39.284832],[-75.590377,39.284839],[-75.590377,39.284846],[-75.590379,39.284856],[-75.590379,39.284865],[-75.590384,39.284868],[-75.590386,39.284877],[-75.590385,39.284884],[-75.590384,39.284893],[-75.590379,39.284905],[-75.590373,39.284917],[-75.590374,39.284921],[-75.59037,39.284933],[-75.590367,39.284945],[-75.590363,39.284959],[-75.590358,39.28497],[-75.590354,39.28498],[-75.59035,39.28499],[-75.590348,39.285003],[-75.590342,39.285015],[-75.590335,39.28503],[-75.590328,39.285043],[-75.590321,39.285053],[-75.590314,39.285062],[-75.590302,39.285072],[-75.590295,39.285083],[-75.590288,39.285095],[-75.590276,39.285104],[-75.590266,39.285113],[-75.590256,39.285123],[-75.590249,39.285133],[-75.590245,39.285144],[-75.590238,39.285156],[-75.590231,39.285164],[-75.590227,39.285173],[-75.590219,39.285185],[-75.59022,39.285195],[-75.590216,39.285208],[-75.590209,39.285216],[-75.5902,39.285225],[-75.590193,39.285233],[-75.590189,39.285243],[-75.590186,39.285251],[-75.59018,39.285261],[-75.590174,39.28527],[-75.590168,39.285281],[-75.590162,39.285292],[-75.590154,39.285305],[-75.590138,39.285314],[-75.590127,39.285325],[-75.590122,39.285339],[-75.590112,39.285349],[-75.590099,39.28536],[-75.590091,39.285372],[-75.590081,39.285385],[-75.590075,39.285396],[-75.590072,39.285408],[-75.590059,39.285421],[-75.590052,39.285431],[-75.590041,39.285441],[-75.590029,39.285451],[-75.590018,39.285464],[-75.59001,39.285475],[-75.590006,39.28549],[-75.59,39.2855],[-75.589994,39.285513],[-75.58999,39.285526],[-75.589983,39.285537],[-75.589976,39.28555],[-75.589973,39.285562],[-75.58997,39.285576],[-75.589962,39.285588],[-75.589949,39.285599],[-75.589944,39.285611],[-75.589939,39.285624],[-75.589932,39.285633],[-75.589923,39.285647],[-75.589917,39.28566],[-75.589908,39.285674],[-75.5899,39.285683],[-75.589894,39.285694],[-75.589887,39.285706],[-75.589886,39.285719],[-75.589888,39.285731],[-75.589889,39.285737],[-75.589886,39.285731],[-75.589884,39.285725],[-75.589884,39.285725],[-75.589885,39.285725],[-75.589884,39.285723],[-75.589884,39.285722],[-75.589884,39.28572],[-75.589883,39.285718],[-75.589882,39.285719],[-75.589877,39.285732],[-75.589869,39.285748],[-75.589862,39.285761],[-75.589854,39.285773],[-75.589846,39.285784],[-75.589832,39.285794],[-75.589822,39.285806],[-75.589805,39.28583],[-75.589795,39.285842],[-75.58979,39.285854],[-75.589785,39.285864],[-75.589784,39.285871],[-75.589779,39.285869],[-75.589772,39.285872],[-75.589773,39.285878],[-75.589773,39.285892],[-75.589771,39.285908],[-75.589774,39.28591],[-75.589777,39.285894],[-75.589772,39.285889],[-75.589773,39.285886],[-75.589772,39.285891],[-75.589774,39.285896],[-75.589777,39.285895],[-75.589777,39.285891],[-75.589779,39.285884],[-75.589779,39.28588],[-75.589779,39.28588],[-75.589781,39.285882],[-75.58978,39.285881],[-75.589784,39.285888],[-75.589784,39.285899],[-75.589777,39.285917],[-75.589769,39.285927],[-75.589763,39.285938],[-75.589754,39.28595],[-75.589746,39.285963],[-75.589739,39.285974],[-75.589733,39.285986],[-75.589726,39.285999],[-75.589721,39.286011],[-75.589715,39.286024],[-75.589708,39.286036],[-75.589701,39.286048],[-75.589695,39.28606],[-75.589688,39.286073],[-75.589681,39.286086],[-75.589677,39.2861],[-75.589679,39.286114],[-75.589678,39.286128],[-75.589673,39.28614],[-75.589666,39.286151],[-75.589663,39.286164],[-75.58966,39.286177],[-75.589658,39.28619],[-75.589656,39.286203],[-75.589654,39.286216],[-75.589649,39.286229],[-75.589646,39.286242],[-75.589645,39.286255],[-75.589643,39.286269],[-75.589639,39.286281],[-75.589629,39.286294],[-75.589622,39.286305],[-75.589615,39.286317],[-75.58961,39.28633],[-75.589605,39.286342],[-75.589597,39.286354],[-75.589589,39.286365],[-75.58958,39.286377],[-75.589569,39.286387],[-75.589561,39.286399],[-75.58956,39.286414],[-75.589554,39.286427],[-75.589545,39.286438],[-75.589536,39.286449],[-75.589532,39.28646],[-75.589525,39.286471],[-75.589516,39.286483],[-75.589506,39.286494],[-75.589495,39.286505],[-75.589484,39.286515],[-75.589475,39.286527],[-75.589471,39.28654],[-75.589463,39.286553],[-75.589455,39.286565],[-75.589449,39.286578],[-75.589445,39.286591],[-75.589436,39.286603],[-75.589425,39.286614],[-75.589414,39.286625],[-75.589407,39.286637],[-75.589402,39.286651],[-75.589397,39.286664],[-75.589387,39.286675],[-75.589381,39.286685],[-75.589377,39.286696],[-75.589373,39.286708],[-75.589361,39.286717],[-75.589351,39.286727],[-75.589342,39.286735],[-75.589337,39.286741],[-75.589332,39.286744],[-75.589341,39.28674],[-75.589334,39.286755],[-75.589326,39.286768],[-75.589316,39.286778],[-75.589308,39.286789],[-75.589304,39.286795],[-75.589292,39.286797],[-75.589291,39.286806],[-75.58929,39.286806],[-75.589291,39.286805],[-75.589293,39.286806],[-75.589291,39.28681],[-75.589289,39.286815],[-75.589289,39.286813],[-75.589286,39.286817],[-75.58927,39.286831],[-75.589258,39.286845],[-75.589252,39.286856],[-75.589248,39.286867],[-75.58924,39.286879],[-75.589233,39.28689],[-75.589226,39.2869],[-75.589218,39.286912],[-75.589211,39.286922],[-75.589204,39.286932],[-75.589196,39.286944],[-75.589191,39.286955],[-75.589185,39.286967],[-75.589178,39.286979],[-75.589168,39.286989],[-75.589159,39.287],[-75.589151,39.287013],[-75.589147,39.287024],[-75.589142,39.287036],[-75.589132,39.287047],[-75.589119,39.287058],[-75.589111,39.287068],[-75.589104,39.287079],[-75.589097,39.287091],[-75.589089,39.287103],[-75.58908,39.287115],[-75.589071,39.287124],[-75.589065,39.287138],[-75.589059,39.28715],[-75.589054,39.287162],[-75.589048,39.287172],[-75.58904,39.287184],[-75.58903,39.2872],[-75.589022,39.28721],[-75.589014,39.287221],[-75.589007,39.287232],[-75.589001,39.287244],[-75.588993,39.287257],[-75.588988,39.287268],[-75.588979,39.287279],[-75.58897,39.287287],[-75.588964,39.287297],[-75.588957,39.287309],[-75.588949,39.287319],[-75.588941,39.28733],[-75.588931,39.28734],[-75.588924,39.287351],[-75.588919,39.287363],[-75.588913,39.287374],[-75.588908,39.287386],[-75.588902,39.287396],[-75.588897,39.287405],[-75.588893,39.287414],[-75.588885,39.287423],[-75.588876,39.287434],[-75.58887,39.287443],[-75.588867,39.287451],[-75.588859,39.287462],[-75.58885,39.28747],[-75.588843,39.287479],[-75.588837,39.287488],[-75.588832,39.287497],[-75.588824,39.287511],[-75.588817,39.287521],[-75.58881,39.287534],[-75.588802,39.287546],[-75.588795,39.287557],[-75.588786,39.287567],[-75.588775,39.287577],[-75.588766,39.287587],[-75.588761,39.287599],[-75.588753,39.287612],[-75.588743,39.287622],[-75.588733,39.287634],[-75.588726,39.287646],[-75.58872,39.287658],[-75.588713,39.28767],[-75.588704,39.28768],[-75.588694,39.287689],[-75.588685,39.287701],[-75.588673,39.287711],[-75.588669,39.287719],[-75.588667,39.287732],[-75.588654,39.287748],[-75.588642,39.287758],[-75.588635,39.28777],[-75.588627,39.287782],[-75.588621,39.287792],[-75.588617,39.287805],[-75.58861,39.287816],[-75.588601,39.287826],[-75.588591,39.287836],[-75.588585,39.287846],[-75.58858,39.287857],[-75.588573,39.287867],[-75.588567,39.287874],[-75.588563,39.287884],[-75.588558,39.287893],[-75.588555,39.287901],[-75.58855,39.287909],[-75.588544,39.287917],[-75.588536,39.287927],[-75.588531,39.287937],[-75.588526,39.287946],[-75.588523,39.287948],[-75.588513,39.287958],[-75.588505,39.287968],[-75.588506,39.287977],[-75.588498,39.287986],[-75.588492,39.28799],[-75.588485,39.287995],[-75.588478,39.288001],[-75.588471,39.28801],[-75.588465,39.288019],[-75.588461,39.288026],[-75.588464,39.288028],[-75.588467,39.28803],[-75.58846,39.28804],[-75.588446,39.288054],[-75.588433,39.288066],[-75.588429,39.288082],[-75.588424,39.288094],[-75.588419,39.288109],[-75.588411,39.288118],[-75.588403,39.288129],[-75.588396,39.288137999999996],[-75.588393,39.288148],[-75.588386,39.288161],[-75.588376,39.288173],[-75.588367,39.288182],[-75.588357,39.288194],[-75.588348,39.288203],[-75.58834,39.288216],[-75.588331,39.288226],[-75.588321,39.288239],[-75.588315,39.288249],[-75.588304,39.288263],[-75.588299,39.288276],[-75.588292,39.288288],[-75.588285,39.288298],[-75.588279,39.288304],[-75.588275,39.288314],[-75.588264,39.288323],[-75.588259,39.28833],[-75.588259,39.288338],[-75.588251,39.288348],[-75.588243,39.288355],[-75.588236,39.288362],[-75.58823,39.288367],[-75.588223,39.288373],[-75.588215,39.288383],[-75.588215,39.288389],[-75.588212,39.288398],[-75.588208,39.288406],[-75.588199,39.288416],[-75.588194,39.288426],[-75.588186,39.288437],[-75.588183,39.288445],[-75.588176,39.288455],[-75.588167,39.288466],[-75.58816,39.288476],[-75.588151,39.288487],[-75.588142,39.288496],[-75.588135,39.288508],[-75.588133,39.288518],[-75.588128,39.288528],[-75.588124,39.288535],[-75.588117,39.288543],[-75.588108,39.288554],[-75.588103,39.288562],[-75.588096,39.288568],[-75.588088,39.28858],[-75.588085,39.28859],[-75.58808,39.288599],[-75.588072,39.288608],[-75.588066,39.288617],[-75.58806,39.288627],[-75.588054,39.288635],[-75.588048,39.288644],[-75.588042,39.288653],[-75.588039,39.288663],[-75.588033,39.288674],[-75.588026,39.288684],[-75.588018,39.28869],[-75.588009,39.288697],[-75.588005,39.288708],[-75.588005,39.288721],[-75.588001,39.288732],[-75.587995,39.28874],[-75.587989,39.288749],[-75.587982,39.28876],[-75.587973,39.288768],[-75.587967,39.288775],[-75.587962,39.288782],[-75.587955,39.28879],[-75.587946,39.288804],[-75.587944,39.288814],[-75.587938,39.288824],[-75.587931,39.288833],[-75.587926,39.288845],[-75.587925,39.288853],[-75.587918,39.288858],[-75.587909,39.288865],[-75.587903,39.288876],[-75.587898,39.288883],[-75.58789,39.288893],[-75.587884,39.288901],[-75.587875,39.288909],[-75.587869,39.288922],[-75.587864,39.288934],[-75.587861,39.288942],[-75.587853,39.288952],[-75.587843,39.288959],[-75.587835,39.288966],[-75.587827,39.288977],[-75.587828,39.288991],[-75.58783,39.289003],[-75.587821,39.289011],[-75.587813,39.289016],[-75.587803,39.289026],[-75.587798,39.289035],[-75.587789,39.289046],[-75.587783,39.289054],[-75.587774,39.289065],[-75.587769,39.28907],[-75.587762,39.289079],[-75.587753,39.289087],[-75.587743,39.289097],[-75.587735,39.289106],[-75.587731,39.289118],[-75.58773,39.289129],[-75.587723,39.289138],[-75.587716,39.289148],[-75.587709,39.289154],[-75.587701,39.289165],[-75.587693,39.289175],[-75.587686,39.289185],[-75.58768,39.289196],[-75.58767,39.289205],[-75.587658,39.289217],[-75.587651,39.289227],[-75.587645,39.289235],[-75.587637,39.28925],[-75.587632,39.289261],[-75.587628,39.289271],[-75.587618,39.289281],[-75.58761,39.289292],[-75.587606,39.289301],[-75.587602,39.289311],[-75.587598,39.289321],[-75.587591,39.289332],[-75.587583,39.289341],[-75.587574,39.289349],[-75.587568,39.289359],[-75.587563,39.289369],[-75.587561,39.28938],[-75.587557,39.28939],[-75.587555,39.289397],[-75.587543,39.289406],[-75.587531,39.289414],[-75.587523,39.289422],[-75.587515,39.289429],[-75.587509,39.289439],[-75.587505,39.289449],[-75.587507,39.289456],[-75.587497,39.289463],[-75.587484,39.289474],[-75.587471,39.289483],[-75.587461,39.289494],[-75.587451,39.289502],[-75.587447,39.289512],[-75.58744,39.289522],[-75.587432,39.289531],[-75.587425,39.289542],[-75.587418,39.289551],[-75.587413,39.289559],[-75.587406,39.28957],[-75.587398,39.289582],[-75.587391,39.289592],[-75.587385,39.289604],[-75.587379,39.289613],[-75.587371,39.289624],[-75.587363,39.289633],[-75.587356,39.28964],[-75.587347,39.289649],[-75.587338,39.289661],[-75.587329,39.289671],[-75.587322,39.289682],[-75.58732,39.289691],[-75.587314,39.289703],[-75.587306,39.289716],[-75.587298,39.289725],[-75.587289,39.289738],[-75.587284,39.289747],[-75.587277,39.289755],[-75.587267,39.289765],[-75.587256,39.289772],[-75.587247,39.289779],[-75.58724,39.289789],[-75.587233,39.2898],[-75.587223,39.289802],[-75.587206,39.289809],[-75.587193,39.289812],[-75.587181,39.289813],[-75.587165,39.289812],[-75.587149,39.289809],[-75.587139,39.28981],[-75.587128,39.289809],[-75.587111,39.289807],[-75.587097,39.289804],[-75.587082,39.289799],[-75.587068,39.289797],[-75.587057,39.289795],[-75.587053,39.289795],[-75.587046,39.289795],[-75.587032,39.289793],[-75.587017,39.289792],[-75.587005,39.289791],[-75.586991,39.289789],[-75.58698,39.289784],[-75.586966,39.289779],[-75.586953,39.28978],[-75.586935,39.289778],[-75.58692,39.289772],[-75.586907,39.28977],[-75.586898,39.289768],[-75.586892,39.289769],[-75.586875,39.289767],[-75.586862,39.289765],[-75.586848,39.289763],[-75.586835,39.289761],[-75.58682,39.289758],[-75.586806,39.289756],[-75.586792,39.289754],[-75.586779,39.289756],[-75.586762,39.289751],[-75.586747,39.289745],[-75.586739,39.28974],[-75.586726,39.289737],[-75.586711,39.289735],[-75.586699,39.289736],[-75.586687,39.289736],[-75.586668,39.289735],[-75.586654,39.289732],[-75.586638,39.289729],[-75.586628,39.289727],[-75.586613,39.289723],[-75.586598,39.28972],[-75.586585,39.289719],[-75.586571,39.289718],[-75.586555,39.289715],[-75.586541,39.289712],[-75.586527,39.289711],[-75.586515,39.289709],[-75.586506,39.289711],[-75.586497,39.289709],[-75.586485,39.289706],[-75.586477,39.289705],[-75.586475,39.289707],[-75.586461,39.289706],[-75.586452,39.289703],[-75.586452,39.2897],[-75.586449,39.289696],[-75.586441,39.289693],[-75.586429999999993,39.289687],[-75.586416,39.289684],[-75.5864,39.289683],[-75.586386,39.289681],[-75.586371,39.289677],[-75.586355,39.289674],[-75.586343,39.289672],[-75.586327,39.28967],[-75.586313,39.289668],[-75.586299,39.289667],[-75.586282,39.289665],[-75.586266,39.289662],[-75.586254,39.289663],[-75.586237,39.289661],[-75.586223,39.28966],[-75.586207,39.289661],[-75.586193,39.289664],[-75.586186,39.289672],[-75.586175,39.289684],[-75.586167,39.2897],[-75.586166,39.289713],[-75.586164,39.289722],[-75.586162,39.289726],[-75.586162,39.28973],[-75.586163,39.289731],[-75.586163,39.289735],[-75.586157,39.289743],[-75.586154,39.289748],[-75.586152,39.289754],[-75.58615,39.289762],[-75.586141,39.289772],[-75.586138,39.289781],[-75.58614,39.289791],[-75.586143,39.289802],[-75.586141,39.289815],[-75.58614,39.289827],[-75.586134,39.289834],[-75.586129,39.289844],[-75.586123,39.289857],[-75.586119,39.289868],[-75.586117,39.289877],[-75.586112,39.289887],[-75.586108,39.2899],[-75.586106,39.28991],[-75.5861,39.289922],[-75.586095,39.289935],[-75.586095,39.289947],[-75.586095,39.289957],[-75.586093,39.289969],[-75.586088,39.289979],[-75.586083,39.289989],[-75.586078,39.290001],[-75.586075,39.290014],[-75.586073,39.290025],[-75.58607,39.290034],[-75.586066,39.290044],[-75.586062,39.290055],[-75.586059,39.290065],[-75.586057,39.290072],[-75.586052,39.290085],[-75.586049,39.290096],[-75.586043,39.290105],[-75.586038,39.290115],[-75.586033,39.290125],[-75.586028,39.290135],[-75.586025,39.290145],[-75.586023,39.290155],[-75.586023,39.290167],[-75.586022,39.290178],[-75.586019,39.290189],[-75.586019,39.290201],[-75.586019,39.290212],[-75.586019,39.290223],[-75.586016,39.290235],[-75.586013,39.290246],[-75.586008,39.290255],[-75.586003,39.290265],[-75.585994,39.290277],[-75.585988,39.290287],[-75.585984,39.290297],[-75.585981,39.290307],[-75.585979,39.290318],[-75.585977,39.290332],[-75.585975,39.290339],[-75.585973,39.290348],[-75.585969,39.290358],[-75.585965,39.290367],[-75.585955,39.290375],[-75.585943,39.290383],[-75.585932,39.290387],[-75.585921,39.290391],[-75.585908,39.290391],[-75.585895,39.29039],[-75.585877,39.290385],[-75.585863,39.290379],[-75.585851,39.290376],[-75.585836,39.290374],[-75.58582,39.290373],[-75.585808,39.29037],[-75.585794,39.290368],[-75.585787,39.290367],[-75.585772,39.290365],[-75.585758,39.290366],[-75.585747,39.290363],[-75.585735,39.290361],[-75.585726,39.29036],[-75.585715,39.290355],[-75.585704,39.290349],[-75.58569,39.290346],[-75.585678,39.290345],[-75.585667,39.290344],[-75.585654,39.290341],[-75.58564,39.290337],[-75.585627,39.290334],[-75.585614,39.290331],[-75.5856,39.290328],[-75.585586,39.290325],[-75.585574,39.290323],[-75.58557,39.290325],[-75.58556,39.290325],[-75.585548,39.290323],[-75.585534,39.290318],[-75.585521,39.290313],[-75.58551,39.290309],[-75.585497,39.290306],[-75.585483,39.290302],[-75.58547,39.290299],[-75.585457,39.290296],[-75.585443,39.290294],[-75.58543,39.290291],[-75.585418,39.290285],[-75.585407,39.290282],[-75.585395,39.290277],[-75.585381,39.290274],[-75.585368,39.290272],[-75.585355,39.290269],[-75.585343,39.290267],[-75.585332,39.290263],[-75.58532,39.29026],[-75.585306,39.290255],[-75.585293,39.29025],[-75.585281,39.290244],[-75.585268,39.290238],[-75.585258,39.290233],[-75.585243,39.290227],[-75.585232,39.290224],[-75.58522,39.290221],[-75.585207,39.290219],[-75.585194,39.290216],[-75.585179,39.290211],[-75.585165,39.290208],[-75.585152,39.290205],[-75.585136,39.290202],[-75.585123,39.290199],[-75.585109,39.290193],[-75.585096,39.290187],[-75.585083,39.290182],[-75.585069,39.290178],[-75.585056,39.290175],[-75.585043,39.290169],[-75.585029,39.290162],[-75.585018,39.290156],[-75.585005,39.290152],[-75.584991,39.290148],[-75.584978,39.290145],[-75.584965,39.29014],[-75.584951,39.290134],[-75.584938,39.29013],[-75.584925,39.290125],[-75.584912,39.290121],[-75.584899,39.290116],[-75.584887,39.29011],[-75.584873,39.290104],[-75.58486,39.2901],[-75.584848,39.290093],[-75.584836,39.290087],[-75.584823,39.290083],[-75.58481,39.290078],[-75.584798,39.290072],[-75.584784,39.290066],[-75.584774,39.290061],[-75.584764,39.290058],[-75.584751,39.290052],[-75.584739,39.290046],[-75.584729,39.290041],[-75.58472,39.290038],[-75.584711,39.290037],[-75.584701,39.290035],[-75.584692,39.290031],[-75.584682,39.290027],[-75.584672,39.290021],[-75.584662,39.290017],[-75.584647,39.29001],[-75.584632,39.290003],[-75.58462,39.289997],[-75.584612,39.289995],[-75.584604,39.28999],[-75.584596,39.289985],[-75.584584,39.289981],[-75.584568,39.289978],[-75.584557,39.289973],[-75.584548,39.289969],[-75.584537,39.289963],[-75.584526,39.289957],[-75.584515,39.289953],[-75.584502,39.289948],[-75.584489,39.289943],[-75.584477,39.289937],[-75.584465,39.28993],[-75.584454,39.289924],[-75.584442,39.289919],[-75.584429,39.289912],[-75.584418,39.289906],[-75.584405,39.289899],[-75.584393,39.289894],[-75.584383,39.289887],[-75.584371,39.28988],[-75.584359,39.289873],[-75.584346,39.289869],[-75.584333,39.289864],[-75.584321,39.289857],[-75.584309,39.28985],[-75.5843,39.289842],[-75.584289,39.289836],[-75.584275,39.289831],[-75.58426,39.289826],[-75.58425,39.289823],[-75.584239,39.289815],[-75.584227,39.289807],[-75.584214,39.289801],[-75.58419,39.289788],[-75.584177,39.289781],[-75.584166,39.289775],[-75.584155,39.289768],[-75.584142,39.289761],[-75.58413,39.289756],[-75.584117,39.289752],[-75.584106,39.289744],[-75.584096,39.289734],[-75.584085,39.289727],[-75.584074,39.28972],[-75.584062,39.289711],[-75.584051,39.289703],[-75.58404,39.289696],[-75.584029,39.289688],[-75.584016,39.289684],[-75.584004,39.289679],[-75.583994,39.289672],[-75.583983,39.289662],[-75.583973,39.289654],[-75.583963,39.289647],[-75.583952,39.28964],[-75.583943,39.289632],[-75.583931,39.289623],[-75.583922,39.289616],[-75.58391,39.289607],[-75.583902,39.289598],[-75.583895,39.289592],[-75.583887,39.289587],[-75.58388,39.289584],[-75.583872,39.28958],[-75.583864,39.289574],[-75.583855,39.289567],[-75.583857,39.289564],[-75.583856,39.289563],[-75.583857,39.289563],[-75.583857,39.289564],[-75.583848,39.289558],[-75.583841,39.289558],[-75.583833,39.289557],[-75.583826,39.289553],[-75.583823,39.289547],[-75.583825,39.289547],[-75.583825,39.289549],[-75.583825,39.289549],[-75.583825,39.289549],[-75.583818,39.289545],[-75.583803,39.289537],[-75.583787,39.289526],[-75.583779,39.289515],[-75.583772,39.289506],[-75.583764,39.289495],[-75.583755,39.289486],[-75.583742,39.289476],[-75.583731,39.289468],[-75.583718,39.289461],[-75.583708,39.289453],[-75.5837,39.28945],[-75.583694,39.289447],[-75.583685,39.28944],[-75.583673,39.28943],[-75.583663,39.289423],[-75.583652,39.289417],[-75.583639,39.289412],[-75.583635,39.289407],[-75.583636,39.289404],[-75.583631,39.289404],[-75.583621,39.289404],[-75.583621,39.289407],[-75.583624,39.289407],[-75.583618,39.289401],[-75.583617,39.28939],[-75.583603,39.289384],[-75.583596,39.289383],[-75.583587,39.289377],[-75.583577,39.28937],[-75.583568,39.289364],[-75.58356,39.289359],[-75.583553,39.289355],[-75.583542,39.289349],[-75.583535,39.289341],[-75.583525,39.289332],[-75.583519,39.289322],[-75.583509,39.289314],[-75.583497,39.289307],[-75.583486,39.289301],[-75.583475,39.289292],[-75.583467,39.289282],[-75.583458,39.289273],[-75.58345,39.289264],[-75.583439,39.289254],[-75.583428,39.289244],[-75.583421,39.289238],[-75.583411,39.289229],[-75.583404,39.289219],[-75.583395,39.289209],[-75.583387,39.2892],[-75.583376,39.289192],[-75.583365,39.289185],[-75.583354,39.289179],[-75.583343,39.289172],[-75.583332,39.289166],[-75.583323,39.289158],[-75.583314,39.28915],[-75.583307,39.289142],[-75.5833,39.289135],[-75.583293,39.289126],[-75.583285,39.289119],[-75.583276,39.28911],[-75.58327,39.289103],[-75.583265,39.289099],[-75.583264,39.289101],[-75.583259,39.289096],[-75.583254,39.289089],[-75.58325,39.289086],[-75.583253,39.289089],[-75.583254,39.28909],[-75.583254,39.289089],[-75.583253,39.289089],[-75.583253,39.28909],[-75.583246,39.289085],[-75.583239,39.28908],[-75.583233,39.289073],[-75.583223,39.289068],[-75.583216,39.289062],[-75.583211,39.289055],[-75.583208,39.289048],[-75.583206,39.289043],[-75.58321,39.289043],[-75.583211,39.289044],[-75.583209,39.289044],[-75.583209,39.289046],[-75.583208,39.289044],[-75.583209,39.289043],[-75.58321,39.289044],[-75.583209,39.289044],[-75.583209,39.289044],[-75.583209,39.289045],[-75.583209,39.289045],[-75.583209,39.289045],[-75.583207,39.289043],[-75.583201,39.289036],[-75.583196,39.28903],[-75.583191,39.28902],[-75.583191,39.289012],[-75.583193,39.289004],[-75.583196,39.288998],[-75.583202,39.288991],[-75.583211,39.288983],[-75.583227,39.288977],[-75.583237,39.288972],[-75.583248,39.288967],[-75.583258,39.288963],[-75.583261,39.28896],[-75.583267,39.288955],[-75.583276,39.288948],[-75.583286,39.288939],[-75.583295,39.288932],[-75.583305,39.288924],[-75.583316,39.288916],[-75.583329,39.288907],[-75.583341,39.288899],[-75.583357,39.288891],[-75.583365,39.288881],[-75.58337,39.288872],[-75.583382,39.288864],[-75.583394,39.288857],[-75.583406,39.288851],[-75.583418,39.28884],[-75.583428,39.28883],[-75.583437,39.28882],[-75.58345,39.288811],[-75.583463,39.288804],[-75.583474,39.288796],[-75.583485,39.288787],[-75.583494,39.288778],[-75.583505,39.288768],[-75.583516,39.288758],[-75.583529,39.28875],[-75.583541,39.28874],[-75.583549,39.28873],[-75.583558,39.288721],[-75.583569,39.288713],[-75.583583,39.288706],[-75.583592,39.2887],[-75.583604,39.288692],[-75.583617,39.288679],[-75.583628,39.288669],[-75.58364,39.288659],[-75.583648,39.288648],[-75.583659,39.288639],[-75.583666,39.28863],[-75.583678,39.288626],[-75.583691,39.288621],[-75.583703,39.288614],[-75.583714,39.288605],[-75.583723,39.288598],[-75.583734,39.288589],[-75.583745,39.288582],[-75.583753,39.288573],[-75.583763,39.288567],[-75.583777,39.288558],[-75.583789,39.28855],[-75.583799,39.288541],[-75.583802,39.288533],[-75.583803,39.288533],[-75.583804,39.288534],[-75.583803,39.288533],[-75.583809,39.28853],[-75.583818,39.288525],[-75.583829,39.288516],[-75.583836,39.288506],[-75.583844,39.288498],[-75.583849,39.288493],[-75.583856,39.288484],[-75.58386,39.288476],[-75.583867,39.288467],[-75.583875,39.28846],[-75.583884,39.288456],[-75.583893,39.288449],[-75.583902,39.288445],[-75.583911,39.288439],[-75.583918,39.288432],[-75.583924,39.288424],[-75.583932,39.288414],[-75.583938,39.288404],[-75.583944,39.288394],[-75.583951,39.288384],[-75.583962,39.288375],[-75.583976,39.288368],[-75.583988,39.288363],[-75.584001,39.288358],[-75.584009,39.288351],[-75.584023,39.288344],[-75.584037,39.288337],[-75.58405,39.28833],[-75.584065,39.288321],[-75.584077,39.288314],[-75.58409,39.288307],[-75.584103,39.2883],[-75.584115,39.288292],[-75.584127,39.288283],[-75.584139,39.288276],[-75.584153,39.288271],[-75.584167,39.288264],[-75.584179,39.288255],[-75.58419,39.288245],[-75.584202,39.288234],[-75.584211,39.288224],[-75.584222,39.288215],[-75.584231,39.288206],[-75.584238,39.288196],[-75.584245,39.288186],[-75.584253,39.288175],[-75.58426,39.288163],[-75.58427,39.288153],[-75.584276,39.288145],[-75.584274,39.288145],[-75.584274,39.288151],[-75.584273,39.288152],[-75.584276,39.28815],[-75.584285,39.288144],[-75.584299,39.28814],[-75.584314,39.28813],[-75.584328,39.288125],[-75.584343,39.28812],[-75.584355,39.288114],[-75.584366,39.288107],[-75.584377,39.288099],[-75.584386,39.288092],[-75.584398,39.288084],[-75.584408,39.288075],[-75.584414,39.288066],[-75.584425,39.288058],[-75.584432,39.28805],[-75.584442,39.288043],[-75.584446,39.288036],[-75.584453,39.288028],[-75.584463,39.28802],[-75.584474,39.288013],[-75.584483,39.288008],[-75.584492,39.288004],[-75.584502,39.287997],[-75.584509,39.287992],[-75.584517,39.287986],[-75.584524,39.287978],[-75.584529,39.287969],[-75.584534,39.287962],[-75.584542,39.287953],[-75.584552,39.287945],[-75.584562,39.287939],[-75.584576,39.287931],[-75.584584,39.287923],[-75.584591,39.287916],[-75.5846,39.287911],[-75.584611,39.287902],[-75.584618,39.287892],[-75.584622,39.28788],[-75.584627,39.287868],[-75.584635,39.287863],[-75.584647,39.287854],[-75.584652,39.287844],[-75.584658,39.287833],[-75.584667,39.287825],[-75.584677,39.287815],[-75.584686,39.28781],[-75.584693,39.287803],[-75.584703,39.287793],[-75.584707,39.287784],[-75.584715,39.287773],[-75.58472,39.287765],[-75.584729,39.287759],[-75.584738,39.287747],[-75.584747,39.287737],[-75.584751,39.287727],[-75.584756,39.287716],[-75.584763,39.287705],[-75.584768,39.287695],[-75.584775,39.287686],[-75.584783,39.287677],[-75.584788,39.287667],[-75.584794,39.287657],[-75.5848,39.287648],[-75.584806,39.287637],[-75.584811,39.287629],[-75.584818,39.287617],[-75.584825,39.287607],[-75.584831,39.287596],[-75.584837,39.287585],[-75.584845,39.287581],[-75.58485,39.287571],[-75.584856,39.287556],[-75.584858,39.287546],[-75.584862,39.287534],[-75.584862,39.287526],[-75.584868,39.287514],[-75.584874,39.2875],[-75.584877,39.287487],[-75.58488,39.287475],[-75.58488,39.287465],[-75.584882,39.287452],[-75.584884,39.28744],[-75.584888,39.287428],[-75.584891,39.287418],[-75.584894,39.287408],[-75.584897,39.287396],[-75.584898,39.287384],[-75.584898,39.28737],[-75.584895,39.287358],[-75.584895,39.287349],[-75.584892,39.287339],[-75.58489,39.287327],[-75.584888,39.287315],[-75.584888,39.287305],[-75.584884,39.287294],[-75.584878,39.287285],[-75.584871,39.287275],[-75.584863,39.287265],[-75.584858,39.287255],[-75.584853,39.287244],[-75.584846,39.287233],[-75.584837,39.287226],[-75.584828,39.287216],[-75.584821,39.287206],[-75.584815,39.287196],[-75.584807,39.287186],[-75.584796,39.287177],[-75.584788,39.28717],[-75.584779,39.287163],[-75.584771,39.287158],[-75.584764,39.28715],[-75.584759,39.287143],[-75.584753,39.287134],[-75.584749,39.287126],[-75.584746,39.287118],[-75.584738,39.287108],[-75.584731,39.287097],[-75.584725,39.287085],[-75.58472,39.287075],[-75.584714,39.287066],[-75.584708,39.287053],[-75.584705,39.287043],[-75.5847,39.287033],[-75.584696,39.287024],[-75.58469,39.287014],[-75.584683,39.287004],[-75.584677,39.286993],[-75.584674,39.286984],[-75.584671,39.286973],[-75.584673,39.286963],[-75.584674,39.286958],[-75.584679,39.286945],[-75.58468,39.286932],[-75.584687,39.286922],[-75.584696,39.286915],[-75.58471,39.286907],[-75.58472,39.286899],[-75.58473,39.28689],[-75.584736,39.286882],[-75.584744,39.28687],[-75.584751,39.286859],[-75.584757,39.28685],[-75.584764,39.286841],[-75.584769,39.286832],[-75.584776,39.286821],[-75.584782,39.286812],[-75.584788,39.286802],[-75.584793,39.286792],[-75.584799,39.286783],[-75.584806,39.286773],[-75.584815,39.286764],[-75.584822,39.286756],[-75.58483,39.286747],[-75.584838,39.286736],[-75.584846,39.286728],[-75.584859,39.286718],[-75.584865,39.286708],[-75.584872,39.2867],[-75.584881,39.286692],[-75.584889,39.286683],[-75.584893,39.286674],[-75.584902,39.286665],[-75.584913,39.286653],[-75.584919,39.286644],[-75.584926,39.286636],[-75.584932,39.286628],[-75.58494,39.286618],[-75.584945,39.28661],[-75.584953,39.286599],[-75.58496,39.286589],[-75.584968,39.28658],[-75.584975,39.28657],[-75.584984,39.28656],[-75.584994,39.28655],[-75.585002,39.286539],[-75.58501,39.28653],[-75.585016,39.286521],[-75.585023,39.286512],[-75.58503,39.286502],[-75.585035,39.286491],[-75.58504,39.286479],[-75.585047,39.286469],[-75.585055,39.286459],[-75.585063,39.28645],[-75.58507,39.286441],[-75.585079,39.286431],[-75.585086,39.286421],[-75.585092,39.286412],[-75.5851,39.286403],[-75.585104,39.286395],[-75.585108,39.286387],[-75.585114,39.286376],[-75.585119,39.286365],[-75.585127,39.286355],[-75.585134,39.286346],[-75.58514,39.286336],[-75.585148,39.286328],[-75.585155,39.28632],[-75.585162,39.28631],[-75.585164,39.286303],[-75.585171,39.286292],[-75.585177,39.286282],[-75.585183,39.286274],[-75.585187,39.286267],[-75.585195,39.286257],[-75.5852,39.286247],[-75.585203,39.286238],[-75.585208,39.28623],[-75.585215,39.286222],[-75.585221,39.286211],[-75.585228,39.2862],[-75.585235,39.28619],[-75.585242,39.286181],[-75.58525,39.286171],[-75.585256,39.286162],[-75.585261,39.286152],[-75.585269,39.286142],[-75.585274,39.286133],[-75.585278,39.286123],[-75.585285,39.286112],[-75.585291,39.286103],[-75.585296,39.286093],[-75.585302,39.286083],[-75.585307,39.286072],[-75.585311,39.286062],[-75.585318,39.286051],[-75.585326,39.286043],[-75.585332,39.286033],[-75.585336,39.286024],[-75.585343,39.286013],[-75.585348,39.286005],[-75.58535,39.285997],[-75.585357,39.28599],[-75.585362,39.285984],[-75.58537,39.285975],[-75.585371,39.285968],[-75.585377,39.285959],[-75.585384,39.285948],[-75.58539,39.285937],[-75.585396,39.285927],[-75.585401,39.285918],[-75.585407,39.285908],[-75.585417,39.285889],[-75.585422,39.28588],[-75.585428,39.28587],[-75.585436,39.28586],[-75.585443,39.285852],[-75.585451,39.285844],[-75.585455,39.285834],[-75.585459,39.285824],[-75.585466,39.285814],[-75.585472,39.285804],[-75.585476,39.285794],[-75.585481,39.285784],[-75.585487,39.285773],[-75.585494,39.285764],[-75.585504,39.285754],[-75.585507,39.285745],[-75.585512,39.285736],[-75.585516,39.285726],[-75.585522,39.285716],[-75.585529,39.285706],[-75.585534,39.285696],[-75.58554,39.285687],[-75.585547,39.285676],[-75.585553,39.285668],[-75.585559,39.285658],[-75.585565,39.285648],[-75.585573,39.285638],[-75.585578,39.285626],[-75.585581,39.285617],[-75.585587,39.285606],[-75.585594,39.285596],[-75.585601,39.285586],[-75.585608,39.285577],[-75.585614,39.285567],[-75.585623,39.285558],[-75.585627,39.285549],[-75.585631,39.285538],[-75.585635,39.285526],[-75.58564,39.285516],[-75.585644,39.285506],[-75.585649,39.285496],[-75.585653,39.285486],[-75.58566,39.285476],[-75.585667,39.285466],[-75.585674,39.285457],[-75.58568,39.285448],[-75.585686,39.285438],[-75.585689,39.285428],[-75.585695,39.285417],[-75.5857,39.285407],[-75.585707,39.285396],[-75.585714,39.285386],[-75.585726,39.285375],[-75.585737,39.285366],[-75.585739,39.285358],[-75.585743,39.285348],[-75.585747,39.28534],[-75.585752,39.28533],[-75.585756,39.285321],[-75.58576,39.285311],[-75.585765,39.285303999999996],[-75.585768,39.285306],[-75.585769,39.285308],[-75.585773,39.285301],[-75.585778,39.285292],[-75.585786,39.285276],[-75.585786,39.285263],[-75.585793,39.285252],[-75.585802,39.285244],[-75.585813,39.285233],[-75.585818,39.28522],[-75.585822,39.28521],[-75.585829,39.285198],[-75.585836,39.285186],[-75.585843,39.285175],[-75.585851,39.285165],[-75.585858,39.285155],[-75.585861,39.285144],[-75.585867,39.285132],[-75.585873,39.285119],[-75.585878,39.285108],[-75.585885,39.285098],[-75.585892,39.285087],[-75.585899,39.285076],[-75.585904,39.285064],[-75.585909,39.285053],[-75.585918,39.285043],[-75.585924,39.285033],[-75.585931,39.285019],[-75.585936,39.285006],[-75.585941,39.284994],[-75.585947,39.284983],[-75.585953,39.284971],[-75.58596,39.28496],[-75.585967,39.284949],[-75.585973,39.284937],[-75.58598,39.284927],[-75.585983,39.284915],[-75.585988,39.284902],[-75.585993,39.284892],[-75.586002,39.284881],[-75.586008,39.284869],[-75.586014,39.284857],[-75.586018,39.284845],[-75.586023,39.284834],[-75.586027,39.284822],[-75.586033,39.284811],[-75.586037,39.2848],[-75.586038,39.284789],[-75.586039,39.284779],[-75.586042,39.284768],[-75.586046,39.284758],[-75.586052,39.284749],[-75.586058,39.28474],[-75.586064,39.284729],[-75.586069,39.284721],[-75.586075,39.28471],[-75.586081,39.284701],[-75.586086,39.284691],[-75.586094,39.284681],[-75.5861,39.284671],[-75.586105,39.284661],[-75.586111,39.284651],[-75.586119,39.28463],[-75.586127,39.28462],[-75.586134,39.284609],[-75.58614,39.284598],[-75.586141,39.284587],[-75.586143,39.284576],[-75.586148,39.284565],[-75.586153,39.284554],[-75.586157,39.284545],[-75.586161,39.284532],[-75.586166,39.284523],[-75.586171,39.284513],[-75.586172,39.284502],[-75.586175,39.28449],[-75.58618,39.28448],[-75.586184,39.284468],[-75.586184,39.284455],[-75.586181,39.284443],[-75.58618,39.284432],[-75.58618,39.28442],[-75.58618,39.284409],[-75.586174,39.284398],[-75.586172,39.284386],[-75.586171,39.284374],[-75.586168,39.284363],[-75.586166,39.284351],[-75.586166,39.284341],[-75.586167,39.28433],[-75.586167,39.284318],[-75.586168,39.284304],[-75.586165,39.284293],[-75.586163,39.284282],[-75.58616,39.284269],[-75.586155,39.284262],[-75.586154,39.284256],[-75.586157,39.284245],[-75.586159,39.284238],[-75.586156,39.28423],[-75.586154,39.284222],[-75.586151,39.284213],[-75.586147,39.284206],[-75.586143,39.284195],[-75.58614,39.284183],[-75.586135,39.284174],[-75.586126,39.284164],[-75.586118,39.284155],[-75.586115,39.284144],[-75.586112,39.284133],[-75.586111,39.28412],[-75.58611,39.28411],[-75.586108,39.284098],[-75.586109,39.284087],[-75.586111,39.284075],[-75.586117,39.284064],[-75.586123,39.284053],[-75.586126,39.284039],[-75.586119,39.284026],[-75.586109,39.284014],[-75.5861,39.284003],[-75.586089,39.283993],[-75.586081,39.283983],[-75.586074,39.283972],[-75.586067,39.283963],[-75.586056,39.283956],[-75.586048,39.283947],[-75.58604,39.283937],[-75.586032,39.283927],[-75.586021,39.28392],[-75.586008,39.283915],[-75.585997,39.283909],[-75.585984,39.2839],[-75.585974,39.283892],[-75.585962,39.283883],[-75.585953,39.283872],[-75.585945,39.283863],[-75.585934,39.283856],[-75.585923,39.283848],[-75.585911,39.283845],[-75.585906,39.28385],[-75.585914,39.283851],[-75.585915,39.283851],[-75.585916,39.28385],[-75.585916,39.28385],[-75.585916,39.283851],[-75.585917,39.283851],[-75.585918,39.283851],[-75.585918,39.283852],[-75.585913,39.28385],[-75.585901,39.283843],[-75.585894,39.283832],[-75.585882,39.283822],[-75.585869,39.283816],[-75.585861,39.283813],[-75.585852,39.283813],[-75.585834,39.283808],[-75.585819,39.283799],[-75.585811,39.283792],[-75.585799,39.283785],[-75.585786,39.283779],[-75.585773,39.283772],[-75.585762,39.283767],[-75.585755,39.283761],[-75.585745,39.283752],[-75.585738,39.283743],[-75.585727,39.283739],[-75.585714,39.283732],[-75.585704,39.283726],[-75.585693,39.283719],[-75.58568,39.283713],[-75.585653,39.283701],[-75.585637,39.283694],[-75.585624,39.283689],[-75.585611,39.283682],[-75.585597,39.283673],[-75.585589,39.283664],[-75.585574,39.283654],[-75.585563,39.283649],[-75.585557,39.283642],[-75.585543,39.283631],[-75.585531,39.283622],[-75.585519,39.283616],[-75.58551,39.283607],[-75.585499,39.283601],[-75.58549,39.283595],[-75.585491,39.283601],[-75.585476,39.283592],[-75.585457,39.283583],[-75.585445,39.283575],[-75.585436,39.283567],[-75.585424,39.283561],[-75.585413,39.283553],[-75.585403,39.283546],[-75.585392,39.283539],[-75.585382,39.283534],[-75.58537,39.283524],[-75.585358,39.283516],[-75.585348,39.283508],[-75.585334,39.283502],[-75.585322,39.283495],[-75.58531,39.283486],[-75.585299,39.283474],[-75.585287,39.283467],[-75.585278,39.283466],[-75.585265,39.283465],[-75.585261,39.283467],[-75.585262,39.283469],[-75.585263,39.283469],[-75.585262,39.28347],[-75.58526,39.283471],[-75.585258,39.283472],[-75.585259,39.283472],[-75.585256,39.283472],[-75.585246,39.283474],[-75.585245,39.283476],[-75.585241,39.283477],[-75.585237,39.28347],[-75.58523,39.283462],[-75.585222,39.283453],[-75.585214,39.283443],[-75.585204,39.283437],[-75.585194,39.28343],[-75.585181,39.283422],[-75.585169,39.283413],[-75.585156,39.283405],[-75.585145,39.283396],[-75.585135,39.283388],[-75.585126,39.283381],[-75.585114,39.283372],[-75.585102,39.283367],[-75.585087,39.283362],[-75.585073,39.283355],[-75.585062,39.283347],[-75.585048,39.283341],[-75.585036,39.283333],[-75.585024,39.283326],[-75.585012,39.283321],[-75.585001,39.283311],[-75.584992,39.283304],[-75.584984,39.283299],[-75.584974,39.283291],[-75.584964,39.283282],[-75.584953,39.283273],[-75.584942,39.283266],[-75.584933,39.283261],[-75.58492,39.283253],[-75.584908,39.283246],[-75.584894,39.283238],[-75.584884,39.28323],[-75.584872,39.283224],[-75.584862,39.283216],[-75.584851,39.28321],[-75.584839,39.2832],[-75.584827,39.283192],[-75.584818,39.283183],[-75.584803,39.283176],[-75.584793,39.283171],[-75.584781,39.283166],[-75.584767,39.283156],[-75.584756,39.283147],[-75.584746,39.283138],[-75.584733,39.283131],[-75.584718,39.283124],[-75.584704,39.283118],[-75.584691,39.283109],[-75.58468,39.283099],[-75.584667,39.283093],[-75.584653,39.283085],[-75.584641,39.283079],[-75.584632,39.28307],[-75.584622,39.283062],[-75.584612,39.283053],[-75.584599,39.283043],[-75.584589,39.283032],[-75.584576,39.283025],[-75.584562,39.28302],[-75.584549,39.283015],[-75.58454,39.283006],[-75.584529,39.282997],[-75.584518,39.28299],[-75.584507,39.282982],[-75.584493,39.282974],[-75.584481,39.282968],[-75.584467,39.282962],[-75.584455,39.282955],[-75.584446,39.282949],[-75.584432,39.282937],[-75.584419,39.282928],[-75.584407,39.28292],[-75.584395,39.282913],[-75.584381,39.282907],[-75.584367,39.282899],[-75.584354,39.282892],[-75.58434,39.282887],[-75.584325,39.28288],[-75.584311,39.282873],[-75.584301,39.282867],[-75.584288,39.282857],[-75.584279,39.282845],[-75.584267,39.282838],[-75.584254,39.282832],[-75.584243,39.282825],[-75.584235,39.282818],[-75.584224,39.282812],[-75.584213,39.282804],[-75.584202,39.282797],[-75.58419,39.282789],[-75.58418,39.282782],[-75.584165,39.282773],[-75.584149,39.282765],[-75.584137,39.28276],[-75.584125,39.282755],[-75.584113,39.282749],[-75.584103,39.282741],[-75.584095,39.282734],[-75.584087,39.282726],[-75.584077,39.282719],[-75.584065,39.282714],[-75.584053,39.282709],[-75.58404,39.2827],[-75.584029,39.282694],[-75.58402,39.282684],[-75.584016,39.282676],[-75.584017,39.282674],[-75.58402,39.282677],[-75.584021,39.282678],[-75.58402,39.282676],[-75.584016,39.282674],[-75.584003,39.28267],[-75.583991,39.282664],[-75.583977,39.282657],[-75.58397,39.282652],[-75.583957,39.282644],[-75.583947,39.282635],[-75.583935,39.282628],[-75.583926,39.282623],[-75.583918,39.282614],[-75.583903,39.282604],[-75.583888,39.282597],[-75.583875,39.282589],[-75.583861,39.282582],[-75.583848,39.282575],[-75.583836,39.282569],[-75.583824,39.282561],[-75.583815,39.282552],[-75.583804,39.282543],[-75.583791,39.282536],[-75.58378,39.282528],[-75.583771,39.282518],[-75.583758,39.282511],[-75.583746,39.282504],[-75.583735,39.282498],[-75.583725,39.282492],[-75.583715,39.282484],[-75.583718,39.282487],[-75.583723,39.282489],[-75.583725,39.282488],[-75.583725,39.282488],[-75.583727,39.282488],[-75.583724,39.282486],[-75.583726,39.282488],[-75.583727,39.282487],[-75.583727,39.282486],[-75.583728,39.282491],[-75.583725,39.282497],[-75.583721,39.282487],[-75.583718,39.282488],[-75.583722,39.282489],[-75.583722,39.282489],[-75.583722,39.282489],[-75.583723,39.282489],[-75.583722,39.282488],[-75.583718,39.282485],[-75.58371,39.282476],[-75.583701,39.28247],[-75.58369,39.282466],[-75.583678,39.282463],[-75.583668,39.282457],[-75.583653,39.282452],[-75.583642,39.282446],[-75.583632,39.282438],[-75.583623,39.28243],[-75.58361,39.282424],[-75.583595,39.28242],[-75.583585,39.282416],[-75.583574,39.28241],[-75.583561,39.282407],[-75.583545,39.282403],[-75.583529,39.282399],[-75.583516,39.282392],[-75.583508,39.282384],[-75.5835,39.282376],[-75.58349,39.282367],[-75.583483,39.282359],[-75.583475,39.282351],[-75.583464,39.282343],[-75.583452,39.282337],[-75.583441,39.282331],[-75.58343,39.282325],[-75.58342,39.28232],[-75.583412,39.282311],[-75.583405,39.282306],[-75.58339,39.282297],[-75.583384,39.282293],[-75.583373,39.282286],[-75.583359,39.28228],[-75.58335,39.282273],[-75.583339,39.282265],[-75.58333,39.282258],[-75.58332,39.282252],[-75.583308,39.282246],[-75.583298,39.282241],[-75.583287,39.282237],[-75.583277,39.282231],[-75.583264,39.282224],[-75.583251,39.282217],[-75.583241,39.282208],[-75.583234,39.2822],[-75.583224,39.282194],[-75.583212,39.282185],[-75.583203,39.282177],[-75.583194,39.282172],[-75.583181,39.282166],[-75.58317,39.282159],[-75.58316,39.282153],[-75.58315,39.282146],[-75.583139,39.28214],[-75.583129,39.282134],[-75.583119,39.282128],[-75.583111,39.28212],[-75.583101,39.282114],[-75.583087,39.282108],[-75.583078,39.282101],[-75.583067,39.282096],[-75.583055,39.282089],[-75.583043,39.282082],[-75.583033,39.282078],[-75.58302,39.282072],[-75.583008,39.282064],[-75.582998,39.282056],[-75.582989,39.282048],[-75.582978,39.282042],[-75.582964,39.282037],[-75.582954,39.282031],[-75.582942,39.282022],[-75.582933,39.282013],[-75.582922,39.282005],[-75.582913,39.282],[-75.582896,39.281993],[-75.582884,39.281988],[-75.582873,39.28198],[-75.582863,39.281973],[-75.582851,39.281965],[-75.582838,39.281959],[-75.582828,39.281953],[-75.582817,39.281945],[-75.582806,39.281935],[-75.582798,39.281926],[-75.582791,39.281921],[-75.582782,39.281914],[-75.582772,39.281909],[-75.582759,39.281904],[-75.582749,39.281897],[-75.58274,39.281892],[-75.582728,39.281885],[-75.582715,39.281881],[-75.582703,39.281876],[-75.582692,39.28187],[-75.582682,39.281865],[-75.582673,39.281857],[-75.582662,39.281849],[-75.582649,39.281841],[-75.58264,39.281835],[-75.582629,39.281828],[-75.582616,39.28182],[-75.582601,39.281814],[-75.58259,39.281806],[-75.582581,39.281798],[-75.582572,39.281791],[-75.582559,39.281786],[-75.582544,39.28178],[-75.582531,39.281774],[-75.582524,39.281767],[-75.582512,39.281757],[-75.582501,39.281748],[-75.582491,39.281741],[-75.582483,39.281734],[-75.582471,39.281729],[-75.58246,39.281721],[-75.58245,39.281717],[-75.58244,39.281711],[-75.582427,39.281706],[-75.58242,39.281698],[-75.58241,39.281693],[-75.582399,39.281685],[-75.582387,39.281679],[-75.582376,39.281673],[-75.582364,39.281665],[-75.582351,39.281659],[-75.582342,39.281652],[-75.582334,39.281646],[-75.582323,39.281639],[-75.582313,39.281633],[-75.582304,39.281626],[-75.582294,39.281617],[-75.582289,39.281606],[-75.582283,39.281602],[-75.582271,39.281596],[-75.582256,39.281588],[-75.582246,39.281581],[-75.582234,39.281574],[-75.582225,39.281567],[-75.582212,39.281562],[-75.582202,39.281557],[-75.58219,39.281551],[-75.582181,39.281541],[-75.582176,39.281532],[-75.582166,39.281527],[-75.582153,39.281518],[-75.582138,39.281511],[-75.582132,39.281505],[-75.582122,39.281498],[-75.582112,39.281491],[-75.582101,39.281485],[-75.582091,39.281479],[-75.582082,39.281474],[-75.582065,39.281468],[-75.582053,39.281463],[-75.582046,39.281458],[-75.582032,39.281452],[-75.582017,39.281447],[-75.582006,39.281441],[-75.581998,39.281437],[-75.581986,39.281429],[-75.581977,39.281423],[-75.581965,39.281415],[-75.581962,39.281408],[-75.581952,39.281401],[-75.581953,39.281405],[-75.581956,39.281407],[-75.581956,39.281407],[-75.581956,39.281407],[-75.581957,39.281408],[-75.581959,39.281408],[-75.581961,39.281408],[-75.581962,39.281408],[-75.581964,39.281408],[-75.581964,39.281408],[-75.581948,39.281401],[-75.58193,39.281396],[-75.581917,39.281386],[-75.58191,39.28138],[-75.5819,39.281373],[-75.581887,39.281364],[-75.581878,39.281357],[-75.581864,39.281349],[-75.581851,39.281342],[-75.581836,39.281333],[-75.581824,39.281325],[-75.581814,39.281319],[-75.581807,39.281311],[-75.581791,39.281297],[-75.581784,39.281289],[-75.581778,39.281284],[-75.581766,39.281277],[-75.581752,39.281271],[-75.581739,39.281267],[-75.581725,39.281261],[-75.581715,39.281256],[-75.581707,39.281251],[-75.581696,39.281242],[-75.581684,39.281235],[-75.581676,39.281228],[-75.581664,39.281221],[-75.581654,39.281214],[-75.581646,39.281206],[-75.581636,39.281202],[-75.581624,39.281198],[-75.581613,39.281193],[-75.581603,39.28119],[-75.581594,39.281187],[-75.581581,39.281182],[-75.58157,39.281176],[-75.581556,39.281171],[-75.581545,39.281164],[-75.581538,39.281157],[-75.581527,39.281148],[-75.581519,39.281137],[-75.58151,39.281124],[-75.581498,39.281117],[-75.581488,39.281113],[-75.581476,39.281107],[-75.581461,39.281102],[-75.581451,39.281095],[-75.581439,39.281091],[-75.581429,39.281087],[-75.581418,39.28108],[-75.581404,39.281067],[-75.581392,39.281058],[-75.581382,39.281051],[-75.58137,39.281044],[-75.581361,39.281037],[-75.581348,39.281029],[-75.581342,39.281023],[-75.581334,39.281016],[-75.581324,39.28101],[-75.581317,39.281002],[-75.581316,39.280998],[-75.581316,39.280999],[-75.581314,39.280999],[-75.581313,39.280999],[-75.581313,39.280997],[-75.581312,39.280996],[-75.581306,39.280991],[-75.581306,39.280992],[-75.5813,39.28099],[-75.581287,39.280985],[-75.581276,39.280981],[-75.581268,39.280975],[-75.581258,39.280969],[-75.581248,39.280963],[-75.581237,39.280957],[-75.581226,39.28095],[-75.581217,39.280943],[-75.581207,39.280936],[-75.581196,39.280929],[-75.581187,39.280919],[-75.581179,39.280909],[-75.581172,39.2809],[-75.581161,39.280895],[-75.581149,39.280889],[-75.581137,39.280883],[-75.581123,39.280877],[-75.581109,39.280871],[-75.5811,39.280865],[-75.58109,39.280859],[-75.581081,39.280852],[-75.581072,39.280847],[-75.581056,39.280838],[-75.581042,39.280834],[-75.581028,39.280827],[-75.581014,39.280821],[-75.581004,39.280813],[-75.580993,39.280805],[-75.580981,39.280797],[-75.580969,39.280791],[-75.580956,39.280784],[-75.580942,39.280776],[-75.580929,39.280768],[-75.580919,39.280761],[-75.580909,39.280755],[-75.580899,39.28075],[-75.58089,39.280743],[-75.580877,39.280738],[-75.580867,39.28073],[-75.580854,39.280723],[-75.580843,39.280715],[-75.580834,39.280707],[-75.580828,39.280701],[-75.580816,39.280694],[-75.580805,39.280689],[-75.580791,39.280685],[-75.580781,39.280681],[-75.580773,39.280677],[-75.580759,39.28067],[-75.580749,39.280663],[-75.580744,39.280656],[-75.580736,39.280648],[-75.580738,39.280635],[-75.580733,39.280625],[-75.580722,39.280621],[-75.580708,39.280616],[-75.580696,39.280611],[-75.580685,39.280604],[-75.580674,39.280597],[-75.580661,39.280591],[-75.580649,39.280584],[-75.580636,39.280577],[-75.580626,39.280572],[-75.580612,39.280564],[-75.580604,39.280555],[-75.580599,39.280549],[-75.580586,39.280541],[-75.580573,39.280534],[-75.580562,39.280527],[-75.580552,39.28052],[-75.580541,39.280513],[-75.58053,39.280507],[-75.580519,39.280501],[-75.580505,39.280493],[-75.580496,39.280485],[-75.580484,39.280477],[-75.580473,39.28047],[-75.580463,39.280464],[-75.580452,39.280459],[-75.580439,39.280453],[-75.580428,39.280444],[-75.580419,39.280432],[-75.580409,39.280424],[-75.580396,39.280417],[-75.580386,39.28041],[-75.580374,39.280403],[-75.580365,39.280396],[-75.580353,39.280392],[-75.580339,39.280384],[-75.580328,39.280375],[-75.580319,39.280371],[-75.580308,39.280363],[-75.580294,39.280353],[-75.580284,39.280344],[-75.580273,39.280336],[-75.580263,39.280328],[-75.580252,39.280318],[-75.580242,39.280309],[-75.580235,39.280298],[-75.58023,39.280285],[-75.580225,39.280274],[-75.580221,39.280259],[-75.580221,39.280249],[-75.58022,39.280238],[-75.580225,39.280225],[-75.580228,39.280209],[-75.580228,39.280199],[-75.580233,39.280192],[-75.58024,39.280183],[-75.580244,39.280174],[-75.580249,39.280163],[-75.580251,39.28015],[-75.58025,39.28014],[-75.580248,39.280129],[-75.58025,39.28012],[-75.58025,39.280107],[-75.580251,39.280095],[-75.580252,39.280084],[-75.580256,39.280076],[-75.580257,39.280062],[-75.580261,39.28005],[-75.580266,39.280038],[-75.580272,39.280028],[-75.580281,39.280021],[-75.580289,39.280011],[-75.580296,39.280001],[-75.580303,39.279994],[-75.58031,39.279986],[-75.580321,39.279976],[-75.580332,39.279965],[-75.58034,39.27996],[-75.58035,39.279952],[-75.580358,39.279944],[-75.580369,39.279935],[-75.580379,39.279929],[-75.58039,39.279921],[-75.580403,39.279916],[-75.580414,39.279908],[-75.580424,39.279901],[-75.580435,39.279894],[-75.580444,39.279886],[-75.580452,39.279879],[-75.58046,39.279871],[-75.580466,39.279864],[-75.580468,39.279857],[-75.580466,39.279854],[-75.580466,39.279857],[-75.580465,39.279858],[-75.580466,39.279859],[-75.580467,39.279858],[-75.580467,39.279858],[-75.580469,39.279858],[-75.580469,39.279858],[-75.580469,39.279857],[-75.580472,39.279852],[-75.58047,39.279854],[-75.580471,39.279854],[-75.580474,39.279852],[-75.580478,39.279847],[-75.580477,39.279844],[-75.58048,39.279843],[-75.58048,39.279844],[-75.580479,39.279845],[-75.58048,39.279845],[-75.580481,39.279845],[-75.580481,39.279845],[-75.580482,39.279845],[-75.580482,39.279845],[-75.580483,39.279846],[-75.580484,39.279847],[-75.580483,39.279849],[-75.580484,39.279849],[-75.580484,39.27985],[-75.580484,39.27985],[-75.580484,39.27985],[-75.580485,39.279851],[-75.580487,39.279853],[-75.580485,39.279853],[-75.580487,39.279855],[-75.580487,39.279855],[-75.580487,39.279855],[-75.580485,39.279856],[-75.580483,39.279856],[-75.580485,39.279856],[-75.580484,39.279856],[-75.580484,39.279855],[-75.580483,39.279856],[-75.580484,39.279856],[-75.580486,39.279856],[-75.580486,39.279856]]}}
