{
  "type": "Feature",
  "properties": {
    "name": "Killens Pond State Park Course",
    "routeType": "Field-walked course record",
    "distanceKilometers": 5.33,
    "distanceMiles": 3.31,
    "note": "Route geometry derived from a field walk. Historical course verification is ongoing."
  },
  "geometry": {
    "type": "LineString",
    "coordinates": [
      [
        -75.54562,
        38.985545
      ],
      [
        -75.545676,
        38.985606
      ],
      [
        -75.545796,
        38.985967
      ],
      [
        -75.54593,
        38.986182
      ],
      [
        -75.546141,
        38.98674
      ],
      [
        -75.546308,
        38.986848
      ],
      [
        -75.546527,
        38.986895
      ],
      [
        -75.546834,
        38.987057
      ],
      [
        -75.546923,
        38.987174
      ],
      [
        -75.547034,
        38.987434
      ],
      [
        -75.547031,
        38.987583
      ],
      [
        -75.546948,
        38.98775
      ],
      [
        -75.546955,
        38.987835
      ],
      [
        -75.547032,
        38.987911
      ],
      [
        -75.547209,
        38.987944
      ],
      [
        -75.547278,
        38.987895
      ],
      [
        -75.547325,
        38.987805
      ],
      [
        -75.547294,
        38.987698
      ],
      [
        -75.546896,
        38.986954
      ],
      [
        -75.546723,
        38.986499
      ],
      [
        -75.546456,
        38.986036
      ],
      [
        -75.546326,
        38.985942
      ],
      [
        -75.546151,
        38.98548
      ],
      [
        -75.546006,
        38.98521
      ],
      [
        -75.545811,
        38.984959
      ],
      [
        -75.545559,
        38.984714
      ],
      [
        -75.545304,
        38.984298
      ],
      [
        -75.545164,
        38.984132
      ],
      [
        -75.545022,
        38.983885
      ],
      [
        -75.54503,
        38.983848
      ],
      [
        -75.54496,
        38.983806
      ],
      [
        -75.544792,
        38.983548
      ],
      [
        -75.544098,
        38.982388
      ],
      [
        -75.544071,
        38.982256
      ],
      [
        -75.544148,
        38.982189
      ],
      [
        -75.544538,
        38.982171
      ],
      [
        -75.544823,
        38.98211
      ],
      [
        -75.545214,
        38.981958
      ],
      [
        -75.545732,
        38.981809
      ],
      [
        -75.545738,
        38.981729
      ],
      [
        -75.545619,
        38.981523
      ],
      [
        -75.545543,
        38.981247
      ],
      [
        -75.545384,
        38.981016
      ],
      [
        -75.545319,
        38.980817
      ],
      [
        -75.545246,
        38.980713
      ],
      [
        -75.545239,
        38.980632
      ],
      [
        -75.545101,
        38.980457
      ],
      [
        -75.544858,
        38.979988
      ],
      [
        -75.544856,
        38.980007
      ],
      [
        -75.544787,
        38.979929
      ],
      [
        -75.544686,
        38.979749
      ],
      [
        -75.544714,
        38.979721
      ],
      [
        -75.544599,
        38.979563
      ],
      [
        -75.544377,
        38.979025
      ],
      [
        -75.544202,
        38.978721
      ],
      [
        -75.544164,
        38.978555
      ],
      [
        -75.544098,
        38.978458
      ],
      [
        -75.54412,
        38.978433
      ],
      [
        -75.543981,
        38.978453
      ],
      [
        -75.543835,
        38.978548
      ],
      [
        -75.543713,
        38.978562
      ],
      [
        -75.54343,
        38.97869
      ],
      [
        -75.543435,
        38.978628
      ],
      [
        -75.543269,
        38.978747
      ],
      [
        -75.543038,
        38.978795
      ],
      [
        -75.542418,
        38.979077
      ],
      [
        -75.542081,
        38.979178
      ],
      [
        -75.541897,
        38.97927
      ],
      [
        -75.541763,
        38.979416
      ],
      [
        -75.541404,
        38.979541
      ],
      [
        -75.541013,
        38.979728
      ],
      [
        -75.540878,
        38.979758
      ],
      [
        -75.540708,
        38.979729
      ],
      [
        -75.540598,
        38.979691
      ],
      [
        -75.540405,
        38.979544
      ],
      [
        -75.540236,
        38.979463
      ],
      [
        -75.539769,
        38.979294
      ],
      [
        -75.539678,
        38.979117
      ],
      [
        -75.539461,
        38.978838
      ],
      [
        -75.53928,
        38.978461
      ],
      [
        -75.539011,
        38.9781
      ],
      [
        -75.538923,
        38.977781
      ],
      [
        -75.53895,
        38.977789
      ],
      [
        -75.538904,
        38.977767
      ],
      [
        -75.538697,
        38.977789
      ],
      [
        -75.538022,
        38.978002
      ],
      [
        -75.537852,
        38.977932
      ],
      [
        -75.537767,
        38.977945
      ],
      [
        -75.537704,
        38.977847
      ],
      [
        -75.537689,
        38.977695
      ],
      [
        -75.537583,
        38.977556
      ],
      [
        -75.537215,
        38.977472
      ],
      [
        -75.537176,
        38.977427
      ],
      [
        -75.537169,
        38.977312
      ],
      [
        -75.537198,
        38.976978
      ],
      [
        -75.537155,
        38.976808
      ],
      [
        -75.537068,
        38.976687
      ],
      [
        -75.536964,
        38.976424
      ],
      [
        -75.536939,
        38.976252
      ],
      [
        -75.536969,
        38.976158
      ],
      [
        -75.53711,
        38.976126
      ],
      [
        -75.537561,
        38.976168
      ],
      [
        -75.537934,
        38.976282
      ],
      [
        -75.538006,
        38.976267
      ],
      [
        -75.538166,
        38.976343
      ],
      [
        -75.538363,
        38.976387
      ],
      [
        -75.538544,
        38.976375
      ],
      [
        -75.538955,
        38.976463
      ],
      [
        -75.539152,
        38.976416
      ],
      [
        -75.539377,
        38.976417
      ],
      [
        -75.53961,
        38.976305
      ],
      [
        -75.539701,
        38.976293
      ],
      [
        -75.539966,
        38.976164
      ],
      [
        -75.540303,
        38.975864
      ],
      [
        -75.540443,
        38.975805
      ],
      [
        -75.540983,
        38.975727
      ],
      [
        -75.541678,
        38.975729
      ],
      [
        -75.541892,
        38.975777
      ],
      [
        -75.542007,
        38.975892
      ],
      [
        -75.542167,
        38.976379
      ],
      [
        -75.54222,
        38.976437
      ],
      [
        -75.542365,
        38.976469
      ],
      [
        -75.542644,
        38.976442
      ],
      [
        -75.542739,
        38.976491
      ],
      [
        -75.542894,
        38.976747
      ],
      [
        -75.543388,
        38.977385
      ],
      [
        -75.543418,
        38.977472
      ],
      [
        -75.543584,
        38.977652
      ],
      [
        -75.54359,
        38.977709
      ],
      [
        -75.543828,
        38.978091
      ],
      [
        -75.544078,
        38.978354
      ],
      [
        -75.544364,
        38.978904
      ],
      [
        -75.544449,
        38.979164
      ],
      [
        -75.544596,
        38.979408
      ],
      [
        -75.544726,
        38.979768
      ],
      [
        -75.54519,
        38.980527
      ],
      [
        -75.545448,
        38.981083
      ],
      [
        -75.545595,
        38.981229
      ],
      [
        -75.545627,
        38.981319
      ],
      [
        -75.545649,
        38.981536
      ],
      [
        -75.545751,
        38.981748
      ],
      [
        -75.545728,
        38.981828
      ],
      [
        -75.545142,
        38.981997
      ],
      [
        -75.544722,
        38.982177
      ],
      [
        -75.544543,
        38.982196
      ],
      [
        -75.544302,
        38.98217
      ],
      [
        -75.543941,
        38.982282
      ],
      [
        -75.543567,
        38.982701
      ],
      [
        -75.542845,
        38.983249
      ],
      [
        -75.542597,
        38.983535
      ],
      [
        -75.542529,
        38.98356
      ],
      [
        -75.542426,
        38.983674
      ],
      [
        -75.542185,
        38.983987
      ],
      [
        -75.541997,
        38.984114
      ],
      [
        -75.541884,
        38.984163
      ],
      [
        -75.541744,
        38.98416
      ],
      [
        -75.541617,
        38.984114
      ],
      [
        -75.541463,
        38.984119
      ],
      [
        -75.541224,
        38.984233
      ],
      [
        -75.541073,
        38.984272
      ],
      [
        -75.540905,
        38.984181
      ],
      [
        -75.540666,
        38.983949
      ],
      [
        -75.540565,
        38.983954
      ],
      [
        -75.540378,
        38.984018
      ],
      [
        -75.54026,
        38.984164
      ],
      [
        -75.540024,
        38.984359
      ],
      [
        -75.539664,
        38.984571
      ],
      [
        -75.539532,
        38.984729
      ],
      [
        -75.539557,
        38.984852
      ],
      [
        -75.539649,
        38.984946
      ],
      [
        -75.539833,
        38.98533
      ],
      [
        -75.539911,
        38.985424
      ],
      [
        -75.540038,
        38.985474
      ],
      [
        -75.540125,
        38.985454
      ],
      [
        -75.540159,
        38.985401
      ],
      [
        -75.540706,
        38.98513
      ],
      [
        -75.541299,
        38.984778
      ],
      [
        -75.541402,
        38.984688
      ],
      [
        -75.541686,
        38.984568
      ],
      [
        -75.54206,
        38.984276
      ],
      [
        -75.54243,
        38.984088
      ],
      [
        -75.54268,
        38.98392
      ],
      [
        -75.543008,
        38.983766
      ],
      [
        -75.543295,
        38.98355
      ],
      [
        -75.543436,
        38.983513
      ],
      [
        -75.543579,
        38.983509
      ],
      [
        -75.543859,
        38.983651
      ],
      [
        -75.544477,
        38.984023
      ],
      [
        -75.544842,
        38.9843
      ],
      [
        -75.544904,
        38.984295
      ]
    ]
  }
}
