{"type":"Feature","properties":{"name":"Sandhill Fields XC Course","routeType":"Submitted GPX course record","distanceKilometers":5.04,"distanceMiles":3.13,"note":"Route geometry derived from a submitted GPX track. Historical course verification is ongoing."},"geometry":{"type":"LineString","coordinates":[[-75.368946,38.7069],[-75.368946,38.7069],[-75.368945,38.7069],[-75.368944,38.7069],[-75.368949,38.7069],[-75.368962,38.706903],[-75.368978,38.706904],[-75.368992,38.706905],[-75.369009,38.706905],[-75.369028,38.706908],[-75.36904,38.706907],[-75.369058,38.706907],[-75.369077,38.706907],[-75.369096,38.706905],[-75.369109,38.706909],[-75.36912,38.706912],[-75.369132,38.706914],[-75.369147,38.706917],[-75.369164,38.706921],[-75.369182,38.706923],[-75.369194,38.706926],[-75.369209,38.706929],[-75.369225,38.706933],[-75.369241,38.706936],[-75.369256,38.706936],[-75.369271,38.706936],[-75.369286,38.706938],[-75.369303,38.706937],[-75.369317,38.706942],[-75.369331,38.706941],[-75.369345,38.70694],[-75.36936,38.706942],[-75.369376,38.706946],[-75.369387,38.706949],[-75.369398,38.706951],[-75.369423,38.706956],[-75.369437,38.706958],[-75.36945,38.706957],[-75.369466,38.706954],[-75.369481,38.706955],[-75.369495,38.706958],[-75.369514,38.706952],[-75.369529,38.706953],[-75.369543,38.706959],[-75.36956,38.706961],[-75.369577,38.706961],[-75.369593,38.706961],[-75.369608,38.70696],[-75.369624,38.70696],[-75.369642,38.706962],[-75.369654,38.706964],[-75.369672,38.706965],[-75.369687,38.706967],[-75.369702,38.70697],[-75.36972,38.706974],[-75.369738,38.706975],[-75.369755,38.706975],[-75.369772,38.706975],[-75.369788,38.706979],[-75.369803,38.706978],[-75.369818,38.706983],[-75.369835,38.706981],[-75.369851,38.706981],[-75.369868,38.706983],[-75.369884,38.706982],[-75.369899,38.706983],[-75.369915,38.706985],[-75.36993,38.706982],[-75.369946,38.706986],[-75.369961,38.70699],[-75.369978,38.706993],[-75.369994,38.706995],[-75.370011,38.707],[-75.370028,38.707001],[-75.370044,38.707006],[-75.370059,38.707006],[-75.370072,38.707006],[-75.370085,38.707008],[-75.370099,38.707007],[-75.370117,38.707011],[-75.370134,38.707013],[-75.370151,38.707013],[-75.370168,38.707014],[-75.370184,38.707014],[-75.370201,38.707012],[-75.370217,38.707019],[-75.370234,38.707019],[-75.370249,38.707022],[-75.370264,38.707022],[-75.370277,38.707022],[-75.370287,38.707022],[-75.370301,38.707022],[-75.370319,38.707021],[-75.370333,38.707021],[-75.370349,38.70702],[-75.370367,38.707021],[-75.370385,38.707023],[-75.370398,38.707021],[-75.370412,38.707021],[-75.370424,38.707024],[-75.370442,38.707026],[-75.370456,38.707027],[-75.370473,38.707024],[-75.370489,38.707027],[-75.370503,38.707029],[-75.370519,38.70703],[-75.370535,38.70703],[-75.370552,38.707033],[-75.370565,38.707036],[-75.370583,38.70704],[-75.370594,38.707043],[-75.370612,38.707039],[-75.37063,38.707044],[-75.370642,38.707046],[-75.370654,38.707048],[-75.370671,38.707051],[-75.370688,38.707056],[-75.370699,38.707057],[-75.370716,38.707063],[-75.370734,38.707064],[-75.370751,38.707064],[-75.370766,38.707065],[-75.37078,38.707065],[-75.370793,38.70706],[-75.370805,38.707062],[-75.370821,38.707066],[-75.370836,38.707069],[-75.370855,38.707069],[-75.370871,38.707068],[-75.370889,38.70707],[-75.370904,38.70707],[-75.370919,38.707073],[-75.370933,38.707072],[-75.37095,38.707073],[-75.370964,38.707072],[-75.370978,38.707079],[-75.370989,38.707078],[-75.371007,38.707078],[-75.371023,38.707079],[-75.37104,38.707076],[-75.371051,38.707072],[-75.371073,38.70707],[-75.371088,38.707064],[-75.371105,38.707064],[-75.37112,38.707073],[-75.371135,38.707075],[-75.371146,38.707074],[-75.371157,38.707073],[-75.371176,38.707073],[-75.371197,38.707074],[-75.371208,38.707069],[-75.371223,38.707065],[-75.371237,38.707064],[-75.371251,38.707065],[-75.371269,38.707066],[-75.371288,38.707067],[-75.37131,38.707064],[-75.371323,38.707066],[-75.371335,38.707067],[-75.371358,38.707069],[-75.37137,38.707067],[-75.371388,38.707065],[-75.371404,38.707066],[-75.371425,38.707067],[-75.371442,38.70706],[-75.371459,38.707058],[-75.371475,38.707059],[-75.371489,38.707058],[-75.371494,38.707056],[-75.371514,38.707053],[-75.371527,38.707049],[-75.371542,38.70705],[-75.371559,38.70705],[-75.371576,38.70705],[-75.371594,38.70705],[-75.37161,38.707049],[-75.371625,38.707047],[-75.37164,38.707049],[-75.371659,38.707052],[-75.371676,38.707052],[-75.371689,38.707045],[-75.371705,38.707047],[-75.371721,38.707047],[-75.371733,38.707042],[-75.371752,38.707041],[-75.371764,38.70704],[-75.371779,38.707039],[-75.371796,38.707039],[-75.371813,38.707038],[-75.371829,38.707039],[-75.371847,38.707039],[-75.371863,38.707039],[-75.371881,38.707039],[-75.371898,38.70704],[-75.371916,38.707041],[-75.371933,38.70704],[-75.371948,38.707041],[-75.371963,38.707042],[-75.371978,38.707041],[-75.371993,38.707039],[-75.372008,38.707038],[-75.372024,38.707038],[-75.372038,38.707038],[-75.372052,38.707035],[-75.372074,38.70703],[-75.372089,38.707032],[-75.372108,38.707031],[-75.372125,38.70703],[-75.372142,38.707028],[-75.372161,38.707028],[-75.372176,38.707026],[-75.37219,38.707024],[-75.372204,38.707023],[-75.37222,38.707024],[-75.372239,38.707023],[-75.372255,38.707024],[-75.372273,38.707021],[-75.372287,38.707022],[-75.372307,38.707024],[-75.372324,38.707025],[-75.372344,38.707022],[-75.37236,38.707018],[-75.372378,38.707017],[-75.372392,38.707015],[-75.372411,38.707012],[-75.372428,38.70701],[-75.372447,38.707006],[-75.372459,38.707003],[-75.372471,38.707],[-75.372491,38.707004],[-75.372505,38.707004],[-75.372519,38.707001],[-75.372536,38.707],[-75.372553,38.706999],[-75.372566,38.706998],[-75.372583,38.706991],[-75.372603,38.706988],[-75.37262,38.706986],[-75.372634,38.706982],[-75.372645,38.70698],[-75.372665,38.706979],[-75.372678,38.706978],[-75.372692,38.706976],[-75.372708,38.706976],[-75.372724,38.706971],[-75.372734,38.706967],[-75.372752,38.706962],[-75.372768,38.70696],[-75.372781,38.706955],[-75.372796,38.70695],[-75.372804,38.706945],[-75.372811,38.706932],[-75.37282,38.706918],[-75.372826,38.706911],[-75.372835,38.7069],[-75.372841,38.706887],[-75.372845,38.706876],[-75.372851,38.706865],[-75.372861,38.70686],[-75.372871,38.706849],[-75.372887,38.706842],[-75.372901,38.706832],[-75.372907,38.706825],[-75.372916,38.706814],[-75.372926,38.706803],[-75.372932,38.706794],[-75.372942,38.706784],[-75.372949,38.706774],[-75.372956,38.706763],[-75.372956,38.706752],[-75.372953999999993,38.706739],[-75.372951,38.706727],[-75.372949,38.706715],[-75.372953,38.706704],[-75.372955,38.706693],[-75.372963,38.706681],[-75.372971,38.706667],[-75.372973,38.70666],[-75.372982,38.706649],[-75.372988,38.706638],[-75.372993,38.706624],[-75.373001,38.706614],[-75.373016,38.706612],[-75.373026,38.706611],[-75.373023,38.706615],[-75.373022,38.706615],[-75.373021,38.706613],[-75.373019,38.706613],[-75.373019,38.706613],[-75.373019,38.706613],[-75.373019,38.706613],[-75.373016,38.70661],[-75.373015,38.70661],[-75.373016,38.70661],[-75.373015,38.70661],[-75.373015,38.70661],[-75.373016,38.706612],[-75.373016,38.706612],[-75.373015,38.706612],[-75.373018,38.706601],[-75.373016,38.70659],[-75.373022,38.706587],[-75.373034,38.706581],[-75.37305,38.706572],[-75.373063,38.706564],[-75.373078,38.706556],[-75.373092,38.706549],[-75.373104,38.70654],[-75.373118,38.706533],[-75.373133,38.706528],[-75.373147,38.70652],[-75.37316,38.706512],[-75.373177,38.706504],[-75.37319,38.7065],[-75.373205,38.706496],[-75.37322,38.706488],[-75.373236,38.70648],[-75.373252,38.706474],[-75.373266,38.706469],[-75.37328,38.706467],[-75.373292,38.706463],[-75.373296,38.706454],[-75.373291,38.706442],[-75.373286,38.706437],[-75.373289,38.706424],[-75.373297,38.706414],[-75.373315,38.706407],[-75.373324,38.706398],[-75.373328,38.706391],[-75.373342,38.706383],[-75.373363,38.706372],[-75.373378,38.706365],[-75.373397,38.706361],[-75.373413,38.706353],[-75.373426,38.706344],[-75.373439,38.706337],[-75.373457,38.706329],[-75.373474,38.706321],[-75.37349,38.706316],[-75.373501,38.706305],[-75.373512,38.706302],[-75.373522,38.706303],[-75.373537,38.706296],[-75.373552,38.706287],[-75.373568,38.706278],[-75.373581,38.706273],[-75.3736,38.706264],[-75.373614,38.706256],[-75.373627,38.706249],[-75.373637,38.706243],[-75.373644,38.706235],[-75.373654,38.706223],[-75.37366,38.706207],[-75.373666,38.706194],[-75.373672,38.706183],[-75.373679,38.70617],[-75.373677,38.706159],[-75.373678,38.706147],[-75.373683,38.706134],[-75.373684,38.706123],[-75.373681,38.706108],[-75.373673,38.706098],[-75.373667,38.706091],[-75.37366,38.706079],[-75.373658,38.706061],[-75.373656,38.706051],[-75.373646,38.706044],[-75.373648,38.706037],[-75.373645,38.706021],[-75.37364,38.706008],[-75.373636,38.705998],[-75.373622,38.705983],[-75.373616,38.705967],[-75.373613,38.705954],[-75.373615,38.705946],[-75.373612,38.705933],[-75.373596,38.705919],[-75.373593,38.705907],[-75.373599,38.7059],[-75.373601,38.705884],[-75.373602,38.705873],[-75.373589,38.705861],[-75.373583,38.705851],[-75.373579,38.705844],[-75.373582,38.705845],[-75.373586,38.705844],[-75.373581,38.70584],[-75.373584,38.705843],[-75.373584,38.705846],[-75.373585,38.705846],[-75.373584,38.705846],[-75.373584,38.705846],[-75.37359,38.705841],[-75.373585,38.705826],[-75.373583,38.705814],[-75.373585,38.705801],[-75.373587,38.70579],[-75.373591,38.705777],[-75.373595,38.705766],[-75.373605,38.705758],[-75.373611,38.705747],[-75.373618,38.705735],[-75.373624,38.705723],[-75.373631,38.70571],[-75.373638,38.705699],[-75.373644,38.705688],[-75.373651,38.705677],[-75.37366,38.705667],[-75.373669,38.705656],[-75.373682,38.705648],[-75.373694,38.705639],[-75.373706,38.705629],[-75.373715,38.705619],[-75.37372,38.705607],[-75.373722,38.705593],[-75.373726,38.70558],[-75.373726,38.705567],[-75.373729,38.705554],[-75.37373,38.705544],[-75.373734,38.705533],[-75.373736,38.705519],[-75.373743,38.705507],[-75.373751,38.705495],[-75.373755,38.705483],[-75.373759,38.705471],[-75.37376,38.705459],[-75.373763,38.705446],[-75.373764,38.705437],[-75.373767,38.705428],[-75.373765,38.705418],[-75.373766,38.705411],[-75.373768,38.705409],[-75.37377,38.705399],[-75.373781,38.705396],[-75.37378,38.705388],[-75.373775,38.705376],[-75.373779,38.705368],[-75.373787,38.705365],[-75.373791,38.705352],[-75.373798,38.705339],[-75.373819,38.70534],[-75.373837,38.705341],[-75.373853,38.705349],[-75.37387,38.705359],[-75.373882,38.705365],[-75.373901,38.705373],[-75.37391,38.705381],[-75.373924,38.705389],[-75.373938,38.705399],[-75.373953,38.705402],[-75.373967,38.705411],[-75.373981,38.705416],[-75.373996,38.705424],[-75.374007,38.70543],[-75.37402,38.705433],[-75.374037,38.705445],[-75.374049,38.705448],[-75.374065,38.705451],[-75.374076,38.70545],[-75.374087,38.705452],[-75.374104,38.705457],[-75.374118,38.705463],[-75.374136,38.705467],[-75.37415,38.70547],[-75.374169,38.705468],[-75.374184,38.705467],[-75.374199,38.705462],[-75.374215,38.70546],[-75.374225,38.705457],[-75.374238,38.705453],[-75.374253,38.70545],[-75.374273,38.705447],[-75.374291,38.705444],[-75.374302,38.705442],[-75.374318,38.705444],[-75.374338,38.705448],[-75.374352,38.705455],[-75.374368,38.705456],[-75.374385,38.705461],[-75.374401,38.705465],[-75.374416,38.705469],[-75.374427,38.70547],[-75.374442,38.705473],[-75.374457,38.705479],[-75.374471,38.705486],[-75.37448,38.705488],[-75.37448,38.705486],[-75.37448,38.705484],[-75.37448,38.705483],[-75.37448,38.705483],[-75.374476,38.705488],[-75.374483,38.705495],[-75.374483,38.705499],[-75.37448,38.705505],[-75.374466,38.705501],[-75.374476,38.7055],[-75.37449,38.705501],[-75.374504,38.705507],[-75.374512,38.705519],[-75.374516,38.705532],[-75.374517,38.705547],[-75.374521,38.705569],[-75.37452,38.705584],[-75.37452,38.705596],[-75.374517,38.705605],[-75.374514,38.705616],[-75.374514,38.70562],[-75.374505,38.705633],[-75.374494,38.705647],[-75.374486,38.705657],[-75.37448,38.705673],[-75.374475,38.705688],[-75.37447,38.705695],[-75.37446,38.705704],[-75.374454,38.705716],[-75.374441,38.705734],[-75.374434,38.705745],[-75.37443,38.70576],[-75.374425,38.705772],[-75.374426,38.705781],[-75.374432,38.705792],[-75.374437,38.705807],[-75.374438,38.705817],[-75.374443,38.70583],[-75.374444,38.70584],[-75.374444,38.705848],[-75.374447,38.705857],[-75.374448,38.705878],[-75.374451,38.705893],[-75.374451,38.705905],[-75.374452,38.705917],[-75.374453,38.705927],[-75.37445,38.705936],[-75.374453,38.705949],[-75.374454,38.705964],[-75.374455,38.705975],[-75.374454,38.705986],[-75.37445,38.706004],[-75.374449,38.706018],[-75.374443,38.706029],[-75.374437,38.706036],[-75.374431,38.706047],[-75.374426,38.706058],[-75.374423,38.706067],[-75.374418,38.706079],[-75.374417,38.706092],[-75.374413,38.7061],[-75.37441,38.706113],[-75.374408,38.706125],[-75.37441,38.706132],[-75.374399,38.706138],[-75.37439,38.706153],[-75.374383,38.706163],[-75.374378,38.706173],[-75.37437,38.706185],[-75.374359,38.706199],[-75.374356,38.706213],[-75.374355,38.706225],[-75.374352,38.706236],[-75.374344,38.706245],[-75.374337,38.706258],[-75.374334,38.706267],[-75.374324,38.706273],[-75.374319,38.706283],[-75.374314,38.706296],[-75.37431,38.706308],[-75.374301,38.706315],[-75.374291,38.706334],[-75.374286,38.706342],[-75.374274,38.706354],[-75.37426,38.706359],[-75.374247,38.70637],[-75.374242,38.706387],[-75.374232,38.706396],[-75.37422,38.706405],[-75.374207,38.706413],[-75.374199,38.706424],[-75.374187,38.706435],[-75.374181,38.706442],[-75.374172,38.706452],[-75.37416,38.706469],[-75.374152,38.70648],[-75.374146,38.706492],[-75.374138,38.706499],[-75.374131,38.706506],[-75.374125,38.706521],[-75.374113,38.706543],[-75.374117,38.706557],[-75.374113,38.70657],[-75.374098,38.706576],[-75.374078,38.706588],[-75.37407,38.706595],[-75.374064,38.706599],[-75.374052,38.706605],[-75.374038,38.706613],[-75.374034,38.706616],[-75.374039,38.706614],[-75.374043,38.706618],[-75.374042,38.706621],[-75.374048,38.706627],[-75.374055,38.706624],[-75.374056,38.706628],[-75.374062,38.706629],[-75.374059,38.706632],[-75.374065,38.70663],[-75.374047,38.706638],[-75.374031,38.706643],[-75.374012,38.706642],[-75.373995,38.706648],[-75.373975,38.706655],[-75.373962,38.706654],[-75.373941,38.706655],[-75.373922,38.70666],[-75.373905,38.706662],[-75.373892,38.706662],[-75.373874,38.706666],[-75.373854,38.706667],[-75.373841,38.706667],[-75.373827,38.706668],[-75.373808,38.706668],[-75.373789,38.706666],[-75.373776,38.706669],[-75.373762,38.706671],[-75.373748,38.706676],[-75.373737,38.706677],[-75.373719,38.706674],[-75.373704,38.706673],[-75.373688,38.706678],[-75.373665,38.70668],[-75.373644,38.706681],[-75.373628,38.706684],[-75.373611,38.706683],[-75.373594,38.706685],[-75.373577,38.706687],[-75.373559,38.706687],[-75.373544,38.706691],[-75.373529,38.706693],[-75.373514,38.706695],[-75.3735,38.706694],[-75.373484,38.706692],[-75.373471,38.706696],[-75.373459,38.706703],[-75.373442,38.706712],[-75.373435,38.706719],[-75.373426,38.706732],[-75.373411,38.706743],[-75.373401,38.706757],[-75.373387,38.706768],[-75.37338,38.70678],[-75.373371,38.706786],[-75.373365,38.706791],[-75.373361,38.706799],[-75.373362,38.70681],[-75.373352,38.706819],[-75.373338,38.706831],[-75.373335,38.706841],[-75.373328,38.706855],[-75.373323,38.706862],[-75.373315,38.706874],[-75.373304,38.706888],[-75.373298,38.706905],[-75.373289,38.706921],[-75.373285,38.706927],[-75.373276,38.706933],[-75.373268,38.706943],[-75.373254,38.706959],[-75.373248,38.706964],[-75.373243,38.706973],[-75.373235,38.706979],[-75.373225,38.706986],[-75.373215,38.706997],[-75.373208,38.70701],[-75.373204,38.707014],[-75.373195,38.707022],[-75.373181,38.707036],[-75.37317,38.707049],[-75.373163,38.70705],[-75.373150999999993,38.707058],[-75.373154,38.707064],[-75.373155,38.707063],[-75.373153,38.707071],[-75.373153,38.707071],[-75.373153,38.707069],[-75.373154,38.707068],[-75.373154,38.707068],[-75.373155,38.707069],[-75.373158,38.70707],[-75.373156,38.707072],[-75.373157,38.70708],[-75.373158,38.70709],[-75.373159,38.707098],[-75.373158,38.707096],[-75.37316,38.707095],[-75.373162,38.707095],[-75.373159,38.707094],[-75.373158,38.707094],[-75.37316,38.707089],[-75.373159,38.707093],[-75.373162,38.70709],[-75.373162,38.707088],[-75.373162,38.707088],[-75.373161,38.707087],[-75.37316,38.707087],[-75.373162,38.707085],[-75.373157,38.707087],[-75.373154,38.707084],[-75.373155,38.707085],[-75.373158,38.707086],[-75.373161,38.707087],[-75.373158,38.707087],[-75.373155,38.707088],[-75.373142,38.707088],[-75.373135,38.707086],[-75.373132,38.707085],[-75.373133,38.707087],[-75.373132,38.707087],[-75.373132,38.707086],[-75.373132,38.707088],[-75.37313,38.707088],[-75.373128,38.707086],[-75.373127,38.707086],[-75.373128,38.707086],[-75.373128,38.707086],[-75.373125,38.707086],[-75.373125,38.707086],[-75.373125,38.707086],[-75.373125,38.707086],[-75.373129,38.707086],[-75.373129,38.707086],[-75.373126,38.707084],[-75.373126,38.707084],[-75.373124,38.707083],[-75.373125,38.707085],[-75.373122,38.707083],[-75.373117,38.70708],[-75.373117,38.707083],[-75.373115,38.707082],[-75.373115,38.707081],[-75.37311,38.707083],[-75.373102,38.707084],[-75.373089,38.707086],[-75.373083,38.707084],[-75.373072,38.707084],[-75.373071,38.707083],[-75.37309,38.707079],[-75.373101,38.707072],[-75.373117,38.707071],[-75.373133,38.707068],[-75.373143,38.707063],[-75.37315,38.707066],[-75.373152,38.707068],[-75.373153,38.707069],[-75.373150999999993,38.707072],[-75.373141,38.707075],[-75.373131,38.707078],[-75.373116,38.707079],[-75.373103,38.707084],[-75.373086,38.707081],[-75.373073,38.707083],[-75.373057,38.707083],[-75.373041,38.707085],[-75.373025,38.707087],[-75.37301,38.707088],[-75.373002,38.70709],[-75.372981,38.707091],[-75.372961,38.707093],[-75.372944,38.707094],[-75.372929,38.707094],[-75.372921,38.707096],[-75.372913,38.707095],[-75.372889,38.707097],[-75.372874,38.707098],[-75.372863,38.707102],[-75.372849,38.707106],[-75.372837,38.707105],[-75.37282,38.707106],[-75.372802,38.707106],[-75.372783,38.707109],[-75.372766,38.707111],[-75.372746,38.707111],[-75.372725,38.707113],[-75.37271,38.707115],[-75.372689,38.707117],[-75.372676,38.707119],[-75.372659,38.70712],[-75.37264,38.707123],[-75.372621,38.707125],[-75.372608,38.707127],[-75.372599,38.707128],[-75.372586,38.707129],[-75.372566,38.707128],[-75.37255,38.707128],[-75.372535,38.707126],[-75.372526,38.707128],[-75.372514,38.707128],[-75.372495,38.707133],[-75.372476,38.707135],[-75.372461,38.707135],[-75.372437,38.70714],[-75.372425,38.70714],[-75.372403,38.707142],[-75.372389,38.707141],[-75.372372,38.707141],[-75.372355,38.707142],[-75.37234,38.707143],[-75.372326,38.707145],[-75.372312,38.707143],[-75.372298,38.707141],[-75.372285,38.707142],[-75.372274,38.707143],[-75.372259,38.707146],[-75.372242,38.707149],[-75.372221,38.707152],[-75.372209,38.707152],[-75.372192,38.707159],[-75.372175,38.707162],[-75.372158,38.707162],[-75.372141,38.707165],[-75.372128,38.707165],[-75.372112,38.707163],[-75.372097,38.707163],[-75.372081,38.707164],[-75.372065,38.707164],[-75.372051,38.707167],[-75.372036,38.707166],[-75.372022,38.707167],[-75.372003,38.707167],[-75.371988,38.707172],[-75.371974,38.707172],[-75.371956,38.707174],[-75.371938,38.707174],[-75.371922,38.707176],[-75.371902,38.707178999999996],[-75.371884,38.70718],[-75.371866,38.707177],[-75.371852,38.707178999999996],[-75.371837,38.707182],[-75.371822,38.707181],[-75.371807,38.707183],[-75.371792,38.707187],[-75.37178,38.707185],[-75.371767,38.707187],[-75.37176,38.707188],[-75.371752,38.707186],[-75.371732,38.707183],[-75.371712,38.707183],[-75.371695,38.707184],[-75.371677,38.707187],[-75.371661,38.707192],[-75.371642,38.707194],[-75.371624,38.707194],[-75.371607,38.707197],[-75.371589,38.707199],[-75.371573,38.707203],[-75.371558,38.707202],[-75.37155,38.707202],[-75.371545,38.707199],[-75.371537,38.707193],[-75.371522,38.707193],[-75.371503,38.707194],[-75.37148,38.707197],[-75.371463,38.7072],[-75.371446,38.707202],[-75.371428,38.707204],[-75.371411,38.70721],[-75.371392,38.707212],[-75.371379,38.707208],[-75.371366,38.707209],[-75.371354,38.707213],[-75.371338,38.707213],[-75.371321,38.707213],[-75.371307,38.70721],[-75.371293,38.707212],[-75.37128,38.707215],[-75.371258,38.707216],[-75.371243,38.707217],[-75.37123,38.70722],[-75.371215,38.707226],[-75.371201,38.707225],[-75.371178,38.707226],[-75.371168,38.707225],[-75.371151,38.707225],[-75.371133,38.707221],[-75.371102,38.707219],[-75.371096,38.707224],[-75.371083,38.707224],[-75.37107,38.707224],[-75.37105,38.707224],[-75.371037,38.707227],[-75.371022,38.707229],[-75.371015,38.707228],[-75.371004,38.707231],[-75.370988,38.707236],[-75.370972,38.707238],[-75.370953,38.707239],[-75.370935,38.70724],[-75.370913,38.707242],[-75.370897,38.707242],[-75.37088,38.707243],[-75.370853,38.707237],[-75.370841,38.707241],[-75.370828,38.707248],[-75.370816,38.707251],[-75.370812,38.707245],[-75.370799,38.707246],[-75.370782,38.707249],[-75.370767,38.707252],[-75.370753,38.707254],[-75.370737,38.707253],[-75.370718,38.707252],[-75.370701,38.707251],[-75.370682,38.707254],[-75.370666,38.707259],[-75.370652,38.707261],[-75.370632,38.707263],[-75.370616,38.707263],[-75.370601,38.707269],[-75.370586,38.707264],[-75.37057,38.707264],[-75.370555,38.707263],[-75.37054,38.707264],[-75.370531,38.707267],[-75.370523,38.707268],[-75.370513,38.707268],[-75.370499,38.70726],[-75.370481,38.707263],[-75.370457,38.707263],[-75.370443,38.707266],[-75.370427,38.70727],[-75.370413,38.707276],[-75.370399,38.707275],[-75.370383,38.707275],[-75.370371,38.707274],[-75.37034,38.707276],[-75.370327,38.707271],[-75.370309,38.707271],[-75.370294,38.707273],[-75.370279,38.707277],[-75.370264,38.707271],[-75.370247,38.70727],[-75.370233,38.707268],[-75.370222,38.707269],[-75.37021,38.707272],[-75.370192,38.707277],[-75.370175,38.707283],[-75.370159,38.707287],[-75.370141,38.707288],[-75.370125,38.707292],[-75.370107,38.707287],[-75.370101,38.707288],[-75.370095,38.707288],[-75.370078,38.707286],[-75.370067,38.707284],[-75.37005,38.707285],[-75.370039,38.707285],[-75.370025,38.707288],[-75.370013,38.707292],[-75.369997,38.707294],[-75.369982,38.707296],[-75.369963,38.707299],[-75.369943,38.707298],[-75.369926,38.707303],[-75.369905,38.707308],[-75.369886,38.707309],[-75.369869,38.70731],[-75.369852,38.707312],[-75.369835,38.707308],[-75.369818,38.707308],[-75.369801,38.707314],[-75.369784,38.707319],[-75.369766,38.707318],[-75.369747,38.707315],[-75.36973,38.70732],[-75.369714,38.707326],[-75.369697,38.707326],[-75.36968,38.707324],[-75.369665,38.707322],[-75.369648,38.707323],[-75.369633,38.707326],[-75.369617,38.707328],[-75.369599,38.707328],[-75.36958,38.707334],[-75.369566,38.707337],[-75.36955,38.707339],[-75.369535,38.707339],[-75.369519,38.707333],[-75.369502,38.707333],[-75.369487,38.70733],[-75.369471,38.707333],[-75.369456,38.707337],[-75.36944,38.707338],[-75.369427,38.70734],[-75.36941,38.707336],[-75.369395,38.707338],[-75.36938,38.707335],[-75.369363,38.707337],[-75.369349,38.707341],[-75.369337,38.707347],[-75.369325,38.707352],[-75.369307,38.70735],[-75.369292,38.707353],[-75.369275,38.707353],[-75.369259,38.70735],[-75.369241,38.70735],[-75.369224,38.707348],[-75.369207,38.707346],[-75.369191,38.707355],[-75.369178,38.707361],[-75.369163,38.707362],[-75.369146,38.707362],[-75.369131,38.707363],[-75.369115,38.707364],[-75.369098,38.707365],[-75.369083,38.707371],[-75.369068,38.707373],[-75.369052,38.707375],[-75.369037,38.70737],[-75.369023,38.707377],[-75.369007,38.707375999999996],[-75.368989,38.707371],[-75.368975,38.707371],[-75.36896,38.707373],[-75.368945,38.707371],[-75.368931,38.707372],[-75.368915,38.707375],[-75.3689,38.707374],[-75.368885,38.707375],[-75.368869,38.707375],[-75.368856,38.707379],[-75.36884,38.707383],[-75.368826,38.707386],[-75.368812,38.707391],[-75.368796,38.707392],[-75.368782,38.707393],[-75.368765,38.707389],[-75.368749,38.707382],[-75.368732,38.70738],[-75.368717,38.707377],[-75.368702,38.707382],[-75.368687,38.707386],[-75.368671,38.707392],[-75.368654,38.707394],[-75.36864,38.707396],[-75.368623,38.707397],[-75.368607,38.707402],[-75.368592,38.707403],[-75.368575,38.707405],[-75.368559,38.707406],[-75.368542,38.707406],[-75.368526,38.707401],[-75.368513,38.7074],[-75.368502,38.707399],[-75.368498,38.707398],[-75.368485,38.707395],[-75.368478,38.707398],[-75.368458,38.707399],[-75.368444,38.707399],[-75.368424,38.7074],[-75.368405,38.707404],[-75.36839,38.707407],[-75.368372,38.707403],[-75.368355,38.707401],[-75.368349,38.707401],[-75.368334,38.707402],[-75.368316,38.707399],[-75.368304,38.7074],[-75.368286,38.707396],[-75.36828,38.707395],[-75.368266,38.707394],[-75.368251,38.707392],[-75.368236,38.707394],[-75.368221,38.707401],[-75.368201,38.707405],[-75.368188,38.707408],[-75.368174,38.707413],[-75.368152,38.707415],[-75.368133,38.70742],[-75.368115,38.707426],[-75.368099,38.70743],[-75.368081,38.70743],[-75.368063,38.707428],[-75.368049,38.707428],[-75.368035,38.707422],[-75.368019,38.707413],[-75.368004,38.707411],[-75.367989,38.70741],[-75.367974,38.707415],[-75.36796,38.70742],[-75.367947,38.707425],[-75.367932,38.707428],[-75.367915,38.707422],[-75.3679,38.707418],[-75.367887,38.707415],[-75.367876,38.707418],[-75.367869,38.707426],[-75.36786,38.707432],[-75.36784,38.707434],[-75.367823,38.707426],[-75.367812,38.707413],[-75.367817,38.707394],[-75.367839,38.707378],[-75.367868,38.707378],[-75.367887,38.707378],[-75.367904,38.707375999999996],[-75.367919,38.707374],[-75.367935,38.707373],[-75.367949,38.707373],[-75.367961,38.707368],[-75.367975,38.707367],[-75.367988,38.70737],[-75.368,38.707371],[-75.368014,38.707371],[-75.368026,38.707369],[-75.368038,38.707369],[-75.368049,38.707367],[-75.368067,38.707364],[-75.368078,38.707363],[-75.368086,38.707358],[-75.368108,38.707356],[-75.368127,38.707358],[-75.368143,38.707354],[-75.368159,38.707353],[-75.368174,38.707354],[-75.368195,38.707355],[-75.368208,38.70735],[-75.368225,38.707347],[-75.368238,38.707346],[-75.368251,38.707345],[-75.36827,38.707342],[-75.368286,38.707341],[-75.368301,38.707337],[-75.368315,38.707334],[-75.368331,38.707333],[-75.368347,38.707338],[-75.368363,38.707337],[-75.368384,38.707334],[-75.368399,38.707332],[-75.368412,38.707329],[-75.36843,38.707326],[-75.368448,38.707326],[-75.368464,38.707322],[-75.368481,38.707315],[-75.368498,38.707314],[-75.368514,38.707311],[-75.368528,38.707311],[-75.368541,38.707309],[-75.368554,38.707311],[-75.368569,38.70731],[-75.36858,38.707309],[-75.368603,38.707306],[-75.36862,38.707301],[-75.368635,38.707298],[-75.368651,38.707296],[-75.368669,38.707291],[-75.368686,38.70729],[-75.368702,38.70729],[-75.368717,38.70729],[-75.368733,38.707289],[-75.368751,38.70729],[-75.368765,38.707292],[-75.368779,38.707285],[-75.368795,38.707283],[-75.368807,38.707282],[-75.368814,38.707278],[-75.368827,38.707273],[-75.368847,38.707269],[-75.368862,38.707266],[-75.368876,38.707266],[-75.368892,38.707267],[-75.368908,38.707268],[-75.368925,38.70727],[-75.368938,38.70727],[-75.368949,38.707268],[-75.368964,38.707265],[-75.368984,38.707263],[-75.368998,38.707261],[-75.369013,38.707262],[-75.369024,38.70727],[-75.369031,38.707272],[-75.369047,38.707271],[-75.369063,38.707273],[-75.369076,38.707265],[-75.369087,38.707262],[-75.369101,38.707261],[-75.36912,38.707262],[-75.369144,38.707262],[-75.369158,38.70726],[-75.369174,38.70726],[-75.369185,38.707259],[-75.369201,38.707256],[-75.369214,38.707252],[-75.369236,38.707246],[-75.369253,38.707247],[-75.369267,38.707247],[-75.369279,38.707248],[-75.369294,38.707251],[-75.369308,38.70725],[-75.369317,38.707246],[-75.36933,38.707245],[-75.369353,38.707246],[-75.369364,38.707237],[-75.369373,38.707231],[-75.369385,38.707229],[-75.369403,38.70723],[-75.369423,38.707232],[-75.369438,38.707232],[-75.369452,38.707231],[-75.369469,38.70723],[-75.369487,38.707231],[-75.369509,38.707233],[-75.369527,38.707232],[-75.369546,38.707231],[-75.369562,38.707227],[-75.369577,38.707226],[-75.369592,38.707226],[-75.369608,38.707224],[-75.369623,38.707224],[-75.369634,38.707219],[-75.36965,38.707212],[-75.369667,38.707209],[-75.369684,38.707205],[-75.369705,38.707204],[-75.369721,38.707204],[-75.369738,38.707205],[-75.369755,38.707211],[-75.369772,38.707216],[-75.369789,38.707216],[-75.369803,38.707215],[-75.369816,38.707216],[-75.36983,38.707216],[-75.369838,38.707214],[-75.36985,38.707212],[-75.369866,38.70721],[-75.369879,38.707208],[-75.369893,38.707209],[-75.369908,38.707207],[-75.369924,38.707204],[-75.36994,38.707203],[-75.369954,38.707202],[-75.36997,38.707202],[-75.369983,38.707204],[-75.369997,38.707204],[-75.370011,38.707204],[-75.370025,38.707204],[-75.370039,38.707201],[-75.370052,38.707199],[-75.370066,38.707199],[-75.370077,38.707198],[-75.370087,38.707198],[-75.370104,38.707198],[-75.370119,38.707198],[-75.370135,38.707199],[-75.370147,38.707198],[-75.370161,38.707196],[-75.370176,38.707194],[-75.370189,38.707193],[-75.370197,38.707195],[-75.370211,38.707191],[-75.370227,38.707187],[-75.370242,38.707184],[-75.370259,38.707181],[-75.370273,38.707182],[-75.370287,38.707183],[-75.370302,38.70718],[-75.37032,38.707178999999996],[-75.370334,38.707177],[-75.370349,38.707177],[-75.370361,38.707176],[-75.370376,38.707175],[-75.370389,38.707174],[-75.370398,38.707174],[-75.370405,38.707176],[-75.370413,38.707175],[-75.370425,38.707176],[-75.370438,38.707175],[-75.370454,38.707174],[-75.370467,38.707171],[-75.370482,38.707168],[-75.370498,38.707167],[-75.370513,38.707166],[-75.370527,38.707165],[-75.370544,38.707162],[-75.370559,38.707161],[-75.370573,38.707158],[-75.370588,38.707156],[-75.370603,38.707155],[-75.370617,38.707154],[-75.370632,38.707153],[-75.370647,38.707154],[-75.370662,38.707155],[-75.370675,38.707155],[-75.370692,38.707152],[-75.370703,38.707151],[-75.370718,38.707152],[-75.370735,38.707153],[-75.370752,38.707153],[-75.370765,38.707147],[-75.37078,38.707143],[-75.370798,38.707147],[-75.370814,38.707147],[-75.370827,38.707147],[-75.370844,38.707144],[-75.37086,38.707143],[-75.370877,38.707143],[-75.370894,38.707145],[-75.370907,38.707145],[-75.37092,38.707145],[-75.370937,38.70714],[-75.370954,38.70714],[-75.370967,38.707137],[-75.37098,38.707139],[-75.370997,38.707139],[-75.371016,38.707136],[-75.371032,38.707134],[-75.371051,38.707131],[-75.371066,38.70713],[-75.371086,38.70713],[-75.371102,38.707131],[-75.371117,38.707128],[-75.371134,38.707127],[-75.371148,38.707128],[-75.371168,38.707129],[-75.371183,38.707128],[-75.371198,38.707129],[-75.371216,38.70713],[-75.371232,38.707129],[-75.371247,38.707126],[-75.371264,38.707122],[-75.371281,38.707119],[-75.371294,38.70712],[-75.371311,38.70712],[-75.371327,38.707118],[-75.37134,38.707117],[-75.37135,38.707114],[-75.371369,38.707113],[-75.371387,38.707113],[-75.371404,38.707114],[-75.371422,38.707113],[-75.371438,38.707112],[-75.371454,38.707112],[-75.37147,38.707114],[-75.371485,38.707115],[-75.371501,38.707115],[-75.371516,38.707111],[-75.371529,38.70711],[-75.371545,38.707108],[-75.371562,38.707105],[-75.37158,38.707099],[-75.371595,38.707098],[-75.371612,38.707097],[-75.371627,38.707099],[-75.371637,38.7071],[-75.371654,38.707099],[-75.37167,38.707097],[-75.371684,38.707095],[-75.371702,38.707095],[-75.371718,38.707093],[-75.371733,38.707092],[-75.371739,38.707097],[-75.371761,38.707097],[-75.371773,38.707093],[-75.371787,38.707089],[-75.371803,38.707085],[-75.371819,38.707084],[-75.371838,38.707085],[-75.371861,38.70709],[-75.371876,38.707089],[-75.371892,38.707085],[-75.371907,38.707086],[-75.371924,38.707093],[-75.371939,38.707102],[-75.371954,38.707109],[-75.371973,38.70711],[-75.37199,38.707109],[-75.372006,38.707107],[-75.372023,38.707106],[-75.372039,38.7071],[-75.372054,38.707096],[-75.372073,38.70709],[-75.372089,38.707085],[-75.372102,38.707078],[-75.37212,38.707076],[-75.372136,38.707073],[-75.37215,38.707068],[-75.372163,38.707063],[-75.372178,38.707065],[-75.372201,38.707065],[-75.372216,38.707069],[-75.372234,38.707073],[-75.372249,38.707078],[-75.372265,38.70708],[-75.372281,38.707077],[-75.372298,38.707076],[-75.372315,38.707071],[-75.37233,38.707067],[-75.372343,38.707059],[-75.372356,38.707049],[-75.372374,38.707046],[-75.372392,38.707045],[-75.372412,38.70705],[-75.372428,38.707052],[-75.372444,38.70705],[-75.372461,38.707044],[-75.372476,38.707039],[-75.37249,38.707035],[-75.372503,38.707034],[-75.372515,38.70703],[-75.372528,38.707028],[-75.372544,38.707026],[-75.372561,38.707025],[-75.372576,38.707024],[-75.372591,38.707021],[-75.372608,38.707022],[-75.372625,38.707021],[-75.372641,38.707018],[-75.372658,38.707016],[-75.372674,38.707012],[-75.372688,38.707008],[-75.372701,38.707004],[-75.372716,38.706999],[-75.372728,38.706996],[-75.372739,38.706995],[-75.372747,38.706995],[-75.372746,38.706995],[-75.372754,38.706995],[-75.37278,38.70699],[-75.372792,38.706987],[-75.372808,38.706984],[-75.372821,38.706981],[-75.372838,38.706977],[-75.372853,38.706977],[-75.372867,38.706979],[-75.372878,38.706978],[-75.372895,38.706976],[-75.372906,38.706977],[-75.372919,38.706978],[-75.372937,38.706981],[-75.372943,38.706973],[-75.372958,38.706974],[-75.372977,38.706981],[-75.372993,38.706985],[-75.373006,38.706984],[-75.373022,38.706981],[-75.373028,38.706977],[-75.373044,38.706972],[-75.373058,38.706967],[-75.373075,38.706964],[-75.373086,38.706958],[-75.373092,38.70696],[-75.373109,38.706965],[-75.373129,38.706965],[-75.37313,38.706972],[-75.37314,38.706971],[-75.373162,38.706971],[-75.373173,38.706966],[-75.373179,38.706963],[-75.373185,38.706968],[-75.373173,38.706972],[-75.373175,38.706978],[-75.37318,38.706983],[-75.373191,38.706984],[-75.373199,38.706982],[-75.373181,38.706994],[-75.37318,38.706992],[-75.373176,38.70699],[-75.373177,38.706989],[-75.373173,38.706988],[-75.373172,38.706986],[-75.373182,38.706982],[-75.373185,38.706978],[-75.373175,38.706967],[-75.373183,38.706958],[-75.37319,38.706947],[-75.373208,38.706938],[-75.373208,38.706928],[-75.37322,38.706921],[-75.373225,38.706911],[-75.373236,38.706902],[-75.373249,38.706896],[-75.373263,38.706884],[-75.373269,38.706873],[-75.373281,38.706857],[-75.373291,38.706843],[-75.373297,38.706835],[-75.373299,38.706823],[-75.373311,38.706811],[-75.373314,38.706805],[-75.37332,38.706796],[-75.37333,38.706787],[-75.373338,38.706779],[-75.373345,38.706771],[-75.373358,38.706761],[-75.373366,38.706748],[-75.373384,38.706733],[-75.373392,38.706725],[-75.373403,38.706715],[-75.373419,38.706708],[-75.373433,38.706698],[-75.373446,38.706685],[-75.373466,38.706677],[-75.373484,38.706671],[-75.373505,38.706664],[-75.37352,38.706659],[-75.373539,38.706654],[-75.373558,38.706652],[-75.373578,38.706654],[-75.373593,38.706649],[-75.373608,38.706644],[-75.373621,38.706637],[-75.37364,38.706638],[-75.373655,38.706642],[-75.373667,38.706643],[-75.373674,38.706642],[-75.373685,38.706641],[-75.373704,38.706644],[-75.373723,38.706645],[-75.373739,38.706641],[-75.373758,38.706641],[-75.373772,38.706636],[-75.373785,38.706631],[-75.373807,38.706631],[-75.373821,38.706637],[-75.373838,38.70664],[-75.373851,38.706636],[-75.373864,38.706639],[-75.373871,38.706639],[-75.373883,38.706633],[-75.373896,38.706629],[-75.373916,38.706626],[-75.373932,38.706626],[-75.373941,38.706626],[-75.373958,38.706623],[-75.373967,38.706622],[-75.373984,38.706619],[-75.373992,38.706611],[-75.374007,38.706607],[-75.374019,38.706605],[-75.374031,38.706595],[-75.374044,38.706588],[-75.374053,38.706579],[-75.374066,38.706567],[-75.374075,38.706561],[-75.374081,38.706552],[-75.374084,38.706539],[-75.374089,38.706532],[-75.374094,38.706523],[-75.374107,38.706511],[-75.374115,38.706503],[-75.374116,38.706491],[-75.374121,38.706482],[-75.374134,38.706471],[-75.374144,38.70646],[-75.374152,38.706454],[-75.374164,38.70644],[-75.374175,38.706428],[-75.374178,38.706414],[-75.374179,38.706406],[-75.374188,38.706398],[-75.374199,38.706386],[-75.374211,38.706375],[-75.37422,38.706366],[-75.374222,38.706353],[-75.374229,38.706345],[-75.374237,38.706335],[-75.374245,38.706328],[-75.37425,38.706322],[-75.374258,38.706308],[-75.374266,38.706294],[-75.374273,38.706281],[-75.374288,38.706263],[-75.374294,38.706254],[-75.374302,38.70624],[-75.374304,38.706228],[-75.37432,38.706209],[-75.374329,38.7062],[-75.374339,38.706196],[-75.374341,38.70619],[-75.374346,38.706172],[-75.374352,38.706162],[-75.374356,38.706157],[-75.374363,38.706146],[-75.374375,38.706134],[-75.374377,38.706125],[-75.374375,38.706114],[-75.374377,38.706105],[-75.374376,38.706086],[-75.374386,38.706068],[-75.374392,38.706056],[-75.374394,38.706049],[-75.374402,38.706038],[-75.374408,38.706028],[-75.374415,38.706027],[-75.374416,38.706018],[-75.374417,38.706007],[-75.374421,38.705995],[-75.374421,38.705983],[-75.374421,38.705974],[-75.37442,38.705964],[-75.374423,38.705951],[-75.374422,38.705937],[-75.374424,38.70593],[-75.374424,38.705925],[-75.374425,38.705915],[-75.374424,38.705908],[-75.374418,38.705888],[-75.374412,38.70587],[-75.374408,38.705865],[-75.374392,38.70585],[-75.374384,38.705838],[-75.374383,38.705826],[-75.37439,38.705826],[-75.374395,38.70582],[-75.374399,38.705819],[-75.374401,38.705809],[-75.3744,38.70579],[-75.374398,38.705774],[-75.374397,38.705761],[-75.3744,38.70575],[-75.374405,38.705738],[-75.374414,38.705724],[-75.374416,38.705716],[-75.374421,38.705703],[-75.374425,38.705692],[-75.374431,38.705683],[-75.374435,38.705672],[-75.374442,38.70566],[-75.374448,38.705649],[-75.374454,38.705639],[-75.374461,38.70563],[-75.374465,38.70562],[-75.374473,38.70561],[-75.37448,38.705598],[-75.374485,38.705594],[-75.374487,38.705585],[-75.374486,38.705569],[-75.374495,38.705561],[-75.3745,38.705555],[-75.374502,38.705538],[-75.374509,38.705523],[-75.374516,38.705512],[-75.374523,38.705503],[-75.37453,38.705496],[-75.374533,38.70549],[-75.374539,38.705474],[-75.374545,38.705462],[-75.374559,38.705448],[-75.374565,38.705439],[-75.374572,38.705431],[-75.374582,38.705427],[-75.374589,38.705419],[-75.374597,38.705421],[-75.374593,38.705438],[-75.374582,38.705454],[-75.374571,38.705468],[-75.37456,38.705475],[-75.374549,38.705486],[-75.374541,38.705499],[-75.374545,38.705512],[-75.374546,38.705505],[-75.374546,38.705498],[-75.374545,38.705496],[-75.374545,38.705489],[-75.374555,38.705477],[-75.374554,38.705468],[-75.374564,38.705456],[-75.374571,38.705446],[-75.374577,38.705441],[-75.374583,38.705431],[-75.374588,38.705425],[-75.374595,38.705418],[-75.374592,38.705409],[-75.374596,38.705403],[-75.374606,38.705384],[-75.374617,38.705366],[-75.37463,38.705357],[-75.374635,38.705347],[-75.374643,38.705335],[-75.374653,38.705326],[-75.374657,38.705321],[-75.374666,38.705316],[-75.374669,38.70531],[-75.374669,38.705295],[-75.374671,38.70528],[-75.374673,38.705267],[-75.374677,38.705251],[-75.374679,38.705239],[-75.374682,38.705224],[-75.37469,38.705213],[-75.374692,38.705199],[-75.374693,38.705188],[-75.374691,38.705177],[-75.37469,38.705165],[-75.374692,38.705152],[-75.374692,38.70514],[-75.374692,38.705129],[-75.374694,38.705115],[-75.374694,38.705105],[-75.374697,38.705092],[-75.374701,38.705082],[-75.374703,38.705069],[-75.374699,38.705057],[-75.3747,38.705043],[-75.374697,38.705027],[-75.3747,38.705018],[-75.374701,38.705011],[-75.374702,38.705004],[-75.374701,38.704996],[-75.374697,38.704977],[-75.374695,38.704963],[-75.374698,38.704955],[-75.3747,38.704946],[-75.374697,38.704929],[-75.374699,38.704919],[-75.374708,38.704908],[-75.37471,38.704895],[-75.374708,38.704881],[-75.3747,38.704862],[-75.374695,38.704845],[-75.374693,38.704831],[-75.374693,38.704825],[-75.374695,38.704818],[-75.374697,38.704804],[-75.374698,38.704795],[-75.3747,38.704782],[-75.374703,38.704771],[-75.374705,38.704758],[-75.374706,38.704745],[-75.374703,38.704734],[-75.374701,38.704724],[-75.374699,38.704714],[-75.374693,38.70469],[-75.374685,38.70468],[-75.374681,38.704668],[-75.374677,38.704654],[-75.374673,38.70464],[-75.374671,38.70463],[-75.374665,38.704614],[-75.374659,38.704603],[-75.374656,38.70459],[-75.374655,38.70458],[-75.374659,38.704568],[-75.374661,38.704559],[-75.374663,38.70455],[-75.374662,38.704533],[-75.374662,38.704527],[-75.374659,38.70452],[-75.374657,38.704511],[-75.374654,38.704501],[-75.374649,38.704493],[-75.374647,38.704478],[-75.374645,38.704465],[-75.374641,38.704445],[-75.374644,38.704433],[-75.374645,38.70442],[-75.374639,38.70441],[-75.374639,38.704403],[-75.374639,38.704396],[-75.374636,38.704381],[-75.374635,38.704366],[-75.374636,38.704352],[-75.37464,38.704338],[-75.374637,38.70433],[-75.374636,38.70432],[-75.374634,38.704309],[-75.374632,38.704298],[-75.374631,38.704284],[-75.374635,38.704275],[-75.374634,38.704264],[-75.374637,38.704262],[-75.374642,38.704241],[-75.374647,38.704225],[-75.374651,38.704211],[-75.374652,38.704197],[-75.374652,38.704183],[-75.374653,38.704174],[-75.37466,38.704167],[-75.374661,38.704157],[-75.374664,38.704145],[-75.374667,38.704138],[-75.374667,38.704129],[-75.374669,38.704112],[-75.374671,38.704094],[-75.374671,38.704083],[-75.374669,38.704074],[-75.37467,38.704068],[-75.374668,38.704054],[-75.374671,38.704038],[-75.374668,38.704022],[-75.374662,38.704008],[-75.374654,38.703992],[-75.374643,38.703979],[-75.374644,38.703963],[-75.374638,38.703954],[-75.374637,38.703949],[-75.374639,38.703942],[-75.374638,38.703939],[-75.374644,38.703927],[-75.374643,38.703911],[-75.374646,38.703894],[-75.374646,38.70388],[-75.374645,38.703867],[-75.374644,38.703857],[-75.374643,38.703849],[-75.37464,38.703839],[-75.374638,38.703822],[-75.374632,38.703815],[-75.374633,38.703799],[-75.374628,38.703788],[-75.374624,38.703774],[-75.374624,38.703764],[-75.374628,38.703754],[-75.374632,38.703745],[-75.374628,38.703733],[-75.374627,38.703719],[-75.374628,38.703704],[-75.374632,38.703689],[-75.374636,38.703678],[-75.374643,38.703671],[-75.374643,38.703666],[-75.374647,38.703656],[-75.374651,38.703642],[-75.374656,38.703627],[-75.374662,38.703612],[-75.374671,38.703598],[-75.374674,38.703584],[-75.374674,38.70357],[-75.374683,38.703558],[-75.374685,38.703545],[-75.374691,38.703535],[-75.374695,38.703524],[-75.374697,38.70351],[-75.374702,38.703494],[-75.374708,38.703478],[-75.374717,38.70347],[-75.374722,38.703457],[-75.374727,38.703445],[-75.37473,38.70343],[-75.374738,38.703419],[-75.374744,38.703409],[-75.374754,38.703399],[-75.374761,38.703387],[-75.374765,38.70338],[-75.374777,38.703375],[-75.374786,38.703368],[-75.374801,38.703361],[-75.374816,38.703358],[-75.374828,38.703355],[-75.374841,38.703346],[-75.374851,38.703334],[-75.37486,38.703323],[-75.374871,38.703313],[-75.374883,38.703305],[-75.374899,38.703293],[-75.374909,38.703278],[-75.374917,38.703269],[-75.374924,38.703261],[-75.37492,38.703265],[-75.374929,38.703253],[-75.374937,38.703236],[-75.374939,38.703222],[-75.374942,38.703212],[-75.374947,38.703202],[-75.374958,38.70319],[-75.374964,38.703173],[-75.37496,38.703162],[-75.374959,38.70315],[-75.374963,38.703139],[-75.374957,38.703129],[-75.37496,38.703111],[-75.374958,38.703097],[-75.374962,38.703085],[-75.374972,38.703073],[-75.374979,38.703066],[-75.374984,38.703059],[-75.37499,38.70305],[-75.374994,38.703043],[-75.375006,38.703023],[-75.375013,38.703007],[-75.375017,38.702994],[-75.375022,38.702979],[-75.375024,38.702968],[-75.375026,38.702956],[-75.375035,38.702947],[-75.375043,38.70294],[-75.375044,38.702931],[-75.375054,38.702914],[-75.375063,38.7029],[-75.375065,38.702886],[-75.375071,38.702875],[-75.375082,38.70287],[-75.375091,38.702871],[-75.375102,38.702856],[-75.375106,38.702849],[-75.375108,38.702845],[-75.375115,38.702837],[-75.375121,38.702827],[-75.375128,38.702821],[-75.375136,38.702813],[-75.375145,38.702795],[-75.375147,38.702779],[-75.375149,38.702774],[-75.37515,38.702771],[-75.37516,38.702762],[-75.375161,38.702757],[-75.37517,38.702742],[-75.375175,38.702729],[-75.375185,38.70272],[-75.375195,38.70272],[-75.375196,38.702706],[-75.375206,38.702695],[-75.375218,38.702689],[-75.375232,38.702679],[-75.375246,38.702672],[-75.37526,38.702664],[-75.375276,38.702657],[-75.37529,38.702649],[-75.375304,38.702641],[-75.375334,38.702638],[-75.375363,38.70264],[-75.375382,38.702645],[-75.375388,38.702637],[-75.375389,38.70263],[-75.375397,38.702624],[-75.37541,38.702623],[-75.375426,38.702622],[-75.375441,38.70262],[-75.375461,38.702616],[-75.375473,38.70261],[-75.375502,38.702602],[-75.375524,38.702594],[-75.375533,38.702593],[-75.375542,38.702592],[-75.375552,38.702588],[-75.375556,38.70258],[-75.375566,38.70257],[-75.375575,38.702559],[-75.375586,38.702543],[-75.375601,38.702534],[-75.375618,38.702526],[-75.375631,38.702516],[-75.375639,38.702513],[-75.375647,38.702512],[-75.375655,38.702512],[-75.375663,38.702506],[-75.375674,38.702498],[-75.375691,38.702481],[-75.375701,38.702468],[-75.375711,38.702458],[-75.375718,38.702454],[-75.375734,38.702441],[-75.375741,38.702436],[-75.375745,38.702426],[-75.375756,38.702413],[-75.375766,38.702402],[-75.37577,38.702406],[-75.375778,38.702413],[-75.375788,38.702407],[-75.375799,38.702397],[-75.375822,38.702384],[-75.375839,38.702369],[-75.375856,38.702358],[-75.375878,38.702352],[-75.375895,38.702354],[-75.375901,38.702355],[-75.375906,38.702349],[-75.375911,38.702346],[-75.375924,38.702337],[-75.375944,38.702332],[-75.375963,38.702322],[-75.375976,38.702316],[-75.375988,38.702308],[-75.376002,38.702304],[-75.376013,38.702299],[-75.376023,38.702293],[-75.376035,38.702287],[-75.376044,38.702281],[-75.376051,38.702272],[-75.376063,38.702263],[-75.376071,38.702256],[-75.376066,38.702251],[-75.376053,38.702243],[-75.376045,38.702234],[-75.376047,38.702221],[-75.376051,38.702217],[-75.376047,38.702203],[-75.376033,38.702188],[-75.376019,38.702173],[-75.376011,38.702167],[-75.376002,38.702157],[-75.376006,38.702149],[-75.376014,38.702134],[-75.376014,38.702123],[-75.376015,38.702105],[-75.376015,38.702093],[-75.376019,38.702081],[-75.376021,38.702072],[-75.376025,38.702052],[-75.376024,38.70204],[-75.376025,38.702029],[-75.376027,38.702014],[-75.376025,38.702002],[-75.376029,38.701987],[-75.376041,38.701974],[-75.376052,38.70196],[-75.376066,38.701949],[-75.37607,38.701934],[-75.376071,38.701923],[-75.376071,38.70191],[-75.376079,38.701902],[-75.376086,38.701892],[-75.376086,38.701881],[-75.376088,38.701869],[-75.37609,38.701863],[-75.376092,38.701858],[-75.376091,38.701842],[-75.376093,38.701829],[-75.376094,38.701817],[-75.376094,38.70181],[-75.376096,38.701798],[-75.376097,38.701778],[-75.376097,38.701763],[-75.376106,38.701749],[-75.376114,38.701738],[-75.376127,38.701728],[-75.37614,38.701715],[-75.37615,38.701705],[-75.376156,38.701695],[-75.376161,38.701684],[-75.376163,38.701681],[-75.376168,38.701674],[-75.376176,38.701664],[-75.376182,38.701655],[-75.37619,38.701642],[-75.376194,38.701637],[-75.376204,38.701625],[-75.37621,38.701607],[-75.376214,38.701589],[-75.37622,38.701571],[-75.376236,38.701557],[-75.37624,38.701543],[-75.376247,38.701535],[-75.376251,38.701527],[-75.376263,38.701516],[-75.376272,38.701506],[-75.376286,38.701498],[-75.37631,38.701495],[-75.376327,38.701493],[-75.376341,38.701485],[-75.37635,38.701474],[-75.376361,38.701466],[-75.376376,38.701463],[-75.376392,38.701458],[-75.376405,38.701452],[-75.376419,38.701451],[-75.376428,38.701448],[-75.376435,38.701445],[-75.376446,38.701437],[-75.376465,38.701425],[-75.376473,38.701413],[-75.376481,38.701397],[-75.376495,38.70139],[-75.37651,38.701383],[-75.376522,38.701373],[-75.376527,38.701362],[-75.376529,38.701353],[-75.376533,38.701346],[-75.376531,38.701356],[-75.376538,38.701357],[-75.376547,38.701355],[-75.376562,38.701349],[-75.376575,38.701344],[-75.376578,38.701346],[-75.376577,38.701348],[-75.376577,38.701348],[-75.376574,38.701345],[-75.376577,38.70134],[-75.376584,38.701323],[-75.376612,38.701316],[-75.376625,38.701317],[-75.376629,38.701307],[-75.376634,38.701303],[-75.376638,38.701303],[-75.376648,38.701305],[-75.37665,38.701306],[-75.37667,38.701303],[-75.376685,38.701311],[-75.376702,38.701317],[-75.376717,38.701317],[-75.376732,38.701322],[-75.376748,38.701323],[-75.376764,38.701325],[-75.376773,38.701327],[-75.376773,38.701327],[-75.376767,38.701328],[-75.376769,38.701329],[-75.376768,38.701333],[-75.376767,38.701333],[-75.376765,38.701333],[-75.376763,38.701333],[-75.376658,38.701311],[-75.376669,38.701316],[-75.376678,38.70132],[-75.376692,38.701325],[-75.376698,38.701333],[-75.376714,38.701338],[-75.376736,38.701342],[-75.37675,38.701349],[-75.376763,38.701349],[-75.376774,38.701346],[-75.376785,38.701344],[-75.376805,38.701347],[-75.376825,38.701352],[-75.376837,38.701357],[-75.376845,38.701365],[-75.376861,38.701368],[-75.376877,38.701371],[-75.376894,38.701375],[-75.376908,38.701377],[-75.376917,38.701379],[-75.37693,38.701379],[-75.376942,38.701383],[-75.376962,38.701391],[-75.376971,38.701394],[-75.376973,38.701397],[-75.376969,38.701394],[-75.376971,38.70139],[-75.376975,38.701392],[-75.376972,38.701391],[-75.376973,38.701391],[-75.376979,38.701391],[-75.376996,38.701398],[-75.377007,38.701393],[-75.377029,38.701394],[-75.37704,38.701397],[-75.377059,38.701401],[-75.377069,38.701401],[-75.377085,38.701406],[-75.377107,38.701407],[-75.377127,38.70141],[-75.377148,38.701417],[-75.377169,38.701418],[-75.377189,38.701423],[-75.377199,38.701421],[-75.377205,38.701413],[-75.377218,38.701407],[-75.377224,38.701399],[-75.377236,38.701394],[-75.377256,38.701379],[-75.377261,38.70137],[-75.377278,38.701361],[-75.377289,38.701352],[-75.377294,38.701337],[-75.377298,38.701321],[-75.377302,38.701309],[-75.377303,38.701295],[-75.377306,38.701281],[-75.377307,38.701267],[-75.377309,38.701255],[-75.377311,38.701241],[-75.37731,38.70123],[-75.377308,38.701217],[-75.377306,38.701204],[-75.377303,38.70119],[-75.377302,38.701177],[-75.377304,38.701164],[-75.377306,38.701153],[-75.377298,38.70114],[-75.37729,38.70113],[-75.377284,38.701118],[-75.377277,38.701106],[-75.377277,38.701095],[-75.377276,38.701084],[-75.377274,38.701072],[-75.377271,38.701059],[-75.377267,38.701047],[-75.377266,38.701035],[-75.37726,38.701023],[-75.377256,38.70101],[-75.377254,38.700999],[-75.37725,38.700988],[-75.377248,38.700975],[-75.377244,38.700962],[-75.37724,38.70095],[-75.377237,38.700938],[-75.377234,38.700925],[-75.377233,38.700912],[-75.377231,38.700899],[-75.377228,38.700886],[-75.377228,38.700874],[-75.377227,38.700862],[-75.377228,38.700849],[-75.377229,38.700837],[-75.377229,38.700826],[-75.37723,38.700814],[-75.377231,38.700801],[-75.377232,38.70079],[-75.37723,38.700777],[-75.377225,38.700766],[-75.37722,38.700758],[-75.377219,38.700752],[-75.377219,38.70074],[-75.377215,38.700721],[-75.377212,38.700712],[-75.37721,38.700701],[-75.377207,38.700688],[-75.377206,38.700676],[-75.3772,38.700663],[-75.377195,38.70065],[-75.377193,38.700638],[-75.377195,38.700624],[-75.377192,38.700612],[-75.37719,38.700598],[-75.377184,38.700587],[-75.377181,38.700575],[-75.377177,38.700565],[-75.377175,38.700553],[-75.377175,38.700542],[-75.37718,38.70053],[-75.37718,38.700519],[-75.377175,38.700507],[-75.377178,38.700481],[-75.377177,38.700471],[-75.377173,38.700458],[-75.377171,38.700446],[-75.377164,38.700435],[-75.377162,38.700423],[-75.377161,38.700411],[-75.377162,38.700399],[-75.377166,38.700385],[-75.377173,38.700372],[-75.377172,38.700359],[-75.377178,38.700348],[-75.377182,38.700333],[-75.377177,38.70032],[-75.377176,38.70031],[-75.377176,38.700299],[-75.377175,38.700288],[-75.37718,38.700283],[-75.377185,38.70028],[-75.377187,38.70027],[-75.37719,38.700265],[-75.377189,38.70025],[-75.377194,38.700239],[-75.377199,38.700219],[-75.377207,38.700208],[-75.377208,38.700195],[-75.377207,38.700181],[-75.377208,38.700167],[-75.377208,38.700156],[-75.377207,38.700142],[-75.377208,38.700129],[-75.377209,38.700118],[-75.377214,38.700103],[-75.377222,38.700089],[-75.377229,38.700074],[-75.377235,38.700063],[-75.377237,38.70005],[-75.377239,38.700038],[-75.37724,38.700026],[-75.377244,38.700016],[-75.377242,38.700004],[-75.377244,38.699991],[-75.377245,38.699979],[-75.377247,38.699965],[-75.377248,38.69995],[-75.37725,38.699937],[-75.377254,38.699923],[-75.377257,38.69991],[-75.377256,38.699896],[-75.377257,38.699883],[-75.377261,38.699871],[-75.377262,38.699857],[-75.377262,38.699844],[-75.377263,38.69983],[-75.377264,38.699817],[-75.377266,38.699805],[-75.377266,38.699794],[-75.377267,38.699783],[-75.377272,38.699771],[-75.377276,38.699758],[-75.377276,38.699746],[-75.377278,38.699734],[-75.377278,38.699721],[-75.377278,38.699709],[-75.377283,38.699697],[-75.377286,38.699685],[-75.377292,38.699675],[-75.377288,38.699664],[-75.377288,38.699654],[-75.37729,38.699646],[-75.377295,38.699634],[-75.377299,38.699619],[-75.3773,38.699607],[-75.377301,38.699595],[-75.3773,38.699582],[-75.377301,38.699569],[-75.377303,38.699555],[-75.377307,38.69954],[-75.377309,38.699527],[-75.377309,38.699515],[-75.377306,38.699503],[-75.377304,38.699492],[-75.377305,38.69948],[-75.377312,38.699467],[-75.377315,38.699453],[-75.377316,38.699439],[-75.37732,38.699426],[-75.377322,38.699413],[-75.377326,38.699402],[-75.377328,38.69939],[-75.37733,38.699379],[-75.37733,38.699367],[-75.377331,38.699356],[-75.377334,38.699344],[-75.377335,38.699331],[-75.377335,38.699319],[-75.377335,38.699307],[-75.377339,38.699294],[-75.377341,38.699282],[-75.377342,38.699272],[-75.377344,38.699259],[-75.37735,38.699248],[-75.377351,38.699236],[-75.377348,38.699223],[-75.377347,38.69921],[-75.377349,38.699198],[-75.377351,38.699186],[-75.377359,38.699174],[-75.377363,38.699162],[-75.377366,38.699151],[-75.377367,38.699138],[-75.377367,38.699125],[-75.37737,38.699112],[-75.377367,38.699099],[-75.377366,38.699085],[-75.377366,38.699073],[-75.377368,38.699061],[-75.377373,38.699035],[-75.377377,38.699023],[-75.377378,38.69901],[-75.377379,38.698998],[-75.377383,38.698988],[-75.377382,38.698976],[-75.377382,38.698964],[-75.377384,38.698951],[-75.377389,38.69894],[-75.37739,38.698928],[-75.377392,38.698916],[-75.377397,38.698906],[-75.377399,38.698894],[-75.377403,38.698882],[-75.37741,38.698872],[-75.377415,38.698861],[-75.377418,38.698849],[-75.377414,38.698836],[-75.377419,38.698823],[-75.377424,38.69881],[-75.377427,38.698797],[-75.377425,38.698784],[-75.377422,38.698771],[-75.377422,38.698758],[-75.377424,38.698746],[-75.377426,38.698734],[-75.377428,38.698721],[-75.377434,38.698708],[-75.377438,38.698696],[-75.377439,38.698683],[-75.377438,38.69867],[-75.377437,38.698657],[-75.37744,38.698645],[-75.377442,38.698633],[-75.377438,38.698622],[-75.377434,38.698611],[-75.377428,38.6986],[-75.377417,38.698592],[-75.37741,38.698582],[-75.377404,38.69857],[-75.377392,38.698564],[-75.377382,38.698556],[-75.377367,38.698546],[-75.377359,38.698534],[-75.377347,38.698528],[-75.377335,38.698525],[-75.377336,38.698526],[-75.377329,38.69852],[-75.377316,38.698512],[-75.377307,38.698503],[-75.377297,38.698496],[-75.377281,38.698488],[-75.377262,38.69848],[-75.377248,38.698476],[-75.377234,38.69847],[-75.377218,38.698467],[-75.377207,38.698473],[-75.377197,38.698477],[-75.377179,38.69847],[-75.37716,38.698466],[-75.377143,38.698465],[-75.377128,38.698463],[-75.377111,38.698465],[-75.377095,38.698465],[-75.377077,38.69847],[-75.377058,38.698473],[-75.37704,38.698474],[-75.377023,38.698475],[-75.377007,38.698476],[-75.376992,38.698481],[-75.376976,38.698482],[-75.376961,38.698484],[-75.376945,38.698482],[-75.376931,38.698479],[-75.376922,38.698474],[-75.376909,38.698475],[-75.3769,38.698476],[-75.376883,38.698481],[-75.376871,38.69848],[-75.376848,38.698485],[-75.376831,38.69849],[-75.376817,38.69849],[-75.376803,38.698487],[-75.376792,38.698488],[-75.376783,38.698487],[-75.376771,38.698489],[-75.376758,38.698491],[-75.376747,38.698492],[-75.376732,38.698496],[-75.376709,38.698498],[-75.376693,38.698491],[-75.376678,38.698493],[-75.376661,38.698494],[-75.37665,38.6985],[-75.376637,38.698512],[-75.376625,38.698517],[-75.376608,38.698522],[-75.376594,38.698524],[-75.376588,38.698521],[-75.376568,38.698523],[-75.376548,38.69853],[-75.376531,38.698538],[-75.376513,38.698543],[-75.376503,38.698542],[-75.376491,38.69854],[-75.376479,38.698541],[-75.376465,38.69854],[-75.376451,38.698543],[-75.376414,38.698558],[-75.376398,38.698558],[-75.376382,38.69856],[-75.376367,38.698562],[-75.376353,38.698575],[-75.376346,38.698588],[-75.376336,38.698598],[-75.376332,38.698598],[-75.376326,38.6986],[-75.376307,38.698599],[-75.376289,38.698606],[-75.376274,38.698609],[-75.376263,38.698612],[-75.376247,38.69862],[-75.376234,38.698622],[-75.37622,38.698623],[-75.376212,38.698626],[-75.3762,38.698633],[-75.376184,38.698641],[-75.37617,38.698643],[-75.376157,38.698644],[-75.376138,38.698647],[-75.376124,38.698649],[-75.376105,38.698652],[-75.376084,38.698656],[-75.376069,38.698661],[-75.376054,38.698666],[-75.376042,38.698668],[-75.37603,38.698673],[-75.376013,38.698675],[-75.376,38.698679],[-75.375988,38.698681],[-75.375973,38.698685],[-75.375957,38.698688],[-75.375946,38.698692],[-75.375925,38.698699],[-75.375913,38.698711],[-75.375901,38.698716],[-75.375886,38.698719],[-75.37587,38.698722],[-75.375853,38.698724],[-75.375838,38.698727],[-75.375826,38.698735],[-75.375812,38.698739],[-75.375793,38.698738],[-75.375781,38.698748],[-75.375749,38.698752],[-75.375735,38.698752],[-75.37572,38.698753],[-75.375704,38.698757],[-75.375688,38.698763],[-75.375672,38.698764],[-75.375659,38.698773],[-75.375644,38.698779],[-75.375628,38.69878],[-75.375612,38.698778],[-75.375597,38.698784],[-75.375582,38.698792],[-75.375568,38.698798],[-75.375555,38.698803],[-75.375543,38.698805],[-75.37553,38.698808],[-75.375515,38.698809],[-75.375498,38.698814],[-75.375481,38.698816],[-75.375465,38.698822],[-75.375448,38.698827],[-75.37543,38.698831],[-75.375413,38.698836],[-75.375397,38.698841],[-75.375383,38.698848],[-75.375366,38.698853],[-75.375349,38.698855],[-75.375332,38.698859],[-75.375318,38.698863],[-75.375304,38.698865],[-75.375289,38.698871],[-75.375274,38.698878],[-75.375259,38.698885],[-75.375244,38.698889],[-75.37523,38.698894],[-75.37522,38.698903],[-75.375209,38.698907],[-75.375195,38.698909],[-75.375161,38.698917],[-75.375143,38.698919],[-75.37513,38.698929],[-75.375114,38.698934],[-75.375097,38.698935],[-75.375086,38.69894],[-75.375071,38.698944],[-75.375056,38.698945],[-75.375039,38.698949],[-75.375023,38.698952],[-75.375008,38.698959],[-75.374993,38.698964],[-75.374977,38.698972],[-75.37496,38.698974],[-75.374945,38.69898],[-75.37493,38.698985],[-75.374917,38.698991],[-75.374902,38.698995],[-75.374889,38.698995],[-75.374872,38.698997],[-75.374857,38.699002],[-75.374842,38.699005],[-75.374824,38.699008],[-75.374809,38.699008],[-75.374793,38.699011],[-75.374777,38.699015],[-75.37476,38.699017],[-75.374742,38.699019],[-75.374729,38.699029],[-75.374713,38.699029],[-75.374698,38.699033],[-75.374683,38.699035],[-75.374669,38.699043],[-75.374661,38.69905],[-75.374649,38.699056],[-75.374636,38.699063],[-75.374626,38.699071],[-75.374615,38.699081],[-75.374602,38.69909],[-75.374593,38.699102],[-75.374586,38.699115],[-75.374578,38.699127],[-75.374572,38.69914],[-75.374562,38.699152],[-75.374553,38.699163],[-75.374556,38.699177],[-75.374554,38.699189],[-75.374547,38.6992],[-75.374536,38.699212],[-75.374528,38.699223],[-75.374524,38.699235],[-75.374516,38.699245],[-75.374508,38.699255],[-75.374501,38.699266],[-75.374489,38.699277],[-75.374468,38.69928],[-75.374462,38.699292],[-75.374452,38.699303],[-75.374447,38.699314],[-75.374435,38.699324],[-75.374418,38.699329],[-75.374405,38.699335],[-75.374391,38.699338],[-75.374379,38.699346],[-75.374366,38.699351],[-75.374354,38.699359],[-75.374346,38.699368],[-75.374336,38.699377],[-75.374329,38.699383],[-75.374315,38.699383],[-75.374296,38.699388],[-75.37428,38.699391],[-75.374268,38.699404],[-75.374264,38.699412],[-75.374251,38.699412],[-75.374233,38.69941],[-75.374219,38.699413],[-75.374208,38.699416],[-75.374194,38.699421],[-75.374178,38.699431],[-75.374163,38.699436],[-75.374145,38.699437],[-75.374132,38.699442],[-75.374121,38.69945],[-75.374106,38.699456],[-75.374092,38.699464],[-75.374079,38.699474],[-75.374065,38.699478],[-75.374053,38.699486],[-75.374039,38.699494],[-75.374026,38.6995],[-75.374014,38.699506],[-75.373999,38.699512],[-75.373983,38.699517],[-75.373967,38.699523],[-75.373954,38.699531],[-75.373945,38.699542],[-75.373937,38.699554],[-75.373923,38.699562],[-75.373913,38.699571],[-75.373906,38.699581],[-75.373903,38.699593],[-75.373896,38.699603],[-75.373888,38.699611],[-75.373881,38.699621],[-75.373883,38.699633],[-75.373876,38.699642],[-75.373865,38.699652],[-75.373861,38.699664],[-75.373856,38.699677],[-75.373852,38.699687],[-75.373849,38.699699],[-75.373847,38.69971],[-75.373842,38.699717],[-75.373837,38.699724],[-75.373837,38.699734],[-75.37384,38.699745],[-75.373848,38.699756],[-75.373849,38.699767],[-75.373848,38.699779],[-75.373848,38.699793],[-75.373852,38.699801],[-75.37386,38.699806],[-75.373864,38.699823],[-75.373868,38.699833],[-75.373876,38.699847],[-75.373879,38.699862],[-75.373876,38.699876],[-75.373886,38.699885],[-75.373894,38.699903],[-75.373902,38.699913],[-75.373912,38.699917],[-75.373923,38.699925],[-75.373929,38.699934],[-75.37394,38.699947],[-75.373947,38.699959],[-75.373959,38.699969],[-75.373972,38.699976],[-75.373979,38.699989],[-75.373983,38.700003],[-75.37399,38.700014],[-75.373996,38.700027],[-75.374001,38.70004],[-75.374006,38.700053],[-75.374011,38.700065],[-75.37402,38.700077],[-75.374028,38.700086],[-75.374034,38.700096],[-75.374042,38.7001],[-75.374045,38.700111],[-75.374051,38.700125],[-75.374043,38.700138],[-75.37406,38.700158],[-75.374071,38.700165],[-75.374081,38.70017],[-75.374097,38.70018],[-75.374112,38.700185],[-75.374113,38.700193],[-75.374102,38.700203],[-75.374105,38.700214],[-75.374115,38.700226],[-75.374121,38.700234],[-75.374128,38.700244],[-75.374134,38.700253],[-75.374146,38.700259],[-75.374161,38.700268],[-75.374169,38.700277],[-75.374177,38.700286],[-75.374186,38.700295],[-75.374189,38.70031],[-75.374193,38.700315],[-75.374199,38.700322],[-75.374203,38.700332],[-75.374209,38.700338],[-75.374219,38.700347],[-75.374232,38.700353],[-75.374234,38.700356],[-75.374231,38.700353],[-75.374233,38.700349],[-75.37423,38.700354],[-75.374236,38.700365],[-75.374243,38.700378],[-75.37425,38.700387],[-75.37426,38.700394],[-75.374275,38.700398],[-75.374274,38.700402],[-75.374277,38.700405],[-75.374276,38.700408],[-75.374287,38.700415],[-75.37429,38.700414],[-75.37429,38.700409],[-75.374287,38.700408],[-75.374292,38.700408],[-75.374294,38.700408],[-75.374301,38.70041],[-75.374298,38.700411],[-75.374303,38.700415],[-75.374301,38.700415],[-75.374299,38.700416],[-75.374305,38.700412],[-75.374305,38.700421],[-75.374297,38.700414],[-75.374308,38.700421],[-75.374314,38.700425],[-75.374326,38.70043],[-75.374339,38.700437],[-75.374353,38.700444],[-75.374363,38.70045],[-75.374373,38.700456],[-75.374386,38.700464],[-75.3744,38.700471],[-75.374411,38.700478],[-75.374424,38.700482],[-75.374438,38.700489],[-75.374448,38.700495],[-75.374457,38.700503],[-75.374468,38.700508],[-75.374482,38.700513],[-75.374495,38.700517],[-75.374507,38.700524],[-75.374519,38.700528],[-75.374533,38.700534],[-75.374544,38.700539],[-75.374555,38.700545],[-75.37457,38.700551],[-75.374583,38.700554],[-75.374596,38.700559],[-75.374608,38.700566],[-75.374619,38.700572],[-75.374633,38.700577],[-75.374647,38.700582],[-75.374664,38.700587],[-75.374677,38.700592],[-75.37469,38.700597],[-75.374702,38.700603],[-75.374717,38.700609],[-75.374732,38.700614],[-75.374745,38.700619],[-75.37476,38.700624],[-75.374774,38.700629],[-75.374796,38.70064],[-75.374804,38.700641],[-75.374816,38.700647],[-75.374819,38.700649],[-75.374835,38.700663],[-75.374852,38.700668],[-75.374866,38.700675],[-75.374883,38.700678],[-75.374904,38.700685],[-75.374916,38.700684],[-75.374928,38.700694],[-75.374943,38.700705],[-75.374952,38.700711],[-75.374963,38.700715],[-75.374982,38.700724],[-75.374993,38.700721],[-75.375014,38.700726],[-75.375027,38.70073],[-75.375045,38.700738],[-75.375058,38.700744],[-75.375075,38.700749],[-75.37508,38.700757],[-75.375095,38.700769],[-75.375106,38.700773],[-75.375118,38.70078],[-75.375129,38.700786],[-75.375141,38.700791],[-75.375157,38.700795],[-75.375172,38.700803],[-75.375187,38.700799],[-75.37521,38.700806],[-75.375225,38.700813],[-75.375242,38.70082],[-75.375253,38.700827],[-75.375268,38.700834],[-75.375281,38.700839],[-75.375294,38.700845],[-75.37531,38.700849],[-75.375325,38.700856],[-75.37534,38.70086],[-75.375351,38.700864],[-75.37536,38.700866],[-75.375377,38.70087],[-75.37539,38.700876],[-75.3754,38.700886],[-75.37541,38.700894],[-75.375427,38.700901],[-75.375446,38.700905],[-75.375464,38.700909],[-75.375475,38.700917],[-75.375487,38.700924],[-75.375505,38.70093],[-75.375522,38.700933],[-75.375541,38.700941],[-75.375555,38.700952],[-75.37557,38.700963],[-75.375585,38.700967],[-75.3756,38.700976],[-75.375617,38.700983],[-75.375631,38.70099],[-75.375646,38.700999],[-75.375661,38.701005],[-75.375674,38.701011],[-75.375687,38.70102],[-75.3757,38.701026],[-75.375712,38.701028],[-75.37572,38.701034],[-75.375718,38.701044],[-75.375722,38.701053],[-75.375726,38.701057],[-75.375739,38.701059],[-75.375746,38.701061],[-75.375746,38.70106],[-75.375756,38.701063],[-75.375754,38.701062],[-75.375744,38.701058],[-75.375739,38.701058],[-75.375739,38.701056],[-75.375741,38.701057],[-75.37574,38.701057],[-75.375743,38.701056],[-75.375748,38.701057],[-75.375768,38.701061],[-75.375778,38.701064],[-75.375789,38.701064],[-75.375797,38.701077],[-75.375805,38.701092],[-75.375804,38.701104],[-75.375804,38.70113],[-75.375799,38.701144],[-75.37579,38.701149],[-75.375784,38.701169],[-75.375774,38.70119],[-75.375767,38.701192],[-75.375757,38.7012],[-75.375746,38.701208],[-75.375734,38.701224],[-75.375726,38.701237],[-75.375716,38.701246],[-75.375705,38.701257],[-75.375693,38.701273],[-75.375675,38.701277],[-75.375646,38.701285],[-75.375623,38.701292],[-75.375612,38.701295],[-75.375599,38.701298],[-75.375587,38.701299],[-75.375573,38.701298],[-75.375561,38.701301],[-75.375542,38.701303],[-75.375527,38.701304],[-75.375513,38.70131],[-75.375497,38.701315],[-75.375485,38.701321],[-75.375473,38.701329],[-75.375456,38.70134],[-75.375441,38.70135],[-75.375426,38.701359],[-75.375412,38.70137],[-75.375399,38.701379],[-75.375387,38.701388],[-75.375375,38.701397],[-75.375367,38.701409],[-75.375362,38.701421],[-75.375355,38.701432],[-75.375347,38.701441],[-75.375339,38.701451],[-75.375333,38.701462],[-75.37533,38.701474],[-75.37532,38.701482],[-75.375317,38.701492],[-75.375313,38.701503],[-75.375306,38.701515],[-75.375306,38.701528],[-75.375304,38.70154],[-75.3753,38.701549],[-75.375294,38.701556],[-75.375294,38.701561],[-75.375289,38.701577],[-75.375287,38.701589],[-75.375284,38.701596],[-75.375277,38.70161],[-75.375268,38.701624],[-75.375258,38.701637],[-75.375251,38.701647],[-75.375245,38.701661],[-75.375243,38.701677],[-75.375244,38.701691],[-75.375241,38.701704],[-75.375232,38.701717],[-75.375221,38.701728],[-75.375216,38.701738],[-75.37521,38.701751],[-75.375203,38.701762],[-75.375202,38.701775],[-75.375203,38.701788],[-75.3752,38.701801],[-75.375195,38.701813],[-75.375194,38.701825],[-75.37519,38.701837],[-75.375183,38.70185],[-75.375179,38.70186],[-75.375172,38.701872],[-75.375167,38.701884],[-75.375162,38.701896],[-75.375162,38.701909],[-75.375163,38.701923],[-75.375162,38.701937],[-75.375158,38.701949],[-75.37515,38.701962],[-75.375149,38.701973],[-75.375143,38.701987],[-75.375142,38.702],[-75.375142,38.702012],[-75.375137,38.702023],[-75.375134,38.702036],[-75.375129,38.702043],[-75.375125,38.702053],[-75.375122,38.702057],[-75.375117,38.702073],[-75.375114,38.702082],[-75.375107,38.702093],[-75.3751,38.702107],[-75.375092,38.702121],[-75.375086,38.70213],[-75.375077,38.702141],[-75.375074,38.70215],[-75.375065,38.702154],[-75.375058,38.70216],[-75.375058,38.70216],[-75.375064,38.702157],[-75.375063,38.702159],[-75.37506,38.70216],[-75.375057,38.702162],[-75.375059,38.702178],[-75.375056,38.702194],[-75.375053,38.702205],[-75.375047,38.702216],[-75.375047,38.702225],[-75.375044,38.702237],[-75.375042,38.70225],[-75.375044,38.702268],[-75.375039,38.702287],[-75.375031,38.702292],[-75.375022,38.702304],[-75.37502,38.702316],[-75.375013,38.702328],[-75.375005,38.70234],[-75.375003,38.702348],[-75.375001,38.702361],[-75.374994,38.702374],[-75.374987,38.702388],[-75.37498,38.702399],[-75.374976,38.702411],[-75.374972,38.702424],[-75.374968,38.702438],[-75.374964,38.702451],[-75.374963,38.702463],[-75.37496,38.702475],[-75.374957,38.702486],[-75.374957,38.702496],[-75.374952,38.702509],[-75.374947,38.702519],[-75.374943,38.702531],[-75.374944,38.702543],[-75.374941,38.702556],[-75.374934,38.702568],[-75.374921,38.702579],[-75.374912,38.702592],[-75.374904,38.702603],[-75.374895,38.702613],[-75.374886,38.702623],[-75.374885,38.702635],[-75.374876,38.702645],[-75.374868,38.702656],[-75.374866,38.70267],[-75.374863,38.702681],[-75.374852,38.702691],[-75.374843,38.702698],[-75.374833,38.702707],[-75.374821,38.702718],[-75.374816,38.702727],[-75.374815,38.702743],[-75.374812,38.702743],[-75.374796,38.702751],[-75.374782,38.702759],[-75.374771,38.702771],[-75.374755,38.70278],[-75.374737,38.702784],[-75.374724,38.702789],[-75.374712,38.702791],[-75.374694,38.702794],[-75.374674,38.702793],[-75.37466,38.702792],[-75.374646,38.702792],[-75.374627,38.702793],[-75.374609,38.702794],[-75.374591,38.702797],[-75.374576,38.702801],[-75.374558,38.702805],[-75.374541,38.702808],[-75.374525,38.702809],[-75.374507,38.702806],[-75.374492,38.702802],[-75.374477,38.702799],[-75.374461,38.702794],[-75.374431,38.702789],[-75.374416,38.702788],[-75.374399,38.702795],[-75.374381,38.702797],[-75.374365,38.702795],[-75.37435,38.702796],[-75.374334,38.702797],[-75.374317,38.702792],[-75.374301,38.702792],[-75.374285,38.702791],[-75.374267,38.702795],[-75.374249,38.702799],[-75.374231,38.702798],[-75.374217,38.702799],[-75.374203,38.70281],[-75.37419,38.702817],[-75.374175,38.702821],[-75.374162,38.702827],[-75.374151,38.702839],[-75.374141,38.702849],[-75.374125,38.702857],[-75.374109,38.702864],[-75.374098,38.702875],[-75.374085,38.702884],[-75.374073,38.702895],[-75.374062,38.702905],[-75.374051,38.702914],[-75.374037,38.702924],[-75.374032,38.702935],[-75.374027,38.702946],[-75.374021,38.702955],[-75.374004,38.702962],[-75.373996,38.702973],[-75.373993,38.702987],[-75.373988,38.702997],[-75.373987,38.703009],[-75.373983,38.70302],[-75.373975,38.703031],[-75.373974,38.703044],[-75.373969,38.703056],[-75.373965,38.703067],[-75.373965,38.703079],[-75.373963,38.70309],[-75.373965,38.703103],[-75.373963,38.703114],[-75.373959,38.703126],[-75.373958,38.703138],[-75.373961,38.703149],[-75.373963,38.703163],[-75.373963,38.703172],[-75.37396,38.70318],[-75.373959,38.703187],[-75.373961,38.703196],[-75.37396,38.703209],[-75.373961,38.703221],[-75.373954,38.703236],[-75.373949,38.70325],[-75.373954,38.703265],[-75.373959,38.703281],[-75.373957,38.703294],[-75.37396,38.703304],[-75.373958,38.703317],[-75.37396,38.70333],[-75.373963,38.703342],[-75.373958,38.703355],[-75.373949,38.703369],[-75.373942,38.703379],[-75.373941,38.70339],[-75.373946,38.703399],[-75.373949,38.703405],[-75.373949,38.703418],[-75.373953,38.70343],[-75.373957,38.703441],[-75.373958,38.703453],[-75.373957,38.703465],[-75.373967,38.703477],[-75.373978,38.703488],[-75.373977,38.703503],[-75.373971,38.703515],[-75.373968,38.703529],[-75.373965,38.703543],[-75.373965,38.703554],[-75.373961,38.703565],[-75.373959,38.703581],[-75.373964,38.703594],[-75.373972,38.703603],[-75.373968,38.703617],[-75.373968,38.70363],[-75.373962,38.703643],[-75.373959,38.703655],[-75.373958,38.703669],[-75.373962,38.703681],[-75.373962,38.703693],[-75.37396,38.703699],[-75.373959,38.703707],[-75.373957,38.703718],[-75.373958,38.703728],[-75.373961,38.703747],[-75.373956,38.703743],[-75.373952,38.703756],[-75.37395,38.703767],[-75.373944,38.703783],[-75.373948,38.703796],[-75.373951,38.703808],[-75.373956,38.703821],[-75.373952,38.703834],[-75.373948,38.703847],[-75.373946,38.703859],[-75.373946,38.703871],[-75.373944,38.703883],[-75.373942,38.703895],[-75.373941,38.703907],[-75.373939,38.703919],[-75.373939,38.703931],[-75.373937,38.703944],[-75.373932,38.703954],[-75.373927,38.703967],[-75.373926,38.703976],[-75.373922,38.703988],[-75.373914,38.703997],[-75.373912,38.704009],[-75.373909,38.704017],[-75.373907,38.70403],[-75.373909,38.70404],[-75.373906,38.70405],[-75.373901,38.704062],[-75.3739,38.704072],[-75.373898,38.70408],[-75.373893,38.704094],[-75.373892,38.704107],[-75.373892,38.704117],[-75.373894,38.704132],[-75.373891,38.704148],[-75.373891,38.704165],[-75.373885,38.70418],[-75.37388,38.704187],[-75.373879,38.704198],[-75.373872,38.704207],[-75.373867,38.704218],[-75.373868,38.704232],[-75.373866,38.704252],[-75.373862,38.704266],[-75.373859,38.704282],[-75.373854,38.704296],[-75.373849,38.704309],[-75.373845,38.704322],[-75.373844,38.704336],[-75.373845,38.704349],[-75.373846,38.704363],[-75.373841,38.704374],[-75.373837,38.704384],[-75.373837,38.704395],[-75.373828,38.704406],[-75.373821,38.704416],[-75.373817,38.704426],[-75.373813,38.704439],[-75.373813,38.704451],[-75.37381,38.704463],[-75.373809,38.704476],[-75.373809,38.70449],[-75.373805,38.704504],[-75.373804,38.704517],[-75.373802,38.704529],[-75.373796,38.70454],[-75.373794,38.704553],[-75.373787,38.704565],[-75.37378,38.704576],[-75.373776,38.704586],[-75.37377,38.704598],[-75.373764,38.70461],[-75.373762,38.704622],[-75.373754,38.704633],[-75.373746,38.704643],[-75.373742,38.704655],[-75.373737,38.704667],[-75.373727,38.704678],[-75.373719,38.704691],[-75.373719,38.704703],[-75.373721,38.704716],[-75.373716,38.704729],[-75.373708,38.704743],[-75.373703,38.704755],[-75.373703,38.704767],[-75.373709,38.704778],[-75.373715,38.704785],[-75.373725,38.704793],[-75.373729,38.704806],[-75.373723,38.704819],[-75.373716,38.70483],[-75.37372,38.704841],[-75.373727,38.704852],[-75.373735,38.704862],[-75.373738,38.704873],[-75.373738,38.704886],[-75.373739,38.704898],[-75.373741,38.704904],[-75.373742,38.704912],[-75.373744,38.704918],[-75.373747,38.704927],[-75.373751,38.704939],[-75.373755,38.704948],[-75.373766,38.704972],[-75.373773,38.704981],[-75.373781,38.70499],[-75.373783,38.705004],[-75.373781,38.705019],[-75.373782,38.705028],[-75.373783,38.705041],[-75.373784,38.705055],[-75.373786,38.705064],[-75.373784,38.705073],[-75.373784,38.705082],[-75.373788,38.705092],[-75.373792,38.705105],[-75.373792,38.705114],[-75.373792,38.705124],[-75.373791,38.705131],[-75.373791,38.705151],[-75.373798,38.705166],[-75.373803,38.705179],[-75.373806,38.705192],[-75.373806,38.705205],[-75.373811,38.70522],[-75.373811,38.705233],[-75.373815,38.705247],[-75.373818,38.705259],[-75.373818,38.705271],[-75.373824,38.705281],[-75.373826,38.705287],[-75.373827,38.705288],[-75.373828,38.705291],[-75.373827,38.70529],[-75.373824,38.705292],[-75.373822,38.705301],[-75.373818,38.705305],[-75.373822,38.705317],[-75.373835,38.705331],[-75.373858,38.705348],[-75.373865,38.70536],[-75.373871,38.705368],[-75.373887,38.705374],[-75.373903,38.705378],[-75.373919,38.705379],[-75.37393,38.705387],[-75.373946,38.70539],[-75.373958,38.705399],[-75.37397,38.705406],[-75.373981,38.705416],[-75.374001,38.705422],[-75.374015,38.705427],[-75.374022,38.705428],[-75.374042,38.705439],[-75.374054,38.705445],[-75.374066,38.70545],[-75.37408,38.705454],[-75.374088,38.705457],[-75.3741,38.705458],[-75.374122,38.705467],[-75.374138,38.705475],[-75.374159,38.705477],[-75.374174,38.705472],[-75.37419,38.70547],[-75.374199,38.705468],[-75.37422,38.705468],[-75.37424,38.705472],[-75.374258,38.705477],[-75.374276,38.705481],[-75.374293,38.705486],[-75.374306,38.705492],[-75.37432,38.705493],[-75.374331,38.70549],[-75.37434,38.705481],[-75.374349,38.705478],[-75.374356,38.705483],[-75.374369,38.705486],[-75.374374,38.705484],[-75.37439,38.705484],[-75.374406,38.705481],[-75.374431,38.705487],[-75.374447,38.705489],[-75.374468,38.705492],[-75.374488,38.705497],[-75.374505,38.705505],[-75.374521,38.705511],[-75.374532,38.705526],[-75.374536,38.705539],[-75.374537,38.705554],[-75.374532,38.705564],[-75.374528,38.705573],[-75.374526,38.705584],[-75.374524,38.705592],[-75.374517,38.7056],[-75.374512,38.705611],[-75.374504,38.70562],[-75.374495,38.705632],[-75.37449,38.705645],[-75.374479,38.705657],[-75.374481,38.705671],[-75.374474,38.705676],[-75.374471,38.705685],[-75.374457,38.705712],[-75.374446,38.705723],[-75.37444,38.705737],[-75.374435,38.70575],[-75.374427,38.705761],[-75.374424,38.705773],[-75.374421,38.705783],[-75.374421,38.705794],[-75.37442,38.705804],[-75.374427,38.705816],[-75.374433,38.705827],[-75.37444,38.705836],[-75.374444,38.705844],[-75.374443,38.70585],[-75.374446,38.705855],[-75.374444,38.705877],[-75.374447,38.705889],[-75.37445,38.705903],[-75.374448,38.705917],[-75.374456,38.705929],[-75.37446,38.705939],[-75.374458,38.705934],[-75.374462,38.705949],[-75.374464,38.705963],[-75.374463,38.70598],[-75.374459,38.70599],[-75.374459,38.705996],[-75.374451,38.706017],[-75.374449,38.70603],[-75.374443,38.706044],[-75.37443,38.706058],[-75.374415,38.70607],[-75.374403,38.706082],[-75.374394,38.706095],[-75.37439,38.70611],[-75.374386,38.706124],[-75.374385,38.706137],[-75.374379,38.70615],[-75.374371,38.706164],[-75.374373,38.706179],[-75.374375,38.706193],[-75.374372,38.706207],[-75.374361,38.706218],[-75.374348,38.706226],[-75.374337,38.706235],[-75.374335,38.706247],[-75.374334,38.706257],[-75.374331,38.706266],[-75.374322,38.706274],[-75.374316,38.706284],[-75.374314,38.706292],[-75.374301,38.7063],[-75.374293,38.70631],[-75.37429,38.706322],[-75.374278,38.706333],[-75.374277,38.706346],[-75.374272,38.706358],[-75.374261,38.706367],[-75.374253,38.706376],[-75.37425,38.706378],[-75.374249,38.706376],[-75.37424,38.706391],[-75.374231,38.706402],[-75.374228,38.706409],[-75.374222,38.706415],[-75.374212,38.706428],[-75.374208,38.706438],[-75.374198,38.706446],[-75.374188,38.706459],[-75.374182,38.706472],[-75.374176,38.70648],[-75.374153,38.706509],[-75.37414,38.70652],[-75.37413,38.70653],[-75.374137,38.70653],[-75.374135,38.706535],[-75.374131,38.706541],[-75.374117,38.706552],[-75.374107,38.706571],[-75.3741,38.706579],[-75.374092,38.706587],[-75.374075,38.7066],[-75.374062,38.706618],[-75.374051,38.706628],[-75.37404,38.706638],[-75.374025,38.706645],[-75.374013,38.706648],[-75.373997,38.706649],[-75.373977,38.706654],[-75.37396,38.706658],[-75.373942,38.706663],[-75.373921,38.706663],[-75.373902,38.706663],[-75.373885,38.706665],[-75.373872,38.706665],[-75.37386,38.706668],[-75.37386,38.706665],[-75.373855,38.706669],[-75.373849,38.706667],[-75.37383,38.706673],[-75.37381,38.706678],[-75.373793,38.70668],[-75.373782,38.706679],[-75.373768,38.706676],[-75.373751,38.706673],[-75.373727,38.706673],[-75.373708,38.706671],[-75.373686,38.70667],[-75.373667,38.706672],[-75.373648,38.706673],[-75.37363,38.706671],[-75.373615,38.706671],[-75.373608,38.70667],[-75.373598,38.706672],[-75.37359,38.706677],[-75.373579,38.706676],[-75.373566,38.706683],[-75.373552,38.706684],[-75.373529,38.706684],[-75.373516,38.706685],[-75.373493,38.706687],[-75.373472,38.706695],[-75.373457,38.706706],[-75.373449,38.70672],[-75.373444,38.706729],[-75.373434,38.706735],[-75.373425,38.706735],[-75.373414,38.706743],[-75.373411,38.706747],[-75.373408,38.706755],[-75.373404,38.706767],[-75.373393,38.706785],[-75.373379,38.706799],[-75.373371,38.70681],[-75.373369,38.706819],[-75.373361,38.706827],[-75.373353,38.706844],[-75.373346,38.706858],[-75.373329,38.706876],[-75.373327,38.706885],[-75.373323,38.706898],[-75.373319,38.706909],[-75.373322,38.706911],[-75.373313,38.706917],[-75.3733,38.706927],[-75.373292,38.70694],[-75.373286,38.706947],[-75.373278,38.706956],[-75.373264,38.706967],[-75.373257,38.70698],[-75.373246,38.706994],[-75.37324,38.707],[-75.373224,38.707004],[-75.373214,38.707006],[-75.373199,38.707014],[-75.373182,38.707018],[-75.37316,38.707025],[-75.373145,38.707023],[-75.373135,38.707022],[-75.373141,38.70702],[-75.373142,38.707021],[-75.373136,38.70702],[-75.373135,38.707021],[-75.373116,38.707027],[-75.373089,38.707033],[-75.37307,38.707038],[-75.373059,38.70704],[-75.373045,38.707043],[-75.373033,38.70704],[-75.373018,38.707041],[-75.373004,38.707045],[-75.373,38.707046],[-75.372992,38.707045],[-75.372983,38.707048],[-75.372967,38.707049],[-75.372948,38.707048],[-75.37293,38.707052],[-75.372922,38.707057],[-75.372903,38.707051],[-75.372882,38.70705],[-75.372863,38.707053],[-75.372849,38.707054],[-75.372836,38.707054],[-75.372831,38.707053],[-75.372818,38.707054],[-75.372803,38.707055],[-75.372781,38.707055],[-75.372764,38.707054],[-75.37275,38.707057],[-75.372733,38.707057],[-75.372716,38.70706],[-75.3727,38.707064],[-75.372685,38.707066],[-75.372668,38.70706],[-75.372655,38.707062],[-75.372638,38.707066],[-75.372626,38.707065],[-75.372615,38.707063],[-75.372608,38.707063],[-75.372597,38.707066],[-75.372582,38.70707],[-75.372568,38.70707],[-75.372549,38.707072],[-75.372527,38.707074],[-75.372511,38.707076],[-75.372493,38.70708],[-75.372476,38.70708],[-75.372462,38.707082],[-75.372451,38.707079],[-75.372442,38.707081],[-75.372422,38.707081],[-75.372406,38.707081],[-75.372392,38.707081],[-75.37238,38.707081],[-75.372367,38.707083],[-75.37235,38.707086],[-75.372339,38.707086],[-75.372319,38.707086],[-75.372303,38.707086],[-75.372286,38.707083],[-75.372269,38.707078],[-75.372259,38.707079],[-75.372247,38.70708],[-75.372238,38.707079],[-75.372226,38.707084],[-75.372211,38.707085],[-75.372193,38.707086],[-75.372177,38.707086],[-75.372163,38.707086],[-75.372148,38.707086],[-75.372131,38.707086],[-75.372115,38.707084],[-75.372097,38.707085],[-75.372083,38.707089],[-75.372067,38.70709],[-75.372051,38.70709],[-75.372038,38.70709],[-75.372027,38.707093],[-75.372024,38.707095],[-75.372012,38.707097],[-75.371997,38.707097],[-75.371978,38.707092],[-75.371956,38.707095],[-75.37194,38.707098],[-75.37192,38.7071],[-75.371903,38.707096],[-75.371868,38.707091],[-75.371861,38.707087],[-75.371851,38.707088],[-75.37184,38.707089],[-75.371827,38.70709],[-75.371808,38.707089],[-75.371783,38.70709],[-75.37177,38.707093],[-75.37175,38.707092],[-75.371734,38.707093],[-75.371719,38.707093],[-75.371705,38.707094],[-75.371695,38.707094],[-75.371684,38.707092],[-75.371673,38.707091],[-75.371659,38.707095],[-75.371646,38.707092],[-75.371638,38.707091],[-75.371628,38.707094],[-75.371613,38.707096],[-75.3716,38.707095],[-75.371586,38.707097],[-75.371561,38.707102],[-75.37155,38.707107],[-75.371539,38.707112],[-75.371526,38.707114],[-75.371511,38.707115],[-75.371492,38.707114],[-75.371476,38.707116],[-75.371467,38.707112],[-75.371453,38.707113],[-75.371438,38.707113],[-75.371431,38.707116],[-75.371415,38.707117],[-75.371401,38.707119],[-75.371374,38.707121],[-75.37136,38.707121],[-75.371344,38.707123],[-75.371332,38.707124],[-75.371326,38.707122],[-75.371312,38.707121],[-75.371291,38.707121],[-75.371277,38.707121],[-75.371262,38.707122],[-75.371246,38.707123],[-75.371235,38.707121],[-75.371225,38.707122],[-75.371203,38.707121],[-75.371185,38.707122],[-75.371167,38.707123],[-75.37115,38.707125],[-75.371133,38.70713],[-75.371115,38.707129],[-75.371095,38.70713],[-75.371079,38.707124],[-75.371071,38.707123],[-75.37106,38.707125],[-75.371049,38.707126],[-75.371029,38.707125],[-75.371013,38.707126],[-75.370997,38.707123],[-75.370982,38.707127],[-75.370969,38.707128],[-75.37097,38.707127],[-75.370944,38.707124],[-75.37093,38.707118],[-75.370914,38.707115],[-75.370904,38.707112],[-75.370891,38.707109],[-75.370875,38.70711],[-75.370857,38.707111],[-75.370844,38.707111],[-75.370832,38.707108],[-75.370828,38.707099],[-75.370821,38.707094],[-75.370808,38.707084],[-75.370794,38.707073],[-75.370784,38.707067],[-75.370778,38.707061],[-75.370769,38.707059],[-75.370755,38.707059],[-75.370746,38.707065],[-75.370729,38.707069],[-75.370707,38.70707],[-75.370695,38.707071],[-75.370674,38.707069],[-75.370657,38.707067],[-75.370642,38.707064],[-75.370632,38.707064],[-75.370616,38.707064],[-75.370604,38.707067],[-75.370594,38.707073],[-75.370585,38.707071],[-75.370571,38.707067],[-75.37055,38.707067],[-75.370532,38.707067],[-75.370514,38.707069],[-75.370498,38.707076],[-75.370481,38.707077],[-75.370467,38.707078],[-75.370463,38.707079],[-75.370456,38.707076],[-75.370448,38.707073],[-75.370432,38.70707],[-75.370419,38.707073],[-75.370396,38.707074],[-75.370378,38.707076],[-75.370359,38.707077],[-75.370342,38.707079],[-75.370325,38.707079],[-75.370309,38.70708],[-75.37029,38.707085],[-75.370275,38.707085],[-75.370261,38.707081],[-75.370253,38.70708],[-75.370244,38.707082],[-75.370226,38.707084],[-75.37021,38.70709],[-75.370198,38.707087],[-75.370181,38.707084],[-75.370164,38.707075],[-75.370151,38.70707],[-75.370139,38.707065],[-75.37012,38.707056],[-75.370112,38.707058],[-75.370104,38.707051],[-75.370099,38.707048],[-75.370086,38.707038],[-75.370077,38.707031],[-75.370058,38.707021],[-75.370042,38.707014],[-75.370029,38.707009],[-75.370019,38.707004],[-75.370006,38.706999],[-75.369992,38.706996],[-75.369977,38.706992],[-75.369962,38.706991],[-75.36995,38.706989],[-75.369935,38.706988],[-75.369923,38.706989],[-75.369912,38.70699],[-75.369888,38.70699],[-75.369879,38.706987],[-75.369866,38.706988],[-75.369849,38.706988],[-75.369844,38.706986],[-75.369843,38.706983],[-75.369837,38.706983],[-75.36982,38.706981],[-75.369808,38.706977],[-75.369788,38.706972],[-75.36977,38.706972],[-75.369743,38.706968],[-75.36973,38.706964],[-75.369718,38.706961],[-75.369708,38.706961],[-75.369694,38.70696],[-75.369681,38.706958],[-75.369672,38.706958],[-75.369656,38.706959],[-75.369637,38.706956],[-75.369625,38.706943],[-75.36962,38.706933],[-75.369614,38.706928],[-75.369602,38.706921],[-75.36959,38.706912],[-75.36958,38.706901],[-75.369569,38.706892],[-75.369562,38.706887],[-75.369554,38.706881],[-75.369545,38.706869],[-75.36954,38.70686],[-75.369526,38.706845],[-75.369516,38.706835],[-75.369506,38.706826],[-75.369493,38.706811],[-75.369484,38.706799],[-75.369471,38.706788],[-75.369457,38.70678],[-75.369444,38.706774],[-75.369441,38.706763],[-75.36944,38.706766],[-75.369432,38.706762],[-75.369416,38.706741],[-75.369408,38.706726],[-75.369397,38.706713],[-75.369388,38.706701],[-75.369382,38.706692],[-75.369377,38.706683],[-75.369375,38.706688],[-75.369366,38.706681],[-75.369352,38.706662],[-75.369343,38.706651],[-75.369342,38.706638],[-75.369339,38.706633],[-75.369334,38.706626],[-75.369326,38.706616],[-75.369319,38.706609],[-75.369316,38.706597],[-75.369311,38.706587],[-75.369302,38.706579],[-75.369295,38.706569],[-75.369288,38.706561],[-75.36928,38.70655],[-75.369273,38.706536],[-75.369267,38.706525],[-75.369258,38.706515],[-75.369257,38.706503],[-75.369255,38.706493],[-75.369252,38.706488],[-75.369254,38.706492],[-75.369254,38.706493],[-75.369252,38.706488],[-75.369251,38.706485],[-75.36925,38.706484],[-75.36925,38.706487],[-75.369248,38.706485]]}}
